{"type":"Feature","geometry":{"coordinates":[[23.656882,52.084599],[23.656815,52.084612],[23.656702,52.084624],[23.656738,52.084775],[23.656805,52.08509],[23.656922,52.085701],[23.657195,52.086773],[23.657151,52.087073],[23.656921,52.088003],[23.656913,52.088118],[23.656944,52.088261],[23.657702,52.089525],[23.657761,52.089635],[23.657834,52.089772],[23.657943,52.089963],[23.658078,52.090177],[23.658145,52.090257],[23.658208,52.09031],[23.658422,52.0904],[23.658732,52.090507],[23.658888,52.09057],[23.659045,52.090633],[23.659549,52.090809],[23.659903,52.090882],[23.660313,52.090968],[23.660414,52.09099],[23.660519,52.091014],[23.660613,52.091098],[23.660833,52.091076],[23.661212,52.091161],[23.661349,52.091197],[23.661494,52.09124],[23.661582,52.091266],[23.662039,52.091402],[23.662251,52.091465],[23.66285,52.091647],[23.663172,52.091744],[23.663926,52.091964],[23.664513,52.092112],[23.665357,52.092355],[23.665409,52.092369],[23.665697,52.092419],[23.665922,52.092451],[23.665859,52.092521],[23.665557,52.092858],[23.665225,52.093187],[23.664604,52.093831],[23.664261,52.094197],[23.663981,52.094502],[23.663752,52.094765],[23.663612,52.094944],[23.663493,52.095096],[23.663386,52.095263],[23.663247,52.095511],[23.663178,52.095664],[23.66312,52.095808],[23.663059,52.095999],[23.663011,52.096207],[23.662981,52.096444],[23.662965,52.096676],[23.662967,52.097001],[23.662999,52.097336],[23.663043,52.097581],[23.663139,52.097868],[23.663601,52.099032],[23.664032,52.100281],[23.664549,52.101622],[23.665246,52.103586],[23.665413,52.103987],[23.665528,52.104173],[23.665754,52.104394],[23.66583,52.104449],[23.66587,52.104479],[23.6661,52.104598],[23.66629,52.104674],[23.666443,52.104776],[23.66655,52.104899],[23.666604,52.105035],[23.666601,52.105174],[23.666542,52.105308],[23.666447,52.105478],[23.666375,52.105623],[23.666322,52.105789],[23.666287,52.105953],[23.666269,52.106175],[23.666302,52.106399],[23.666362,52.106573],[23.666852,52.10794],[23.667014,52.108491],[23.667611,52.110302],[23.667831,52.110874],[23.667977,52.11131],[23.668127,52.111861],[23.668199,52.112102],[23.668303,52.112445],[23.668437,52.11289],[23.669005,52.114573],[23.669127,52.114934],[23.669187,52.115155],[23.669264,52.115439],[23.669365,52.115753],[23.669891,52.117391],[23.669981,52.117673],[23.670063,52.117928],[23.670078,52.117976],[23.670087,52.118003],[23.670137,52.11816],[23.670175,52.118275],[23.670251,52.118507],[23.670431,52.11906],[23.670595,52.11956],[23.67072,52.119941],[23.670925,52.120581],[23.670968,52.120718],[23.670988,52.120771],[23.67103,52.120891],[23.671142,52.12123],[23.671213,52.121443],[23.671264,52.121613],[23.671293,52.121702],[23.671474,52.122236],[23.671596,52.122596],[23.671749,52.123028],[23.671943,52.123567],[23.671992,52.123738],[23.672057,52.123927],[23.672186,52.124315],[23.672416,52.12502],[23.672521,52.125332],[23.672691,52.125828],[23.673572,52.128602],[23.673724,52.12913],[23.673777,52.129277],[23.673826,52.129444],[23.673938,52.129835],[23.674044,52.130201],[23.674169,52.130618],[23.674294,52.131048],[23.674385,52.131338],[23.674402,52.131394],[23.674442,52.13154],[23.674486,52.131703],[23.674834,52.13299],[23.674981,52.133523],[23.675138,52.134094],[23.675281,52.134615],[23.675338,52.134822],[23.675381,52.134979],[23.675782,52.136363],[23.675846,52.136615],[23.676003,52.13724],[23.676052,52.137391],[23.67631,52.137979],[23.676407,52.138168],[23.676497,52.138307],[23.676579,52.138433],[23.676732,52.13862],[23.677309,52.139246],[23.678411,52.140164],[23.67849,52.140227],[23.678885,52.140538],[23.68005,52.141455],[23.681005,52.142208],[23.681603,52.142694],[23.682113,52.143163],[23.6825,52.143514],[23.68267,52.143703],[23.683061,52.144115],[23.683202,52.144269],[23.683563,52.144651],[23.684514,52.145715],[23.68472,52.145969],[23.684898,52.146165],[23.685391,52.146693],[23.686503,52.147885],[23.687178,52.148637],[23.687496,52.148986],[23.687607,52.149113],[23.688281,52.149726],[23.688916,52.150187],[23.689635,52.150624],[23.690163,52.150909],[23.690267,52.150968],[23.69047,52.151074],[23.69058,52.151122],[23.690716,52.151167],[23.690883,52.151193],[23.691056,52.151197],[23.691416,52.151197],[23.691525,52.151164],[23.691661,52.151139],[23.691802,52.151127],[23.691944,52.15113],[23.692084,52.151148],[23.692216,52.151179],[23.692339,52.151224],[23.692448,52.15128],[23.692569,52.151373],[23.692626,52.151439],[23.692667,52.151509],[23.692692,52.151581],[23.6927,52.151655],[23.69269,52.151729],[23.692664,52.151802],[23.692622,52.151871],[23.692669,52.152078],[23.692709,52.152179],[23.692774,52.152298],[23.692921,52.152474],[23.69306,52.152687],[23.693178,52.152885],[23.693214,52.15292],[23.693287,52.153007],[23.694371,52.154321],[23.695735,52.156013],[23.699611,52.16082],[23.702332,52.164176],[23.703037,52.165046],[23.704563,52.166929],[23.70502,52.167493],[23.705122,52.167619],[23.705473,52.168057],[23.707216,52.170226],[23.708774,52.172149],[23.709521,52.173071],[23.710925,52.174826],[23.711362,52.175355],[23.712833,52.177173],[23.713839,52.178407],[23.714503,52.179199],[23.714913,52.179689],[23.716003,52.181055],[23.717108,52.182424],[23.718305,52.183878],[23.722275,52.188754],[23.725132,52.192435],[23.725724,52.193149],[23.725959,52.193391],[23.726238,52.193652],[23.726727,52.194058],[23.72928,52.196102],[23.730105,52.196744],[23.730272,52.196875],[23.730794,52.197282],[23.731566,52.197913],[23.732075,52.198286],[23.73255,52.198656],[23.739904,52.204402],[23.740217,52.204644],[23.740348,52.204742],[23.741053,52.205309],[23.741914,52.206043],[23.742089,52.206196],[23.742707,52.206767],[23.743245,52.207316],[23.743709,52.207858],[23.744112,52.208337],[23.744344,52.208623],[23.744522,52.208843],[23.744607,52.208947],[23.744849,52.209267],[23.74496,52.209407],[23.745295,52.209826],[23.74534,52.209883],[23.745593,52.210199],[23.7463,52.211181],[23.746928,52.211995],[23.747057,52.212216],[23.747311,52.212686],[23.747515,52.213081],[23.747666,52.213353],[23.747784,52.213578],[23.747949,52.213937],[23.748013,52.21407],[23.748065,52.214183],[23.748334,52.214807],[23.748559,52.215434],[23.74891,52.216482],[23.749166,52.217405],[23.749279,52.217947],[23.749413,52.218772],[23.749504,52.219548],[23.749553,52.22003],[23.749599,52.22044],[23.749676,52.221225],[23.749742,52.222009],[23.749824,52.222973],[23.749825,52.223039],[23.749847,52.224197],[23.74982,52.224747],[23.749785,52.225227],[23.749685,52.225999],[23.749609,52.226493],[23.749469,52.227252],[23.749347,52.227759],[23.749102,52.228638],[23.748795,52.229726],[23.748541,52.230598],[23.747294,52.234925],[23.746847,52.2364],[23.746591,52.237319],[23.746491,52.237799],[23.746444,52.23814],[23.746427,52.238821],[23.746448,52.239199],[23.746536,52.239802],[23.746649,52.240296],[23.747091,52.24116],[23.747823,52.242582],[23.748871,52.244628],[23.749576,52.246008],[23.750943,52.248668],[23.751142,52.249054],[23.75168,52.2501],[23.751974,52.250653],[23.752296,52.251206],[23.752541,52.251609],[23.753176,52.252535],[23.754099,52.253837],[23.755016,52.255113],[23.755426,52.255672],[23.755937,52.256293],[23.756398,52.256786],[23.756864,52.257252],[23.757956,52.258218],[23.759516,52.259596],[23.760046,52.26006],[23.760644,52.260583],[23.761128,52.261006],[23.761949,52.26173],[23.762335,52.262069],[23.762726,52.262408],[23.765114,52.264567],[23.76536,52.264871],[23.765765,52.265469],[23.766853,52.267236],[23.767455,52.268198],[23.768049,52.26916],[23.768426,52.269797],[23.768474,52.269892],[23.768644,52.270212],[23.768773,52.270508],[23.768859,52.270881],[23.768911,52.271347],[23.768916,52.271442],[23.76892,52.271534],[23.768944,52.271886],[23.768971,52.272317],[23.769015,52.272866],[23.769037,52.273047],[23.769057,52.273203],[23.769135,52.273624],[23.769269,52.274191],[23.769423,52.274699],[23.769544,52.275096],[23.769683,52.275489],[23.769963,52.276193],[23.770327,52.277132],[23.770374,52.277254],[23.770429,52.27741],[23.771923,52.281327],[23.772362,52.282517],[23.773486,52.28556],[23.774501,52.288202],[23.775127,52.289647],[23.775872,52.291519],[23.776407,52.293108],[23.776857,52.294565],[23.777032,52.29512],[23.777237,52.295752],[23.77741,52.296279],[23.777495,52.296515],[23.777672,52.296966],[23.777834,52.297282],[23.777987,52.29753],[23.778164,52.297739],[23.77846,52.298056],[23.780061,52.299658],[23.780726,52.300336],[23.781148,52.300822],[23.78147,52.301277],[23.781688,52.301666],[23.781895,52.302161],[23.782061,52.302702],[23.782105,52.302966],[23.782123,52.303249],[23.782137,52.303639],[23.782126,52.30396],[23.782042,52.30447],[23.781999,52.30471],[23.781975,52.304833],[23.781907,52.305118],[23.781743,52.305862],[23.781341,52.307705],[23.780866,52.309844],[23.780667,52.310783],[23.780604,52.311283],[23.780608,52.311527],[23.780614,52.311855],[23.780657,52.312232],[23.780717,52.31261],[23.78113,52.314734],[23.782079,52.319602],[23.782497,52.321723],[23.782617,52.322346],[23.782901,52.323746],[23.782925,52.32389],[23.782998,52.324331],[23.783024,52.324607],[23.783036,52.324926],[23.783024,52.325138],[23.782997,52.325488],[23.782954,52.325844],[23.782911,52.326174],[23.782958,52.326234],[23.783,52.326282],[23.783062,52.326339],[23.783108,52.326371],[23.78319,52.326411],[23.783292,52.326442],[23.783336,52.326447],[23.783438,52.326457],[23.783895,52.326502],[23.785822,52.326689],[23.786573,52.326761],[23.787495,52.326849],[23.790029,52.327095],[23.791638,52.327253],[23.794062,52.327481],[23.795561,52.327626],[23.798401,52.327894],[23.801619,52.32821],[23.803516,52.328396],[23.815758,52.329556],[23.817347,52.329706],[23.828137,52.330729],[23.828315,52.330745],[23.830314,52.330921],[23.832534,52.331116],[23.844725,52.332285],[23.851909,52.332973],[23.859442,52.333672],[23.872351,52.33487],[23.873329,52.335008],[23.873477,52.335034],[23.874214,52.335162],[23.878433,52.336133],[23.887469,52.338171],[23.891632,52.339112],[23.895379,52.33996],[23.896801,52.340282],[23.901021,52.341097],[23.903482,52.34156],[23.905368,52.341943],[23.905743,52.342019],[23.907249,52.342291],[23.910482,52.342893],[23.912779,52.343333],[23.914987,52.343796],[23.916252,52.344042],[23.919357,52.344615],[23.925707,52.345788],[23.933348,52.347256],[23.935106,52.347594],[23.935258,52.347623],[23.937644,52.348076],[23.938389,52.348217],[23.941253,52.34876],[23.944985,52.349447],[23.94722,52.349859],[23.952497,52.3509],[23.958879,52.352146],[23.960042,52.352373],[23.960321,52.35242],[23.961671,52.352652],[23.962223,52.352722],[23.963211,52.352798],[23.963716,52.352784],[23.973523,52.352543],[23.985504,52.352246],[23.986542,52.352225],[23.987406,52.352265],[23.987926,52.352316],[23.988309,52.352354],[23.989583,52.35259],[24.002063,52.355123],[24.007722,52.356272],[24.015824,52.357911],[24.018403,52.358433],[24.018598,52.358473],[24.022546,52.359272],[24.027287,52.360234],[24.031925,52.361175],[24.032739,52.36134],[24.044725,52.363771],[24.046795,52.36419],[24.049527,52.364769],[24.05331,52.365518],[24.056905,52.366247],[24.057293,52.366329],[24.059379,52.366754],[24.059599,52.366797],[24.060037,52.366886],[24.060689,52.367018],[24.061664,52.367215],[24.06752,52.368399],[24.07437,52.3698],[24.081251,52.371208],[24.082385,52.371436],[24.086796,52.372329],[24.089526,52.372883],[24.095792,52.374122],[24.096017,52.374166],[24.096809,52.374323],[24.100624,52.375088],[24.107059,52.376379],[24.108554,52.376685],[24.116345,52.378278],[24.11955,52.378934],[24.12199,52.379401],[24.122529,52.379497],[24.123941,52.379789],[24.124081,52.379817],[24.126304,52.380276],[24.130333,52.381094],[24.137826,52.382632],[24.138099,52.382688],[24.141286,52.38333],[24.152605,52.385608],[24.156806,52.386458],[24.158137,52.386733],[24.165729,52.388301],[24.166153,52.388404],[24.166799,52.388609],[24.167135,52.388744],[24.167484,52.388898],[24.167882,52.389122],[24.168769,52.389731],[24.172506,52.3922],[24.178625,52.396221],[24.179331,52.396679],[24.179468,52.396771],[24.180038,52.397159],[24.180088,52.397193],[24.18063,52.397578],[24.183243,52.399341],[24.183691,52.399696],[24.184157,52.400127],[24.184375,52.400376],[24.184781,52.400884],[24.185047,52.40133],[24.185297,52.401906],[24.185705,52.403147],[24.185886,52.403663],[24.186231,52.404653],[24.186434,52.405108],[24.18662,52.405424],[24.186853,52.405744],[24.187108,52.406016],[24.187442,52.40635],[24.187925,52.406737],[24.188186,52.406947],[24.188894,52.407356],[24.189623,52.407714],[24.190427,52.408048],[24.191144,52.408258],[24.19224,52.408541],[24.201371,52.410859],[24.206156,52.412088],[24.212556,52.413691],[24.218163,52.41514],[24.219412,52.415469],[24.219531,52.415503],[24.21973,52.41556],[24.219983,52.415657],[24.220497,52.41587],[24.220932,52.416055],[24.222496,52.416791],[24.224128,52.417588],[24.227037,52.418999],[24.227529,52.419237],[24.227859,52.419389],[24.228264,52.419584],[24.229636,52.420244],[24.231243,52.421054],[24.236709,52.423687],[24.241146,52.425825],[24.24505,52.42772],[24.2465,52.428442],[24.254396,52.432251],[24.256549,52.433303],[24.258911,52.434458],[24.259004,52.434504],[24.260776,52.435368],[24.263067,52.436477],[24.26634,52.438061],[24.269665,52.43967],[24.286729,52.447996],[24.291144,52.450118],[24.293204,52.45113],[24.294972,52.451991],[24.296215,52.452602],[24.297216,52.453122],[24.297944,52.453584],[24.299385,52.454589],[24.301176,52.455825],[24.305358,52.458709],[24.305432,52.458759],[24.312892,52.463925],[24.318559,52.467796],[24.333636,52.478094],[24.337312,52.480695],[24.347505,52.487649],[24.354863,52.492672],[24.356395,52.493704],[24.358536,52.49516],[24.36272,52.498018],[24.362908,52.498146],[24.363028,52.498228],[24.363099,52.498276],[24.366264,52.500422],[24.370407,52.503231],[24.371205,52.503788],[24.372451,52.504658],[24.373375,52.505315],[24.374112,52.505795],[24.374333,52.505953],[24.374609,52.506111],[24.375215,52.506434],[24.375938,52.506784],[24.380138,52.508761],[24.381646,52.509476],[24.39074,52.513809],[24.398774,52.517628],[24.400229,52.518319],[24.401586,52.518981],[24.402148,52.51925],[24.40353,52.519913],[24.404322,52.520274],[24.412851,52.524281],[24.417735,52.526589],[24.434547,52.534505],[24.439115,52.53667],[24.440021,52.537111],[24.446661,52.540252],[24.44793,52.540851],[24.448154,52.540957],[24.448382,52.541069],[24.449398,52.541537],[24.44965,52.541973],[24.449678,52.542021],[24.45175,52.545598],[24.451987,52.546029],[24.452207,52.546417],[24.452364,52.546685],[24.452382,52.546718],[24.452685,52.547273],[24.453173,52.54811],[24.453256,52.548252],[24.453325,52.548434],[24.453404,52.548797],[24.453585,52.54948],[24.453678,52.549828],[24.453956,52.550863],[24.454153,52.551581],[24.454565,52.553151],[24.454581,52.553209],[24.454923,52.554484],[24.454997,52.554755],[24.455254,52.55567],[24.455285,52.555789],[24.455304,52.555874],[24.455491,52.556569],[24.455521,52.556681],[24.455642,52.557145],[24.455725,52.55745],[24.455756,52.55758],[24.455814,52.557819],[24.455913,52.55819],[24.456012,52.558585],[24.456043,52.55871],[24.456066,52.558794],[24.456309,52.559721],[24.456355,52.559896],[24.456363,52.559924],[24.456404,52.560065],[24.456482,52.560381],[24.456592,52.560823],[24.456682,52.561173],[24.456701,52.561292],[24.456733,52.561455],[24.456764,52.561621],[24.45682,52.561933],[24.45685,52.562107],[24.456882,52.562289],[24.456916,52.56249],[24.456934,52.562595],[24.456977,52.562844],[24.457001,52.56298],[24.457155,52.564074],[24.457175,52.564213],[24.457316,52.564208],[24.457528,52.564201],[24.457893,52.564188],[24.458396,52.564174],[24.458884,52.564161],[24.459206,52.564148],[24.459213,52.564201],[24.459222,52.564504],[24.459227,52.564624],[24.459252,52.564938],[24.459295,52.565405],[24.459322,52.565693],[24.45935,52.565992],[24.459391,52.566411],[24.459458,52.56669],[24.459542,52.566934],[24.459728,52.567415],[24.459851,52.567736],[24.459871,52.567789],[24.459956,52.567948],[24.46005,52.568105],[24.460208,52.568352],[24.460326,52.56855],[24.460545,52.568825],[24.460691,52.568952],[24.460897,52.569085],[24.461137,52.569189],[24.46145,52.569289],[24.461746,52.569342],[24.462043,52.569386],[24.462631,52.569404],[24.463421,52.569391],[24.463657,52.569386],[24.463976,52.569379],[24.464508,52.56936],[24.465303,52.569339],[24.46572,52.569328],[24.466318,52.569316],[24.466547,52.569312],[24.466655,52.56931],[24.467351,52.569297],[24.467987,52.569285],[24.468327,52.569268],[24.46863,52.569254],[24.468725,52.569249],[24.468922,52.569238],[24.469062,52.569233],[24.469257,52.569225],[24.469989,52.569197],[24.47009,52.569193],[24.470215,52.569188],[24.471524,52.569152],[24.47232,52.569128],[24.472429,52.569123],[24.472731,52.569119],[24.47352,52.5691],[24.473679,52.569095],[24.47385,52.569088],[24.474709,52.569057],[24.475264,52.569037],[24.475575,52.569026],[24.475786,52.569021],[24.478367,52.568963],[24.483828,52.568797],[24.484513,52.568773],[24.484853,52.568763],[24.485198,52.569309],[24.48543,52.569675],[24.48552,52.569816],[24.485727,52.570139],[24.485834,52.570307],[24.485882,52.570383],[24.486295,52.571034],[24.48635,52.571121],[24.487905,52.573574],[24.489166,52.575564],[24.490049,52.576921],[24.491493,52.57914],[24.492717,52.581021],[24.495893,52.586067],[24.49682,52.587521],[24.498364,52.589941],[24.499959,52.592439],[24.500461,52.593204],[24.500508,52.593277],[24.500721,52.593596],[24.501062,52.59412],[24.502205,52.595915],[24.505685,52.601379],[24.507527,52.604277],[24.511244,52.610141],[24.511611,52.61072],[24.512317,52.611833],[24.512496,52.612101],[24.512607,52.612266],[24.512731,52.612459],[24.512785,52.612544],[24.512945,52.612795],[24.513874,52.614252],[24.514252,52.61483],[24.515518,52.616803],[24.516825,52.618863],[24.517242,52.619366],[24.517528,52.619613],[24.517895,52.619867],[24.51826,52.620098],[24.518606,52.62028],[24.519372,52.62059],[24.51963,52.620683],[24.520085,52.620847],[24.520791,52.621115],[24.521361,52.621331],[24.522513,52.621769],[24.527045,52.623491],[24.530426,52.624779],[24.531633,52.625238],[24.535619,52.626752],[24.53911,52.628078],[24.544353,52.630077],[24.544497,52.630137],[24.545764,52.630621],[24.548505,52.631653],[24.550781,52.632524],[24.551609,52.632842],[24.551903,52.632955],[24.552779,52.633289],[24.552948,52.633353],[24.553693,52.633638],[24.554309,52.633873],[24.554782,52.634053],[24.556016,52.634525],[24.556788,52.634819],[24.557209,52.63498],[24.558795,52.635584],[24.565382,52.638094],[24.565774,52.638243],[24.5659,52.638291],[24.56623,52.638417],[24.566414,52.638487],[24.567261,52.638805],[24.56917,52.639533],[24.576024,52.642148],[24.576516,52.642336],[24.577016,52.642527],[24.577434,52.642685],[24.578011,52.642905],[24.578063,52.642925],[24.578396,52.643052],[24.580897,52.644008],[24.582165,52.644495],[24.583393,52.644964],[24.58414,52.645284],[24.584613,52.645511],[24.585308,52.645884],[24.586874,52.646747],[24.588031,52.647379],[24.588519,52.647649],[24.588901,52.647863],[24.591085,52.649054],[24.593206,52.650223],[24.596185,52.651845],[24.599161,52.653478],[24.599534,52.653682],[24.604155,52.656231],[24.612765,52.660967],[24.614846,52.662106],[24.625399,52.667882],[24.625966,52.668194],[24.636904,52.674219],[24.637702,52.674658],[24.647779,52.680201],[24.649261,52.681016],[24.649884,52.68136],[24.651404,52.682182],[24.655239,52.684294],[24.658719,52.686207],[24.661466,52.687722],[24.665357,52.689854],[24.666287,52.690371],[24.6666,52.690576],[24.666884,52.690795],[24.668857,52.692425],[24.674494,52.69708],[24.6777,52.699733],[24.680414,52.701978],[24.680585,52.702119],[24.682237,52.703477],[24.685177,52.705919],[24.686438,52.706967],[24.691501,52.711175],[24.694928,52.714033],[24.695254,52.714305],[24.696264,52.715122],[24.696914,52.715655],[24.698888,52.717335],[24.698979,52.717411],[24.70398,52.721555],[24.706951,52.724017],[24.712862,52.728908],[24.715969,52.731478],[24.721428,52.736019],[24.725632,52.739516],[24.730067,52.743197],[24.731086,52.744045],[24.734781,52.747123],[24.734919,52.747233],[24.738826,52.750469],[24.744331,52.755026],[24.747577,52.757733],[24.750976,52.760566],[24.753703,52.7628],[24.756326,52.76496],[24.762407,52.769969],[24.763048,52.770497],[24.764559,52.77174],[24.765051,52.772145],[24.772379,52.778176],[24.772434,52.778221],[24.774816,52.780164],[24.779604,52.78407],[24.781912,52.785962],[24.783673,52.787407],[24.785351,52.788785],[24.791377,52.793661],[24.791502,52.793762],[24.792026,52.794228],[24.793582,52.795452],[24.795192,52.796766],[24.795554,52.797065],[24.796614,52.79793],[24.799924,52.800628],[24.800255,52.800896],[24.802068,52.802367],[24.803015,52.803142],[24.80371,52.803711],[24.803783,52.80377],[24.804059,52.803997],[24.804473,52.804338],[24.808609,52.807693],[24.810939,52.809582],[24.817783,52.81516],[24.818839,52.816005],[24.819978,52.816916],[24.821414,52.818091],[24.822793,52.819226],[24.824537,52.820629],[24.824897,52.820924],[24.825211,52.82118],[24.825555,52.821418],[24.825997,52.821695],[24.827424,52.822546],[24.831747,52.825091],[24.836142,52.827711],[24.836255,52.827771],[24.836541,52.827934],[24.838697,52.829218],[24.840257,52.830143],[24.842944,52.831762],[24.843695,52.832186],[24.844115,52.832432],[24.844296,52.832537],[24.845534,52.833268],[24.848739,52.835168],[24.849004,52.835327],[24.849146,52.835413],[24.854457,52.838557],[24.859768,52.841703],[24.865111,52.844862],[24.870037,52.847779],[24.870554,52.848089],[24.87096,52.848322],[24.873687,52.849937],[24.87952,52.853389],[24.880751,52.85412],[24.885023,52.856644],[24.885513,52.856928],[24.887179,52.857913],[24.887905,52.858348],[24.888142,52.858495],[24.888587,52.858763],[24.888864,52.858928],[24.88913,52.859095],[24.889309,52.859219],[24.889433,52.859316],[24.889539,52.859408],[24.889658,52.859519],[24.889783,52.859642],[24.89015,52.86003],[24.890242,52.860131],[24.89083,52.860752],[24.890896,52.860817],[24.891021,52.860949],[24.891179,52.860898],[24.891279,52.860862],[24.892354,52.860524],[24.892474,52.860485],[24.893485,52.86016],[24.89415,52.859948],[24.895156,52.859616],[24.895191,52.859656],[24.895226,52.859694],[24.895248,52.859714],[24.89527,52.859729],[24.895296,52.85974],[24.895326,52.859746],[24.895365,52.859748],[24.895403,52.859746],[24.89544,52.859738],[24.895677,52.859657],[24.895793,52.859617],[24.895826,52.859602],[24.895855,52.859585],[24.895877,52.859564],[24.895892,52.859542],[24.895903,52.859518],[24.895902,52.859497],[24.895895,52.859474],[24.895879,52.859449],[24.895831,52.859393],[24.895882,52.859376],[24.896007,52.859334],[24.896742,52.859087],[24.896858,52.859047],[24.896959,52.859012],[24.897092,52.858962],[24.897209,52.858911],[24.897319,52.858856],[24.897427,52.858795],[24.897529,52.858732],[24.897637,52.858659],[24.897747,52.85858],[24.897969,52.858417],[24.898022,52.858384],[24.898081,52.858352],[24.898133,52.858325],[24.898195,52.8583],[24.898258,52.858279],[24.898827,52.858136],[24.899078,52.858069],[24.899448,52.857942],[24.899932,52.857762],[24.900961,52.857309],[24.902459,52.856643],[24.902548,52.856604],[24.902881,52.856457],[24.903415,52.856219],[24.903461,52.856197],[24.903536,52.856165],[24.905474,52.8553],[24.905695,52.855207],[24.906875,52.854662],[24.908036,52.854152],[24.911673,52.852547],[24.912632,52.85211],[24.915194,52.850982],[24.915466,52.850834],[24.915753,52.850668],[24.916601,52.850147],[24.916746,52.850062],[24.917282,52.849719],[24.918032,52.849229],[24.918172,52.849173],[24.918337,52.849118],[24.919105,52.848962],[24.91942,52.848899],[24.919669,52.848849],[24.920074,52.848725],[24.920545,52.848545],[24.920714,52.84848],[24.921392,52.848213],[24.921962,52.847995],[24.922801,52.847574],[24.923128,52.847423],[24.925653,52.846258],[24.929069,52.844627],[24.931284,52.84358],[24.932131,52.84318],[24.933427,52.842557],[24.933947,52.842293],[24.934481,52.841915],[24.936164,52.840708],[24.9365,52.840448],[24.937582,52.839638],[24.937871,52.839439],[24.938136,52.839253],[24.938281,52.839163],[24.938506,52.83906],[24.939268,52.83886],[24.93974,52.838732],[24.940026,52.838616],[24.940223,52.838479],[24.94066,52.838081],[24.94079,52.837956],[24.941042,52.837715],[24.941277,52.8375],[24.94151,52.837296],[24.941914,52.836911],[24.941992,52.836836],[24.942374,52.836477],[24.946191,52.83292],[24.947507,52.831636],[24.947682,52.831459],[24.948144,52.83104],[24.949593,52.829657],[24.954319,52.82523],[24.954683,52.824882],[24.954931,52.824613],[24.955321,52.824116],[24.956681,52.822208],[24.956963,52.821807],[24.958187,52.820097],[24.958963,52.818971],[24.959397,52.818378],[24.959597,52.818133],[24.959804,52.817885],[24.960074,52.81758],[24.961643,52.815795],[24.962491,52.814854],[24.963025,52.814249],[24.963244,52.814],[24.967754,52.808917],[24.970868,52.805598],[24.971114,52.805335],[24.971508,52.804915],[24.971859,52.804551],[24.972876,52.803494],[24.973647,52.802781],[24.975271,52.801338],[24.975933,52.800737],[24.976707,52.800023],[24.978812,52.798106],[24.98019,52.796878],[24.98092,52.796207],[24.981679,52.795459],[24.982421,52.794733],[24.984128,52.792963],[24.986594,52.790384],[24.991497,52.785309],[24.993958,52.782735],[24.994175,52.782517],[24.998086,52.778468],[25.001,52.775393],[25.002755,52.773542],[25.004019,52.772208],[25.004749,52.771438],[25.008182,52.767632],[25.009046,52.766706],[25.010644,52.764942],[25.010726,52.764852],[25.010806,52.764763],[25.011665,52.763812],[25.015344,52.759789],[25.01657,52.758426],[25.016724,52.758257],[25.017721,52.75714],[25.017908,52.756949],[25.018498,52.7563],[25.019492,52.755211],[25.019821,52.754878],[25.020032,52.754726],[25.020146,52.754655],[25.020238,52.754598],[25.020318,52.754552],[25.020382,52.754522],[25.020622,52.754413],[25.020957,52.754316],[25.021271,52.754254],[25.022463,52.754067],[25.024945,52.753667],[25.026906,52.753352],[25.029174,52.752978],[25.030919,52.752707],[25.031461,52.752698],[25.031775,52.752719],[25.032043,52.752756],[25.032357,52.75282],[25.03263,52.752895],[25.034334,52.753337],[25.035001,52.753477],[25.036861,52.753788],[25.038944,52.754125],[25.042413,52.754688],[25.044205,52.754971],[25.044685,52.755023],[25.049883,52.75545],[25.053333,52.755733],[25.05807,52.756123],[25.05859,52.756165],[25.059123,52.756206],[25.063176,52.756517],[25.068363,52.756943],[25.06918,52.75701],[25.073437,52.757357],[25.07922,52.757846],[25.080144,52.757921],[25.081053,52.757995],[25.083306,52.758178],[25.087806,52.758543],[25.089725,52.758697],[25.095045,52.75912],[25.097401,52.759314],[25.105221,52.759963],[25.106716,52.760087],[25.111132,52.760455],[25.111484,52.760484],[25.111978,52.760517],[25.112284,52.760543],[25.112945,52.760595],[25.114518,52.760734],[25.118465,52.761033],[25.120773,52.761221],[25.1218,52.761309],[25.122453,52.761365],[25.122443,52.76145],[25.122466,52.761525],[25.122545,52.761651],[25.122714,52.761783],[25.125236,52.763661],[25.125649,52.763882],[25.125883,52.763994],[25.126092,52.764077],[25.126392,52.764172],[25.126692,52.764244],[25.127285,52.764365],[25.127749,52.764437],[25.128156,52.764476],[25.128032,52.764697],[25.12792,52.764898],[25.127819,52.765049],[25.127696,52.76516],[25.127661,52.765187],[25.127582,52.765247],[25.127416,52.765333],[25.127377,52.765303],[25.127157,52.765132],[25.127073,52.765072],[25.126244,52.764479],[25.126208,52.764453],[25.125369,52.764224],[25.124733,52.764026],[25.124332,52.763942],[25.124053,52.763921],[25.123791,52.763931],[25.123444,52.76403],[25.122836,52.764398],[25.122688,52.764517],[25.121991,52.765079],[25.121959,52.765098],[25.121959,52.765098],[25.121991,52.765079],[25.122688,52.764517],[25.122836,52.764398],[25.123444,52.76403],[25.123791,52.763931],[25.124053,52.763921],[25.124332,52.763942],[25.124733,52.764026],[25.125369,52.764224],[25.126208,52.764453],[25.126244,52.764479],[25.127073,52.765072],[25.127157,52.765132],[25.127377,52.765303],[25.127416,52.765333],[25.127582,52.765247],[25.127661,52.765187],[25.127696,52.76516],[25.127819,52.765049],[25.12792,52.764898],[25.128032,52.764697],[25.128156,52.764476],[25.127749,52.764437],[25.127285,52.764365],[25.126692,52.764244],[25.126392,52.764172],[25.126092,52.764077],[25.125883,52.763994],[25.125649,52.763882],[25.125236,52.763661],[25.122714,52.761783],[25.122545,52.761651],[25.122466,52.761525],[25.122443,52.76145],[25.122453,52.761365],[25.122728,52.76138],[25.122978,52.761386],[25.123498,52.761394],[25.123857,52.76139],[25.124244,52.761366],[25.12459,52.761321],[25.124996,52.761251],[25.125383,52.761166],[25.125831,52.761041],[25.126173,52.760938],[25.12664,52.760761],[25.127297,52.76048],[25.128274,52.759963],[25.129116,52.759438],[25.129579,52.759168],[25.131928,52.757769],[25.136967,52.75475],[25.137904,52.754189],[25.139695,52.753106],[25.14059,52.752555],[25.141605,52.751937],[25.144045,52.750436],[25.145146,52.749766],[25.145953,52.749269],[25.14672,52.748834],[25.14722,52.748574],[25.147427,52.748463],[25.147751,52.748317],[25.147979,52.748226],[25.148369,52.748097],[25.14858,52.748037],[25.149024,52.747934],[25.149539,52.747829],[25.149804,52.747783],[25.150279,52.747705],[25.150629,52.747667],[25.150941,52.747648],[25.151254,52.747639],[25.151596,52.747634],[25.151932,52.747639],[25.152289,52.747642],[25.152659,52.74765],[25.152949,52.747656],[25.153734,52.747684],[25.154583,52.747713],[25.155054,52.747726],[25.161685,52.747956],[25.1686,52.74818],[25.169717,52.748192],[25.170399,52.748173],[25.171167,52.748086],[25.171531,52.74802],[25.172043,52.747931],[25.17264,52.747777],[25.173269,52.747579],[25.173622,52.747434],[25.173938,52.747303],[25.175485,52.746629],[25.177229,52.745869],[25.177687,52.745676],[25.178218,52.745471],[25.17859,52.745352],[25.17926,52.745137],[25.180141,52.744897],[25.181175,52.744669],[25.182453,52.744451],[25.186287,52.743896],[25.189368,52.743423],[25.191182,52.743149],[25.192888,52.742892],[25.206734,52.740924],[25.207808,52.740771],[25.208955,52.74061],[25.215253,52.739721],[25.217263,52.739437],[25.217606,52.739386],[25.222022,52.738721],[25.230175,52.737503],[25.232415,52.737192],[25.237511,52.736485],[25.238656,52.736326],[25.24698,52.735172],[25.249952,52.73476],[25.252198,52.734449],[25.254355,52.734155],[25.255415,52.73401],[25.255992,52.733927],[25.256743,52.73382],[25.258463,52.733574],[25.261753,52.733103],[25.262306,52.733024],[25.263918,52.732802],[25.264202,52.732763],[25.264406,52.732738],[25.268692,52.732128],[25.273148,52.731497],[25.274682,52.73128],[25.276268,52.731052],[25.278292,52.730767],[25.27932,52.730615],[25.279839,52.730539],[25.287762,52.729416],[25.29408,52.728512],[25.306044,52.726802],[25.307952,52.726531],[25.308396,52.726468],[25.314046,52.725671],[25.314263,52.725638],[25.316172,52.725348],[25.31691,52.725224],[25.317632,52.725042],[25.318472,52.72481],[25.319168,52.724574],[25.319962,52.724258],[25.320824,52.723847],[25.321898,52.723255],[25.322043,52.723171],[25.32215,52.723108],[25.322643,52.72282],[25.324167,52.721916],[25.324839,52.721531],[25.325082,52.721392],[25.325524,52.721096],[25.325708,52.720958],[25.325882,52.720828],[25.326034,52.72068],[25.326183,52.720514],[25.326343,52.720268],[25.326477,52.71999],[25.326536,52.719869],[25.326751,52.719931],[25.326877,52.719973],[25.328459,52.720491],[25.330052,52.721014],[25.330341,52.721107],[25.334167,52.722335],[25.33424,52.722202],[25.334306,52.722116],[25.33478,52.721498],[25.334975,52.721263],[25.335117,52.721092],[25.335268,52.72091],[25.335409,52.72074],[25.335567,52.72055],[25.335679,52.720415],[25.335707,52.72038],[25.335856,52.720195],[25.336239,52.719696],[25.336584,52.719272],[25.337117,52.718672],[25.337215,52.718561],[25.337546,52.718214],[25.337878,52.717867],[25.338026,52.717723],[25.338393,52.717378],[25.338523,52.717294],[25.338697,52.717195],[25.339006,52.71707],[25.339405,52.71696],[25.339843,52.716863],[25.339945,52.71684],[25.340041,52.716825],[25.340326,52.716779],[25.340597,52.716734],[25.341016,52.716665],[25.342424,52.71643],[25.342588,52.716403],[25.344383,52.716118],[25.345633,52.71592],[25.3461,52.715846],[25.346206,52.715822],[25.346358,52.715787],[25.346563,52.715733],[25.346819,52.71564],[25.347093,52.715502],[25.347453,52.715217],[25.347678,52.715017],[25.347995,52.714722],[25.348175,52.71454],[25.348302,52.714412],[25.348417,52.714313],[25.348915,52.713868],[25.349119,52.713672],[25.349333,52.713472],[25.349457,52.713359],[25.349767,52.713073],[25.349884,52.712965],[25.349946,52.712907],[25.350374,52.712511],[25.350524,52.712372],[25.350755,52.712161],[25.350856,52.712066],[25.351126,52.711818],[25.351159,52.71179],[25.351396,52.711574],[25.351587,52.7114],[25.351851,52.711155],[25.352351,52.71067],[25.352605,52.710424],[25.352737,52.710302],[25.353069,52.710008],[25.35344,52.709656],[25.353478,52.709619],[25.353539,52.709563],[25.354014,52.709129],[25.354052,52.709091],[25.35436,52.708798],[25.354721,52.708454],[25.355066,52.708138],[25.355386,52.707855],[25.355464,52.707783],[25.355566,52.707691],[25.356305,52.707005],[25.35659,52.70674],[25.356873,52.706478],[25.35736,52.706009],[25.35752,52.705858],[25.357571,52.705813],[25.35815,52.705266],[25.358702,52.704756],[25.359026,52.704456],[25.359234,52.704264],[25.359268,52.704236],[25.359331,52.704182],[25.359483,52.704053],[25.359854,52.703705],[25.360083,52.703492],[25.36015,52.70343],[25.360326,52.703266],[25.360517,52.703096],[25.360717,52.702919],[25.361,52.702598],[25.361178,52.702285],[25.361816,52.701038],[25.362044,52.700412],[25.362371,52.699743],[25.362424,52.699631],[25.36274,52.698994],[25.362766,52.698942],[25.363047,52.698362],[25.362987,52.698146],[25.362899,52.698007],[25.362812,52.697914],[25.362719,52.69785],[25.362581,52.697779],[25.362396,52.697722],[25.36224,52.697689],[25.362106,52.697673],[25.361932,52.697676],[25.36181,52.697685],[25.361671,52.69772],[25.361544,52.697769],[25.361403,52.697843],[25.361312,52.697913],[25.361233,52.69801],[25.361194,52.698098],[25.361184,52.698214],[25.3612,52.698339],[25.361232,52.698429],[25.361335,52.698552],[25.361456,52.698655],[25.361689,52.698819],[25.36314,52.699469],[25.363193,52.699493],[25.365711,52.700643],[25.366185,52.700859],[25.366942,52.701202],[25.36737,52.7014],[25.368325,52.701843],[25.368771,52.702048],[25.370376,52.702785],[25.371504,52.703317],[25.372755,52.703907],[25.374366,52.704616],[25.375843,52.705294],[25.37729,52.705941],[25.379274,52.706829],[25.381755,52.707872],[25.38252,52.708181],[25.383036,52.708389],[25.383777,52.708677],[25.38435,52.708886],[25.38501,52.709106],[25.38755,52.709952],[25.388669,52.710331],[25.38972,52.710642],[25.391647,52.711213],[25.393705,52.711753],[25.395315,52.71215],[25.396803,52.712547],[25.397508,52.712736],[25.400439,52.713517],[25.404075,52.714486],[25.406204,52.715056],[25.410518,52.716203],[25.413529,52.717004],[25.418407,52.718306],[25.422739,52.719461],[25.424147,52.719863],[25.426416,52.72051],[25.428134,52.721055],[25.429761,52.721556],[25.433552,52.722987],[25.436899,52.724233],[25.439255,52.725127],[25.448068,52.72847],[25.448912,52.728784],[25.449663,52.729063],[25.451551,52.729766],[25.460961,52.733253],[25.462183,52.733712],[25.464685,52.734653],[25.468417,52.736056],[25.474678,52.738408],[25.475841,52.738848],[25.479642,52.740278],[25.4835,52.741955],[25.484162,52.742244],[25.48455,52.742438],[25.486879,52.743611],[25.489796,52.745212],[25.493483,52.74707],[25.496313,52.748497],[25.498136,52.749418],[25.500124,52.750473],[25.509153,52.755267],[25.511452,52.756443],[25.515258,52.758413],[25.518125,52.759912],[25.520179,52.76105],[25.524947,52.763533],[25.53191,52.767159],[25.534375,52.768454],[25.536593,52.769702],[25.538842,52.771041],[25.540527,52.772151],[25.542223,52.773326],[25.5432,52.774076],[25.544332,52.774898],[25.545064,52.77543],[25.546722,52.776861],[25.549099,52.779102],[25.550513,52.780694],[25.552404,52.782778],[25.553313,52.783806],[25.557618,52.788577],[25.557713,52.788682],[25.558634,52.789682],[25.561926,52.793403],[25.563612,52.795274],[25.564606,52.796378],[25.567837,52.799964],[25.570528,52.802962],[25.571588,52.804141],[25.574993,52.807929],[25.576737,52.809849],[25.578627,52.811933],[25.578927,52.812234],[25.580121,52.813434],[25.581021,52.814339],[25.583911,52.817201],[25.584713,52.817995],[25.586515,52.81978],[25.586663,52.819927],[25.586898,52.820158],[25.588548,52.821777],[25.590349,52.823447],[25.59128,52.824263],[25.59215,52.824971],[25.593052,52.825705],[25.593999,52.826421],[25.594942,52.827117],[25.595809,52.827723],[25.59731,52.828737],[25.598882,52.829708],[25.600733,52.830808],[25.6025,52.831763],[25.605693,52.833363],[25.610156,52.8356],[25.616773,52.838872],[25.617851,52.839406],[25.62266,52.841778],[25.627517,52.844194],[25.628583,52.844724],[25.631577,52.846211],[25.633604,52.847246],[25.634608,52.847781],[25.635589,52.848322],[25.637462,52.849423],[25.637979,52.849727],[25.639457,52.85066],[25.639733,52.850834],[25.639785,52.850867],[25.640399,52.851294],[25.64097,52.851692],[25.642277,52.852586],[25.644765,52.85451],[25.645824,52.855407],[25.6468,52.856234],[25.647802,52.857203],[25.648607,52.857988],[25.64897,52.858342],[25.649685,52.859111],[25.650148,52.859608],[25.650688,52.860211],[25.651244,52.860831],[25.652293,52.86209],[25.65375,52.864122],[25.65501,52.866201],[25.655365,52.866787],[25.656902,52.869324],[25.659866,52.874336],[25.661893,52.877796],[25.663517,52.880541],[25.665011,52.883099],[25.665593,52.884095],[25.667028,52.886552],[25.669813,52.891302],[25.669848,52.891361],[25.670542,52.892544],[25.672359,52.895614],[25.673398,52.897375],[25.674117,52.898593],[25.674339,52.898975],[25.675864,52.90159],[25.677641,52.904589],[25.679063,52.906977],[25.679919,52.908418],[25.680158,52.908819],[25.682244,52.91233],[25.682725,52.913167],[25.684617,52.916349],[25.684916,52.916853],[25.686069,52.918791],[25.687353,52.920551],[25.688299,52.92178],[25.689421,52.923097],[25.69075,52.924541],[25.691178,52.92497],[25.692222,52.926018],[25.696666,52.930391],[25.69893,52.932645],[25.701149,52.934842],[25.706539,52.940177],[25.706671,52.940307],[25.709012,52.942624],[25.710339,52.943912],[25.714441,52.94796],[25.717591,52.951069],[25.71856,52.952017],[25.720428,52.953864],[25.722232,52.955627],[25.723248,52.956619],[25.725485,52.958861],[25.72641,52.959788],[25.729135,52.962479],[25.729931,52.963262],[25.73246,52.96575],[25.735808,52.969077],[25.737312,52.970577],[25.737647,52.970933],[25.738657,52.972006],[25.739754,52.973181],[25.741505,52.975142],[25.742828,52.976616],[25.74485,52.978851],[25.744938,52.978949],[25.750449,52.985114],[25.751917,52.98674],[25.753493,52.988486],[25.755128,52.990221],[25.756575,52.991762],[25.756689,52.991875],[25.75826,52.993437],[25.759332,52.994473],[25.760019,52.995137],[25.761427,52.996408],[25.764546,52.999224],[25.765045,52.999675],[25.767362,53.001816],[25.767601,53.002034],[25.771069,53.005204],[25.773574,53.007499],[25.775761,53.009517],[25.77794,53.011528],[25.780202,53.013572],[25.783486,53.016588],[25.783851,53.016919],[25.784449,53.017461],[25.785596,53.018509],[25.787287,53.020011],[25.78838,53.02094],[25.7899,53.022121],[25.792447,53.023947],[25.79287,53.024218],[25.79522,53.025721],[25.797819,53.027253],[25.80097,53.028901],[25.802744,53.02972],[25.802967,53.029828],[25.803248,53.029961],[25.803965,53.030305],[25.805014,53.030795],[25.807368,53.031895],[25.810842,53.033534],[25.815711,53.035808],[25.820751,53.038163],[25.826504,53.040733],[25.827835,53.041296],[25.831227,53.04273],[25.836912,53.04511],[25.839289,53.046106],[25.839978,53.046294],[25.840404,53.04638],[25.840871,53.046431],[25.842743,53.046548],[25.844039,53.046654],[25.845126,53.046777],[25.846407,53.046955],[25.847335,53.047146],[25.848579,53.047439],[25.849869,53.04779],[25.850756,53.048046],[25.851699,53.048382],[25.852349,53.048683],[25.85311,53.049008],[25.853402,53.049168],[25.853657,53.049308],[25.854122,53.049586],[25.858126,53.052284],[25.858519,53.052557],[25.85992,53.053519],[25.861575,53.054607],[25.862011,53.054893],[25.862537,53.055234],[25.862791,53.055406],[25.863019,53.055554],[25.863268,53.055721],[25.868967,53.059557],[25.869462,53.059891],[25.873343,53.062536],[25.873631,53.062737],[25.875494,53.064035],[25.878744,53.066538],[25.882812,53.069623],[25.884108,53.070605],[25.889192,53.074442],[25.891549,53.07622],[25.891709,53.076341],[25.89303,53.077336],[25.894177,53.078199],[25.894881,53.07873],[25.895183,53.078954],[25.899475,53.08212],[25.902063,53.084111],[25.903344,53.085097],[25.903498,53.085231],[25.903605,53.085338],[25.903832,53.085468],[25.905274,53.086519],[25.905743,53.086761],[25.906296,53.087035],[25.906529,53.087152],[25.906612,53.087193],[25.906888,53.087332],[25.907119,53.087448],[25.907576,53.087677],[25.911315,53.089557],[25.913981,53.090889],[25.915481,53.091631],[25.918488,53.093118],[25.919618,53.093661],[25.919924,53.093804],[25.920702,53.094178],[25.92132,53.094477],[25.922264,53.094943],[25.922713,53.095163],[25.923158,53.095388],[25.923766,53.095692],[25.924743,53.096186],[25.925569,53.096598],[25.926924,53.097254],[25.927115,53.097348],[25.928018,53.0978],[25.929315,53.098442],[25.9295,53.098531],[25.930005,53.098776],[25.930937,53.099252],[25.931043,53.099305],[25.934017,53.100786],[25.934778,53.101171],[25.936343,53.101951],[25.936934,53.102243],[25.937033,53.102293],[25.937124,53.102337],[25.937218,53.102378],[25.938603,53.103038],[25.93902,53.103249],[25.941376,53.104409],[25.943975,53.105699],[25.944674,53.106044],[25.944811,53.106108],[25.945036,53.10622],[25.945427,53.106411],[25.946834,53.107101],[25.948234,53.107793],[25.949052,53.108206],[25.949316,53.108341],[25.950613,53.109],[25.950781,53.109087],[25.951081,53.109241],[25.951333,53.109365],[25.951672,53.109531],[25.951961,53.109672],[25.953208,53.110304],[25.95345,53.110424],[25.954092,53.110739],[25.95436,53.110866],[25.955084,53.111211],[25.955335,53.11133],[25.955388,53.111355],[25.95569,53.1115],[25.955782,53.111544],[25.955932,53.111616],[25.956,53.111647],[25.956177,53.111709],[25.956334,53.11176],[25.956553,53.111822],[25.956607,53.111835],[25.956655,53.111855],[25.956692,53.111882],[25.956865,53.111946],[25.956976,53.111986],[25.957149,53.11203],[25.957275,53.112038],[25.957364,53.112038],[25.957476,53.112016],[25.957656,53.111974],[25.957868,53.111901],[25.958089,53.111825],[25.958606,53.111614],[25.958726,53.111568],[25.959801,53.11117],[25.959998,53.111083],[25.961181,53.110545],[25.961456,53.110437],[25.961703,53.110343],[25.96182,53.110302],[25.961956,53.11025],[25.962413,53.110075],[25.963161,53.10981],[25.96331,53.10972],[25.963367,53.109663],[25.963448,53.109542],[25.963443,53.109474],[25.963487,53.109384],[25.963581,53.109308],[25.963699,53.109238],[25.963856,53.109193],[25.964027,53.109178],[25.964134,53.109187],[25.964221,53.109205],[25.964344,53.109246],[25.96444,53.109304],[25.964502,53.109371],[25.96455,53.109463],[25.964548,53.109572],[25.964499,53.109666],[25.964408,53.109747],[25.964365,53.109827],[25.964339,53.109892],[25.964322,53.109952],[25.964327,53.110022],[25.964392,53.110175],[25.964702,53.11065],[25.964978,53.11093],[25.965184,53.111091],[25.965413,53.111269],[25.966127,53.111763],[25.966975,53.112354],[25.967056,53.11241],[25.967768,53.112906],[25.967866,53.112974],[25.968034,53.113091],[25.968687,53.113552],[25.969328,53.114001],[25.969617,53.114199],[25.970189,53.114591],[25.970398,53.114734],[25.970603,53.114878],[25.971146,53.115258],[25.971308,53.115371],[25.972019,53.115856],[25.973207,53.116688],[25.97336,53.116798],[25.973788,53.117107],[25.973968,53.117233],[25.974248,53.117385],[25.974854,53.117643],[25.975236,53.117803],[25.975773,53.118067],[25.975889,53.11795],[25.976006,53.117835],[25.976358,53.117483],[25.97683,53.116984],[25.977171,53.11662],[25.977316,53.116475],[25.977605,53.116186],[25.977711,53.116092],[25.977776,53.116042],[25.977868,53.116082],[25.977961,53.116123],[25.978367,53.116303],[25.979863,53.116977],[25.979925,53.117003],[25.980436,53.116626],[25.980941,53.116253],[25.981261,53.116017],[25.981411,53.115892],[25.98163,53.115747]],"type":"LineString"},"properties":{"routeId":"brest","source":"https://routing.openstreetmap.de/routed-car","fetchedAt":"2026-10-08T07:16:40.948Z","distanceMeters":239622.6,"durationSeconds":12955.3,"demoOnly":true}}