{"type":"Feature","geometry":{"coordinates":[[31.000156,52.441719],[31.000161,52.441713],[31.000242,52.441606],[31.00039,52.441416],[31.000973,52.440678],[31.001038,52.440609],[31.001161,52.440448],[31.0012,52.440398],[31.001263,52.440317],[31.001127,52.440283],[30.999409,52.439835],[30.999254,52.439827],[30.999191,52.439835],[30.999112,52.439848],[30.999044,52.43985],[30.99895,52.439846],[30.998865,52.439822],[30.998798,52.439781],[30.998769,52.439746],[30.998687,52.43967],[30.998622,52.439616],[30.998514,52.439546],[30.998459,52.439528],[30.998014,52.439378],[30.997744,52.439294],[30.996801,52.439368],[30.996662,52.43938],[30.99503,52.43953],[30.994935,52.439494],[30.994708,52.439404],[30.994375,52.43927],[30.994334,52.439254],[30.994071,52.439149],[30.99402,52.439128],[30.99371,52.438998],[30.993657,52.438977],[30.992973,52.438699],[30.992915,52.438668],[30.992857,52.438643],[30.992713,52.438587],[30.992659,52.438589],[30.992026,52.438701],[30.991257,52.438842],[30.990798,52.438904],[30.990257,52.438963],[30.98869,52.439114],[30.987204,52.439233],[30.986833,52.439261],[30.985927,52.439282],[30.985334,52.43928],[30.984941,52.439286],[30.984433,52.439311],[30.984225,52.43933],[30.984004,52.439349],[30.983869,52.439362],[30.98359,52.439388],[30.983452,52.4394],[30.983213,52.439425],[30.981794,52.439562],[30.98092,52.439653],[30.979321,52.439801],[30.978243,52.439906],[30.977882,52.439941],[30.977912,52.440082],[30.97791,52.440225],[30.97789,52.440304],[30.977822,52.440375],[30.977758,52.440441],[30.977598,52.440605],[30.977081,52.441132],[30.972602,52.44547],[30.972174,52.445883],[30.971392,52.446643],[30.971092,52.446924],[30.970769,52.44722],[30.970597,52.44736],[30.970271,52.447627],[30.970216,52.447667],[30.969764,52.44795],[30.968948,52.448506],[30.968829,52.448582],[30.968616,52.448724],[30.968459,52.448827],[30.968304,52.44893],[30.968134,52.449045],[30.967772,52.449289],[30.967032,52.449787],[30.966773,52.449991],[30.966487,52.450212],[30.966325,52.450349],[30.966169,52.450468],[30.965712,52.450823],[30.964808,52.451526],[30.964675,52.451632],[30.964503,52.45177],[30.963696,52.452392],[30.963538,52.452518],[30.963164,52.452823],[30.962779,52.453137],[30.962374,52.453467],[30.962172,52.453636],[30.962005,52.45378],[30.961742,52.453985],[30.961536,52.454153],[30.961019,52.454564],[30.960617,52.454885],[30.960045,52.455351],[30.959824,52.455527],[30.959537,52.455791],[30.959262,52.456009],[30.95909,52.45613],[30.958865,52.456288],[30.958488,52.456501],[30.958189,52.456637],[30.95788,52.456761],[30.957474,52.456911],[30.956981,52.457074],[30.956664,52.457174],[30.956423,52.457228],[30.955925,52.457358],[30.95541,52.457507],[30.954843,52.457704],[30.954201,52.457967],[30.954088,52.458027],[30.953955,52.458104],[30.953765,52.458228],[30.953631,52.458317],[30.953167,52.458634],[30.952346,52.45924],[30.951668,52.459741],[30.951163,52.460117],[30.949534,52.461321],[30.948484,52.46209],[30.94811,52.462378],[30.947747,52.462687],[30.947591,52.462848],[30.947348,52.46312],[30.947256,52.463223],[30.947127,52.463459],[30.946929,52.463711],[30.946838,52.463834],[30.946776,52.463969],[30.94673,52.464124],[30.946714,52.464179],[30.946672,52.464229],[30.946612,52.464268],[30.946373,52.464472],[30.94626,52.46461],[30.945865,52.465198],[30.94526,52.466204],[30.944768,52.46701],[30.944544,52.467368],[30.944359,52.467659],[30.944314,52.46773],[30.94427,52.467798],[30.94393,52.468223],[30.943685,52.468538],[30.943155,52.469053],[30.942856,52.469315],[30.942283,52.46977],[30.941838,52.470087],[30.941347,52.470428],[30.940297,52.471155],[30.938638,52.472294],[30.937792,52.472894],[30.937146,52.473385],[30.936832,52.473622],[30.936634,52.473764],[30.935653,52.474576],[30.935236,52.474929],[30.934886,52.475234],[30.934675,52.475422],[30.93435,52.475705],[30.933787,52.476232],[30.933109,52.476858],[30.933008,52.476952],[30.932454,52.477466],[30.931517,52.478274],[30.930954,52.478729],[30.930295,52.479283],[30.929101,52.480213],[30.927784,52.481192],[30.927505,52.48138],[30.92622,52.482246],[30.925021,52.483006],[30.92464,52.483248],[30.923597,52.483846],[30.922119,52.484694],[30.921884,52.484825],[30.920469,52.485616],[30.919097,52.486335],[30.917936,52.486898],[30.91709,52.487309],[30.915995,52.487814],[30.914944,52.48828],[30.912983,52.489092],[30.912087,52.489442],[30.911038,52.489851],[30.909438,52.490435],[30.907846,52.490988],[30.90464,52.492042],[30.901702,52.492892],[30.899753,52.493403],[30.899418,52.493485],[30.899161,52.493548],[30.898144,52.493797],[30.896531,52.494161],[30.894851,52.494493],[30.893159,52.494797],[30.889941,52.495326],[30.887163,52.495736],[30.885346,52.495941],[30.884625,52.496014],[30.883613,52.496118],[30.881664,52.496276],[30.880591,52.496363],[30.879092,52.496467],[30.877864,52.496537],[30.876074,52.496596],[30.874897,52.496635],[30.87378,52.496653],[30.872148,52.496641],[30.870216,52.496614],[30.869898,52.496607],[30.868527,52.496578],[30.866711,52.496513],[30.865577,52.496475],[30.864438,52.496418],[30.863511,52.49636],[30.862353,52.496259],[30.859712,52.495994],[30.857383,52.49572],[30.855918,52.495515],[30.855537,52.495458],[30.855326,52.495427],[30.853663,52.495181],[30.853184,52.495104],[30.851702,52.494877],[30.851538,52.49485],[30.848845,52.494421],[30.847705,52.494239],[30.844243,52.493693],[30.841536,52.493268],[30.837845,52.492689],[30.835464,52.492292],[30.832406,52.491811],[30.829019,52.491273],[30.82701,52.490959],[30.826433,52.490868],[30.824327,52.490514],[30.822825,52.490271],[30.820768,52.489949],[30.819817,52.489836],[30.819101,52.489744],[30.817998,52.489605],[30.817314,52.489526],[30.815744,52.489366],[30.814317,52.489245],[30.812887,52.489131],[30.812385,52.489093],[30.809871,52.488884],[30.809516,52.48885],[30.798152,52.487834],[30.79745,52.487771],[30.791566,52.487241],[30.788917,52.486984],[30.787939,52.486889],[30.785927,52.48671],[30.784316,52.486567],[30.783893,52.48654],[30.783576,52.486511],[30.783215,52.486479],[30.781583,52.486323],[30.781225,52.486296],[30.781051,52.486284],[30.780282,52.486211],[30.779537,52.486142],[30.778989,52.486097],[30.776929,52.485931],[30.768951,52.485219],[30.765168,52.484882],[30.758944,52.484323],[30.757237,52.484179],[30.755555,52.484075],[30.75427,52.484025],[30.752583,52.483985],[30.750877,52.483992],[30.749785,52.484016],[30.74816,52.484082],[30.747305,52.484141],[30.746357,52.484207],[30.745677,52.484252],[30.744876,52.48434],[30.743354,52.484506],[30.742458,52.484616],[30.741521,52.484754],[30.739493,52.485063],[30.738526,52.48521],[30.735225,52.485728],[30.733975,52.485928],[30.732833,52.48611],[30.732179,52.486222],[30.731981,52.486255],[30.731567,52.486332],[30.731381,52.486357],[30.730251,52.486542],[30.729662,52.486639],[30.728955,52.486755],[30.72843,52.486831],[30.727901,52.4869],[30.727192,52.486994],[30.72552,52.48718],[30.724329,52.487313],[30.722923,52.487411],[30.721415,52.487538],[30.716652,52.487896],[30.712256,52.488198],[30.710752,52.48831],[30.708705,52.488463],[30.707949,52.48852],[30.707257,52.488582],[30.706548,52.48866],[30.705635,52.488775],[30.704851,52.4889],[30.704081,52.489016],[30.702883,52.489261],[30.700692,52.489768],[30.699872,52.489988],[30.698985,52.49024],[30.696617,52.49096],[30.695255,52.491375],[30.687908,52.493603],[30.686333,52.494077],[30.683237,52.49498],[30.680083,52.495899],[30.675393,52.497109],[30.671306,52.498162],[30.670094,52.498488],[30.670016,52.498509],[30.669255,52.498713],[30.668745,52.498849],[30.667641,52.499141],[30.667152,52.499273],[30.666804,52.499367],[30.666675,52.499402],[30.666238,52.499516],[30.666159,52.499538],[30.665616,52.499681],[30.664828,52.499888],[30.664268,52.500035],[30.663566,52.500213],[30.662452,52.500496],[30.65637,52.502109],[30.655681,52.502286],[30.652244,52.503202],[30.65137,52.503435],[30.650188,52.503751],[30.646241,52.5048],[30.645585,52.504974],[30.645319,52.50505],[30.644354,52.505302],[30.643906,52.505419],[30.642971,52.505664],[30.639027,52.506696],[30.637476,52.507114],[30.636352,52.507449],[30.634896,52.508027],[30.633993,52.508473],[30.633355,52.508856],[30.632733,52.509269],[30.63221,52.509693],[30.631716,52.510148],[30.631358,52.51053],[30.631297,52.510607],[30.630982,52.511003],[30.630634,52.511571],[30.630364,52.512066],[30.629435,52.51423],[30.629158,52.514923],[30.628894,52.515538],[30.628465,52.51656],[30.627991,52.517694],[30.627627,52.518452],[30.627337,52.518981],[30.627135,52.519284],[30.627048,52.519414],[30.626678,52.519893],[30.626375,52.520221],[30.626066,52.520542],[30.625491,52.521047],[30.624525,52.521713],[30.623452,52.522311],[30.619104,52.524465],[30.616804,52.525609],[30.615673,52.526171],[30.608648,52.52964],[30.6055,52.531221],[30.605207,52.531368],[30.602842,52.53252],[30.595053,52.536384],[30.593764,52.536986],[30.592294,52.537673],[30.590965,52.538336],[30.590157,52.53874],[30.588272,52.53968],[30.58796,52.539835],[30.587833,52.539898],[30.587595,52.540013],[30.587463,52.540078],[30.586294,52.540654],[30.585778,52.540909],[30.583817,52.541876],[30.58253,52.54251],[30.581377,52.543081],[30.580674,52.543421],[30.579903,52.543771],[30.574782,52.546051],[30.570685,52.547864],[30.566106,52.549904],[30.565283,52.55027],[30.563273,52.551166],[30.563247,52.551177],[30.562686,52.551424],[30.562548,52.551487],[30.562275,52.551608],[30.561109,52.552123],[30.560492,52.552396],[30.559029,52.553042],[30.558852,52.55312],[30.55523,52.554743],[30.547092,52.558311],[30.546835,52.558429],[30.546534,52.558566],[30.541909,52.560632],[30.54032,52.561342],[30.538692,52.56207],[30.538418,52.562192],[30.534919,52.563758],[30.524042,52.568629],[30.523652,52.568802],[30.52316,52.569022],[30.512519,52.573764],[30.510981,52.574453],[30.506674,52.576381],[30.503942,52.577663],[30.50289,52.578242],[30.50179,52.578879],[30.500906,52.579457],[30.500142,52.580003],[30.500024,52.580087],[30.499698,52.58033],[30.499332,52.580632],[30.498988,52.580909],[30.498358,52.581467],[30.497851,52.58195],[30.497242,52.58259],[30.496722,52.583203],[30.496356,52.583645],[30.495977,52.584098],[30.495091,52.585159],[30.494098,52.586356],[30.493337,52.587258],[30.492699,52.588017],[30.492535,52.588211],[30.49206,52.588777],[30.491484,52.589459],[30.490832,52.590247],[30.490004,52.59123],[30.489139,52.592264],[30.488288,52.593287],[30.486027,52.595989],[30.484995,52.597226],[30.483176,52.599417],[30.482157,52.600658],[30.481911,52.600958],[30.481838,52.601043],[30.481608,52.601315],[30.480545,52.602567],[30.480379,52.602775],[30.480148,52.603043],[30.479646,52.603609],[30.479341,52.60397],[30.477787,52.605809],[30.475597,52.608394],[30.473378,52.611015],[30.473004,52.611453],[30.47251,52.612023],[30.471976,52.612638],[30.471226,52.61337],[30.470498,52.614048],[30.470002,52.614478],[30.469502,52.614879],[30.468614,52.615535],[30.467792,52.616086],[30.466842,52.616684],[30.465972,52.617178],[30.465061,52.617659],[30.464128,52.618106],[30.462987,52.618603],[30.462646,52.618752],[30.462273,52.618893],[30.461463,52.619199],[30.460742,52.61945],[30.460217,52.619618],[30.459747,52.619769],[30.45947,52.619861],[30.458584,52.620122],[30.456684,52.620622],[30.455472,52.620883],[30.454029,52.621202],[30.452502,52.621547],[30.451651,52.621733],[30.450784,52.621948],[30.450384,52.622047],[30.449853,52.622177],[30.449579,52.622258],[30.449479,52.622287],[30.449001,52.622427],[30.448268,52.62264],[30.44748,52.622887],[30.446617,52.623196],[30.44501,52.623792],[30.434811,52.627716],[30.431993,52.628811],[30.429697,52.629681],[30.424385,52.631727],[30.422128,52.632598],[30.419739,52.633519],[30.41855,52.633972],[30.417871,52.634265],[30.41604,52.635067],[30.413217,52.636365],[30.412798,52.636558],[30.409539,52.638059],[30.40915,52.638245],[30.407719,52.638931],[30.405835,52.639794],[30.405795,52.639809],[30.405435,52.639978],[30.40534,52.640022],[30.405096,52.640131],[30.404641,52.640351],[30.403806,52.640755],[30.403609,52.640851],[30.401614,52.64175],[30.400515,52.642251],[30.400167,52.642409],[30.396972,52.643886],[30.394988,52.644805],[30.393702,52.645387],[30.391352,52.646483],[30.388806,52.647661],[30.388564,52.647774],[30.387671,52.64819],[30.385644,52.649108],[30.384569,52.649608],[30.383974,52.649883],[30.381925,52.650832],[30.380464,52.651519],[30.37996,52.651758],[30.378061,52.652657],[30.377047,52.653137],[30.375716,52.653769],[30.374504,52.654352],[30.37371,52.654739],[30.373499,52.654843],[30.372469,52.655346],[30.37187,52.655669],[30.371372,52.655929],[30.371069,52.656115],[30.37065,52.656366],[30.370232,52.656635],[30.369698,52.656976],[30.369319,52.65723],[30.368622,52.657735],[30.367851,52.65834],[30.367177,52.658921],[30.366571,52.659454],[30.366122,52.659895],[30.365742,52.660295],[30.365185,52.660899],[30.364774,52.661391],[30.364164,52.662194],[30.363923,52.662555],[30.363642,52.662992],[30.363274,52.663621],[30.362971,52.664193],[30.36232,52.665487],[30.36116,52.667863],[30.360652,52.668905],[30.360039,52.67017],[30.359833,52.670561],[30.358738,52.67279],[30.356929,52.676436],[30.355507,52.679303],[30.352857,52.684737],[30.35277,52.684927],[30.352387,52.685761],[30.351908,52.686723],[30.3512,52.688312],[30.350846,52.689023],[30.350592,52.689513],[30.350327,52.689943],[30.350008,52.690472],[30.349257,52.691551],[30.347908,52.693451],[30.347823,52.693571],[30.346384,52.695619],[30.344786,52.697865],[30.344535,52.698219],[30.343903,52.699092],[30.3431,52.700191],[30.34246,52.701084],[30.342392,52.701178],[30.342221,52.701417],[30.341947,52.701799],[30.341316,52.702679],[30.340707,52.703528],[30.339482,52.705131],[30.339164,52.7056],[30.338875,52.706066],[30.338485,52.706779],[30.33837,52.707008],[30.338219,52.707304],[30.338112,52.707567],[30.33801,52.707816],[30.337842,52.708315],[30.337722,52.708701],[30.337603,52.709142],[30.337514,52.709652],[30.337443,52.710162],[30.337439,52.710196],[30.337379,52.710774],[30.337352,52.711058],[30.337343,52.711152],[30.33732,52.711713],[30.337282,52.712429],[30.337203,52.713201],[30.33711,52.713911],[30.336932,52.714607],[30.336801,52.715124],[30.336654,52.715619],[30.336277,52.716555],[30.335958,52.717212],[30.33554,52.717985],[30.335159,52.718651],[30.334819,52.719154],[30.334686,52.71935],[30.33418,52.720055],[30.333637,52.720705],[30.332858,52.721563],[30.332167,52.72223],[30.331164,52.723154],[30.33085,52.723406],[30.330149,52.723944],[30.329388,52.724487],[30.328554,52.725112],[30.327806,52.725616],[30.327433,52.725873],[30.326517,52.726531],[30.317471,52.73303],[30.317146,52.733263],[30.315623,52.734357],[30.315323,52.734576],[30.313169,52.736122],[30.309956,52.738606],[30.307706,52.740201],[30.301833,52.744362],[30.298154,52.747055],[30.292108,52.751383],[30.289168,52.753461],[30.288341,52.754053],[30.286747,52.755194],[30.279587,52.760351],[30.278894,52.760874],[30.27682,52.762436],[30.276513,52.762651],[30.269297,52.767851],[30.268624,52.768336],[30.268419,52.768481],[30.266258,52.769946],[30.259818,52.774646],[30.256087,52.77733],[30.255451,52.777788],[30.254085,52.778763],[30.253902,52.778904],[30.253709,52.779045],[30.253625,52.779109],[30.253334,52.779329],[30.253258,52.779387],[30.252219,52.780104],[30.25175,52.78044],[30.250452,52.781368],[30.250381,52.781418],[30.24659,52.784129],[30.245833,52.784681],[30.243706,52.786191],[30.241231,52.787948],[30.24065,52.788372],[30.238448,52.789982],[30.235086,52.792436],[30.232072,52.794619],[30.231289,52.795187],[30.229896,52.796197],[30.229614,52.7964],[30.229419,52.796541],[30.227644,52.797828],[30.227397,52.798003],[30.227194,52.798156],[30.226895,52.798368],[30.223213,52.800941],[30.222479,52.801449],[30.22172,52.802001],[30.21841,52.804411],[30.216698,52.805627],[30.216232,52.805972],[30.216037,52.806108],[30.215828,52.806259],[30.21549,52.806503],[30.214183,52.807446],[30.213694,52.807799],[30.2124,52.808736],[30.21186,52.809127],[30.208946,52.81124],[30.207419,52.812328],[30.205931,52.813423],[30.204104,52.814737],[30.2031,52.815494],[30.202646,52.815822],[30.202195,52.816148],[30.201592,52.816584],[30.200017,52.817723],[30.199606,52.818019],[30.19951,52.818093],[30.199247,52.818282],[30.198355,52.818924],[30.196874,52.819984],[30.196119,52.820524],[30.193424,52.822456],[30.193038,52.822734],[30.191053,52.824162],[30.18863,52.825901],[30.185345,52.828278],[30.183504,52.829595],[30.182051,52.830635],[30.181593,52.830968],[30.179386,52.832573],[30.179122,52.832759],[30.178839,52.832958],[30.178134,52.833453],[30.177323,52.834003],[30.175719,52.835122],[30.1745,52.835989],[30.173843,52.836477],[30.173307,52.836875],[30.172224,52.837764],[30.171265,52.838624],[30.170549,52.839309],[30.169879,52.83998],[30.169328,52.840582],[30.168276,52.841808],[30.167305,52.843157],[30.166555,52.844268],[30.166472,52.844417],[30.166129,52.845041],[30.165835,52.845624],[30.165414,52.846489],[30.165016,52.847483],[30.164493,52.848957],[30.163739,52.851169],[30.163122,52.852993],[30.162967,52.853453],[30.162398,52.855163],[30.161997,52.856506],[30.161903,52.856799],[30.161499,52.857947],[30.161179,52.858833],[30.160937,52.859505],[30.160831,52.859757],[30.160594,52.860411],[30.160281,52.861373],[30.160127,52.861821],[30.159951,52.862335],[30.159734,52.863098],[30.159355,52.864238],[30.159126,52.864928],[30.158076,52.868196],[30.157792,52.86916],[30.157476,52.870223],[30.156529,52.873404],[30.155984,52.875223],[30.154827,52.87945],[30.152813,52.886805],[30.152456,52.887859],[30.152239,52.888394],[30.152039,52.888884],[30.151787,52.889428],[30.15139,52.890226],[30.150772,52.891339],[30.149795,52.892938],[30.149062,52.893942],[30.148756,52.894325],[30.14824,52.894959],[30.147026,52.896318],[30.146649,52.896687],[30.146603,52.896732],[30.145874,52.89744],[30.145154,52.89811],[30.144237,52.898912],[30.143502,52.899508],[30.141146,52.901597],[30.140009,52.902584],[30.139485,52.903036],[30.138509,52.903878],[30.138336,52.904027],[30.137794,52.904491],[30.137044,52.90514],[30.135213,52.906726],[30.134881,52.907013],[30.13398,52.907783],[30.133183,52.908477],[30.132076,52.909441],[30.129806,52.911387],[30.128551,52.912462],[30.126266,52.914442],[30.125928,52.914759],[30.12485,52.915696],[30.123804,52.916591],[30.123254,52.917033],[30.121583,52.918264],[30.121062,52.918616],[30.120738,52.918836],[30.119555,52.919558],[30.118603,52.920106],[30.117141,52.920877],[30.116513,52.921178],[30.115709,52.921545],[30.114821,52.921946],[30.112458,52.922881],[30.110961,52.923397],[30.109164,52.923946],[30.107488,52.924399],[30.105704,52.924854],[30.103588,52.925397],[30.102043,52.925772],[30.100463,52.926115],[30.099092,52.926362],[30.097877,52.926558],[30.096558,52.926729],[30.095276,52.92686],[30.094409,52.926928],[30.093438,52.926999],[30.091344,52.927087],[30.089386,52.92714],[30.081196,52.927346],[30.080946,52.927352],[30.080119,52.927373],[30.078952,52.927402],[30.07859,52.927411],[30.076892,52.927458],[30.076184,52.927472],[30.074031,52.927522],[30.07369,52.927526],[30.073252,52.927535],[30.073118,52.927537],[30.07247,52.927551],[30.071168,52.92757],[30.070579,52.927579],[30.070173,52.927585],[30.069283,52.927598],[30.068041,52.927618],[30.065809,52.927651],[30.06187,52.927741],[30.060423,52.927787],[30.058776,52.927812],[30.053594,52.928],[30.050588,52.928082],[30.049254,52.928119],[30.042381,52.928286],[30.040597,52.928327],[30.037972,52.928387],[30.035897,52.928422],[30.035747,52.928423],[30.035175,52.928426],[30.03325,52.928438],[30.031981,52.928418],[30.030278,52.92839],[30.027502,52.928405],[30.025208,52.928447],[30.02476,52.928456],[30.024382,52.928463],[30.023946,52.928471],[30.023774,52.928478],[30.02103,52.928532],[30.020512,52.928542],[30.016953,52.92862],[30.015426,52.928631],[30.014962,52.928644],[30.014474,52.928658],[30.013261,52.928669],[30.012701,52.928668],[30.01176,52.928648],[30.011232,52.928627],[30.010877,52.928612],[30.010048,52.928579],[30.009244,52.928519],[30.008501,52.928465],[30.008042,52.928432],[30.006762,52.928256],[30.006123,52.928156],[30.005271,52.928024],[30.004384,52.92788],[30.003503,52.927701],[30.002654,52.927503],[30.001758,52.927289],[30.000696,52.927007],[29.998695,52.926475],[29.998087,52.926339],[29.997547,52.926226],[29.996932,52.926115],[29.995228,52.925882],[29.994465,52.925814],[29.993515,52.925756],[29.991949,52.925752],[29.991644,52.925751],[29.990857,52.925783],[29.989953,52.925851],[29.988585,52.92603],[29.987794,52.926162],[29.987096,52.926303],[29.985884,52.926593],[29.984673,52.926945],[29.982191,52.92775],[29.979699,52.928548],[29.978182,52.929034],[29.977527,52.929244],[29.974237,52.930297],[29.96977,52.93174],[29.969494,52.931829],[29.966528,52.932793],[29.966146,52.932917],[29.964918,52.933326],[29.964124,52.933591],[29.960526,52.934741],[29.957862,52.935591],[29.956217,52.936163],[29.953023,52.937301],[29.952168,52.937601],[29.95156,52.937814],[29.948537,52.93893],[29.944906,52.94027],[29.944485,52.940425],[29.939335,52.942294],[29.935866,52.943553],[29.934244,52.94415],[29.932361,52.944892],[29.931433,52.945286],[29.930541,52.945635],[29.926523,52.947097],[29.925255,52.947566],[29.92449,52.947848],[29.922476,52.948592],[29.922419,52.948612],[29.922176,52.948698],[29.922032,52.94875],[29.921678,52.948877],[29.920295,52.949377],[29.917441,52.950407],[29.913558,52.951809],[29.910875,52.952778],[29.903663,52.955389],[29.90082,52.956421],[29.89096,52.960001],[29.888141,52.961028],[29.875499,52.965632],[29.866956,52.968744],[29.86467,52.969576],[29.864301,52.96971],[29.862467,52.970373],[29.860681,52.97102],[29.858349,52.971864],[29.85501,52.973079],[29.849851,52.974969],[29.848826,52.975345],[29.847226,52.975936],[29.844013,52.977109],[29.842575,52.97761],[29.842002,52.9778],[29.8374,52.979299],[29.836807,52.97949],[29.836646,52.979543],[29.834807,52.980142],[29.834056,52.980393],[29.832726,52.980831],[29.8323,52.980972],[29.829902,52.981769],[29.828973,52.982071],[29.82803,52.982377],[29.826922,52.982736],[29.826816,52.982751],[29.826765,52.982745],[29.826737,52.982728],[29.826733,52.982703],[29.826741,52.982679],[29.826832,52.982628],[29.827922,52.982271],[29.830011,52.981585],[29.831467,52.98111],[29.833912,52.980313],[29.833979,52.980257],[29.834011,52.980215],[29.834053,52.980145],[29.834071,52.980054],[29.834068,52.979946],[29.833953,52.979854],[29.833852,52.979811],[29.833721,52.979771],[29.833455,52.979714],[29.832779,52.979606],[29.83185,52.979437],[29.830496,52.97918],[29.828693,52.97873],[29.826695,52.978232],[29.806764,52.97328],[29.805631,52.972998],[29.804434,52.972668],[29.800316,52.971529],[29.796262,52.970403],[29.79493,52.970009],[29.793802,52.96958],[29.793308,52.969326],[29.792901,52.969071],[29.792614,52.96877],[29.792529,52.968625],[29.79248,52.96854],[29.792361,52.968223],[29.792183,52.967489],[29.792081,52.966747],[29.792063,52.96667],[29.79192,52.966059],[29.791815,52.965794],[29.791695,52.965538],[29.791611,52.965414],[29.791565,52.965366],[29.791498,52.965298],[29.791067,52.96495],[29.790563,52.964576],[29.79035,52.964479],[29.789718,52.964268],[29.788844,52.964111],[29.788475,52.96405],[29.788196,52.963996],[29.788183,52.964022],[29.78816,52.964062],[29.788127,52.964129],[29.787982,52.964408],[29.787755,52.964846],[29.787723,52.964908],[29.787658,52.965032],[29.787426,52.965135],[29.786979,52.965184],[29.786516,52.965316],[29.786269,52.965377],[29.785793,52.965495],[29.785793,52.965495],[29.786269,52.965377],[29.786516,52.965316],[29.786979,52.965184],[29.787426,52.965135],[29.787658,52.965032],[29.787723,52.964908],[29.787755,52.964846],[29.787982,52.964408],[29.788127,52.964129],[29.78816,52.964062],[29.788183,52.964022],[29.788196,52.963996],[29.787382,52.963842],[29.786397,52.96365],[29.786327,52.963639],[29.786234,52.96362],[29.785434,52.963487],[29.785179,52.963442],[29.784745,52.963368],[29.783396,52.963119],[29.783249,52.9631],[29.781791,52.962871],[29.781194,52.96278],[29.777046,52.962155],[29.776804,52.962115],[29.774421,52.961768],[29.773811,52.96168],[29.773631,52.962696],[29.773596,52.962894],[29.773443,52.963752],[29.77313,52.965516],[29.77304,52.96603],[29.772089,52.971581],[29.771922,52.972553],[29.771726,52.973591],[29.771423,52.975081],[29.770972,52.977587],[29.770649,52.979521],[29.770352,52.981222],[29.770059,52.982926],[29.769896,52.98405],[29.769892,52.984429],[29.769899,52.984729],[29.769944,52.98493],[29.76998,52.985066],[29.77004,52.985195],[29.77014,52.985413],[29.770275,52.985598],[29.770453,52.985869],[29.770544,52.986006],[29.770994,52.986684],[29.771536,52.987496],[29.772599,52.989088],[29.77355,52.990459],[29.774796,52.992212],[29.775733,52.993541],[29.777053,52.995464],[29.778255,52.997182],[29.778692,52.997827],[29.77876,52.997899],[29.778823,52.997967],[29.77887,52.998025],[29.779026,52.998218],[29.779059,52.998343],[29.776598,52.999145],[29.774732,52.999751],[29.771547,53.00079],[29.769017,53.001615],[29.767015,53.00225],[29.766707,53.002339],[29.766441,53.002417],[29.762738,53.003491],[29.760771,53.004061],[29.759481,53.00442],[29.75798,53.004845],[29.751771,53.006608],[29.74846,53.007568],[29.744976,53.008543],[29.744555,53.008675],[29.744147,53.008803],[29.743324,53.009068],[29.741974,53.009514],[29.741828,53.009629],[29.741782,53.009715],[29.741768,53.009787],[29.741787,53.009876],[29.741851,53.009956],[29.741954,53.010021],[29.742182,53.010099],[29.743336,53.010136],[29.743551,53.010134],[29.743669,53.010121],[29.743775,53.010072],[29.743917,53.009979],[29.7441,53.009843],[29.744614,53.010071],[29.744893,53.010172],[29.745079,53.010243],[29.745325,53.010303],[29.745983,53.010449],[29.748685,53.010892],[29.749926,53.011101],[29.752683,53.011589],[29.755288,53.012048],[29.755446,53.012086],[29.755995,53.012181],[29.757008,53.012365],[29.757735,53.012492],[29.757827,53.012508],[29.757752,53.012638],[29.757244,53.01377],[29.757048,53.014164],[29.756437,53.015495],[29.756248,53.015946],[29.756179,53.016188],[29.755935,53.016778],[29.755814,53.017069],[29.755742,53.017245],[29.755688,53.017367],[29.755633,53.017472],[29.755498,53.017703],[29.755223,53.018463],[29.754868,53.018686],[29.754772,53.018854],[29.754063,53.019634],[29.752363,53.021117],[29.750171,53.022992],[29.749825,53.023255],[29.749466,53.023654],[29.749266,53.024012],[29.748013,53.026901],[29.747847,53.027425],[29.747777,53.027685],[29.747735,53.027842],[29.747354,53.02932],[29.74678,53.031058],[29.744801,53.035405],[29.744587,53.03603],[29.744439,53.036408],[29.744403,53.03659],[29.74439,53.03671],[29.744385,53.036837],[29.74445,53.037191],[29.744509,53.037373],[29.744626,53.037789],[29.74473,53.038095],[29.744918,53.038652],[29.745354,53.039939],[29.745691,53.040982],[29.746028,53.041993],[29.746558,53.043679],[29.74709,53.045313],[29.747308,53.046019],[29.747513,53.046767],[29.748022,53.048579],[29.748072,53.048893],[29.74803,53.049188],[29.74797,53.049532],[29.747887,53.049766],[29.7478,53.050134],[29.747681,53.050619],[29.747532,53.051312],[29.747357,53.052523],[29.747317,53.052631],[29.74726,53.052738],[29.747209,53.052832],[29.746828,53.053415],[29.746439,53.053992],[29.745973,53.054663],[29.745792,53.054911],[29.745645,53.055096],[29.745306,53.055502],[29.744873,53.056097],[29.743887,53.057324],[29.742284,53.060064],[29.742075,53.060635],[29.741888,53.061186],[29.741704,53.06172],[29.741317,53.062693],[29.741192,53.062975],[29.741047,53.063271],[29.740284,53.064512],[29.739468,53.065754],[29.738431,53.067641],[29.737989,53.068409],[29.737452,53.069522],[29.736657,53.071353],[29.734767,53.075145],[29.734627,53.075419],[29.734345,53.075932],[29.733585,53.076925],[29.731807,53.079049],[29.731249,53.079744],[29.730691,53.080441],[29.73026,53.081068],[29.72994,53.081594],[29.729837,53.081786],[29.729678,53.082084],[29.729447,53.082598],[29.729367,53.08282],[29.729279,53.083073],[29.729128,53.083648],[29.72907,53.083863],[29.728979,53.08412],[29.728891,53.084274],[29.728645,53.084613],[29.728622,53.08464],[29.727968,53.085469],[29.727717,53.085797],[29.727628,53.085922],[29.727465,53.086152],[29.72718,53.086689],[29.726981,53.087147],[29.726829,53.087561],[29.726577,53.08847],[29.726253,53.089627],[29.725936,53.090762],[29.725663,53.091545],[29.725505,53.091943],[29.725348,53.0923],[29.725289,53.092454],[29.725272,53.092549],[29.725265,53.092659],[29.725276,53.092811],[29.725372,53.093188],[29.725403,53.093306],[29.725469,53.093481],[29.725549,53.093659],[29.725623,53.093786],[29.725689,53.093875],[29.725839,53.094052],[29.726157,53.094328],[29.72626,53.094396],[29.726528,53.094572],[29.726686,53.094662],[29.726769,53.094708],[29.727421,53.095029],[29.726214,53.096056],[29.725015,53.097073],[29.723707,53.098172],[29.72418,53.099707],[29.724211,53.099797],[29.724687,53.101294],[29.724785,53.101628],[29.719183,53.102298],[29.711176,53.103213],[29.686532,53.106212],[29.684205,53.106475],[29.683911,53.106509],[29.683243,53.106598],[29.683581,53.106891],[29.694797,53.114331],[29.69776,53.11632],[29.69956,53.11804],[29.700935,53.119702],[29.701767,53.120708],[29.701921,53.121258],[29.701741,53.121821],[29.701673,53.122033],[29.699184,53.124655],[29.698534,53.125773],[29.697935,53.126964],[29.69201,53.13846],[29.69175,53.13907],[29.69072,53.14155],[29.690545,53.142042],[29.68937,53.145339],[29.688088,53.149115],[29.686079,53.153237],[29.685434,53.154566],[29.684806,53.155842],[29.684647,53.156178],[29.683623,53.158347],[29.683742,53.158369],[29.685251,53.158654],[29.68573,53.157828],[29.686329,53.156975],[29.68639,53.156889],[29.686505,53.15683],[29.686636,53.156791],[29.686746,53.156809],[29.686916,53.156828],[29.688942,53.157165],[29.690777,53.157464],[29.690678,53.157281],[29.690154,53.156311],[29.689925,53.156271],[29.689402,53.156181],[29.688387,53.156004],[29.688563,53.155647],[29.688736,53.155295],[29.690276,53.155599],[29.690067,53.155999],[29.689925,53.156271],[29.690154,53.156311],[29.690678,53.157281],[29.690777,53.157464],[29.688942,53.157165],[29.686916,53.156828],[29.686746,53.156809],[29.686636,53.156791],[29.686505,53.15683],[29.68639,53.156889],[29.686329,53.156975],[29.68573,53.157828],[29.685251,53.158654],[29.683742,53.158369],[29.683623,53.158347],[29.684647,53.156178],[29.684806,53.155842],[29.685434,53.154566],[29.686079,53.153237],[29.688088,53.149115],[29.68937,53.145339],[29.690545,53.142042],[29.69072,53.14155],[29.69175,53.13907],[29.69201,53.13846],[29.697935,53.126964],[29.698534,53.125773],[29.699184,53.124655],[29.701673,53.122033],[29.701741,53.121821],[29.701921,53.121258],[29.701767,53.120708],[29.700935,53.119702],[29.69956,53.11804],[29.69776,53.11632],[29.694797,53.114331],[29.683581,53.106891],[29.683243,53.106598],[29.682163,53.106731],[29.680762,53.106905],[29.667842,53.108457],[29.637317,53.112135],[29.633307,53.112634],[29.62506,53.11366],[29.60378,53.11615],[29.596379,53.117029],[29.583785,53.118525],[29.576952,53.119333],[29.573089,53.119801],[29.571058,53.120047],[29.570897,53.120066],[29.570257,53.120144],[29.570004,53.120178],[29.569444,53.120238],[29.568636,53.12036],[29.568103,53.120476],[29.567555,53.120617],[29.566789,53.12091],[29.56649,53.121078],[29.566203,53.121296],[29.56615,53.121336],[29.565954,53.121477],[29.565214,53.122011],[29.564627,53.122399],[29.563882,53.122843],[29.56319,53.123203],[29.562944,53.123289],[29.56075,53.124059],[29.560564,53.124113],[29.560023,53.124272],[29.55143,53.126956],[29.549508,53.127346],[29.545495,53.128107],[29.54486,53.128179],[29.544164,53.128211],[29.543591,53.128159],[29.543,53.128064],[29.540791,53.127538],[29.53177,53.125264],[29.531007,53.125073],[29.530408,53.124939],[29.529428,53.124831],[29.528801,53.124762],[29.527156,53.124613],[29.526377,53.124535],[29.517419,53.123612],[29.516969,53.123583],[29.51614,53.12353],[29.51168,53.1237],[29.51091,53.12379],[29.504593,53.124299],[29.504191,53.124367],[29.500489,53.125315],[29.489538,53.128351],[29.484999,53.129609],[29.483196,53.130104],[29.4813,53.13065],[29.469794,53.132024],[29.462245,53.132962],[29.461072,53.133108],[29.460158,53.133213],[29.44454,53.135006],[29.444076,53.135059],[29.443811,53.135091],[29.437981,53.135757],[29.435201,53.136109],[29.433672,53.136303],[29.429014,53.136819],[29.428743,53.136852],[29.425119,53.137269],[29.42167,53.137668],[29.42026,53.137812],[29.419445,53.137905],[29.419051,53.137951],[29.416982,53.138222],[29.410021,53.138996],[29.408825,53.139129],[29.407764,53.139253],[29.396013,53.140626],[29.39538,53.1407],[29.395125,53.14073],[29.389795,53.14137],[29.386863,53.141706],[29.386406,53.14176],[29.383629,53.142088],[29.380515,53.142452],[29.3801,53.142503],[29.379794,53.14254],[29.378904,53.142649],[29.377871,53.142776],[29.376575,53.142903],[29.376025,53.142953],[29.375365,53.142993],[29.374598,53.143004],[29.373799,53.142999],[29.372694,53.14294],[29.370689,53.142823],[29.369471,53.142768],[29.368993,53.142747],[29.36587,53.142568],[29.365356,53.142539],[29.365237,53.142534],[29.363863,53.142459],[29.363636,53.142442],[29.363065,53.142409],[29.359661,53.14222],[29.356997,53.142075],[29.356456,53.142045],[29.35317,53.141863],[29.350408,53.141716],[29.346346,53.141489],[29.345253,53.141433],[29.344166,53.141376],[29.322238,53.140182],[29.32113,53.140119],[29.319688,53.140032],[29.317867,53.139929],[29.316646,53.13986],[29.314101,53.139716],[29.313643,53.139691],[29.311967,53.139576],[29.311366,53.139544],[29.311155,53.139531],[29.30919,53.139433],[29.308687,53.13941],[29.308202,53.139384],[29.307874,53.139365],[29.30772,53.139357],[29.307511,53.139346],[29.306898,53.139313],[29.305502,53.139233],[29.304499,53.139171],[29.303761,53.139133],[29.303615,53.139129],[29.301276,53.138998],[29.30095,53.138981],[29.30052,53.138958],[29.299824,53.138922],[29.29823,53.138836],[29.297871,53.138819],[29.297226,53.138784],[29.296551,53.13875],[29.296117,53.138744],[29.295679,53.13876],[29.294909,53.138832],[29.294431,53.138884],[29.293769,53.138956],[29.29347,53.138988],[29.292965,53.139041],[29.292772,53.139061],[29.291997,53.139142],[29.29182,53.139157],[29.29101,53.139237],[29.290148,53.139321],[29.289658,53.13937],[29.28393,53.139946],[29.283299,53.140008],[29.28158,53.140188],[29.280298,53.140315],[29.280067,53.140338],[29.279845,53.14036],[29.279642,53.14038],[29.279431,53.140401],[29.278694,53.140479],[29.277626,53.140588],[29.275906,53.140752],[29.272251,53.141132],[29.268168,53.141528],[29.264095,53.141938],[29.261321,53.142251],[29.260403,53.142359],[29.259312,53.14256],[29.258335,53.142831],[29.257447,53.143189],[29.25616,53.143899],[29.254924,53.144593],[29.254281,53.144947],[29.253638,53.1453],[29.253423,53.145164],[29.253178,53.145043],[29.252838,53.144895],[29.252601,53.144765],[29.252418,53.144667],[29.252171,53.144531],[29.252077,53.144462],[29.251985,53.144373],[29.251932,53.144302],[29.251436,53.143672],[29.251297,53.143482],[29.251209,53.14336],[29.251159,53.143291],[29.251119,53.143222],[29.251092,53.143161],[29.25107,53.143093],[29.251068,53.14307],[29.251066,53.14302],[29.251079,53.142951],[29.251104,53.142894],[29.25114,53.142818],[29.251169,53.142734],[29.25119,53.142658],[29.251199,53.142601],[29.251192,53.142528],[29.251173,53.142452],[29.251138,53.142383],[29.251091,53.142314],[29.251028,53.14225],[29.250959,53.142189],[29.250604,53.14196],[29.250097,53.141632],[29.249532,53.141296],[29.249386,53.141202],[29.249242,53.141109],[29.249143,53.141044],[29.249052,53.140987],[29.248735,53.140785],[29.248174,53.140461],[29.247937,53.140318],[29.247583,53.140098],[29.246564,53.139489],[29.246484,53.139442],[29.24633,53.13935],[29.245698,53.138969],[29.245176,53.138655],[29.242389,53.140502],[29.242495,53.140563],[29.243589,53.141192],[29.243757,53.141288],[29.243694,53.141334],[29.242321,53.142344],[29.241684,53.14257],[29.241464,53.142649],[29.240286,53.142943],[29.239924,53.14306],[29.239624,53.143158],[29.238366,53.143597],[29.238092,53.143697],[29.237273,53.144228],[29.23695,53.144422],[29.236339,53.144822],[29.235974,53.145067],[29.235811,53.145176],[29.235577,53.145039],[29.235454,53.145116],[29.234822,53.14551],[29.23464,53.145626],[29.233895,53.146101],[29.233376,53.146429],[29.232789,53.146804],[29.232513,53.14698],[29.232351,53.147084],[29.232175,53.147188],[29.231269,53.147757],[29.230933,53.147968],[29.230768,53.148071],[29.23063,53.148159],[29.229671,53.148767],[29.229281,53.149015],[29.229215,53.149057],[29.229103,53.149128],[29.228695,53.14939],[29.227582,53.150102],[29.22608,53.151055],[29.225791,53.151238],[29.225603,53.151358],[29.225462,53.151449],[29.222913,53.153102],[29.222732,53.15322],[29.220812,53.154446],[29.219175,53.155501],[29.218563,53.155896],[29.218457,53.155968],[29.216942,53.156936],[29.216129,53.157454],[29.215762,53.157687],[29.215628,53.15778],[29.21543,53.157915],[29.215261,53.158072],[29.214009,53.159565],[29.213335,53.160351],[29.213267,53.16043],[29.212963,53.160784],[29.21284,53.160928],[29.212759,53.161022],[29.211013,53.163069],[29.210284,53.163925],[29.209747,53.164542],[29.209656,53.164652],[29.209496,53.164846],[29.208245,53.166313],[29.208145,53.16644],[29.207821,53.166834],[29.207582,53.167125],[29.207423,53.16732],[29.207238,53.167547],[29.207021,53.167803],[29.20519,53.169938],[29.204904,53.17027],[29.204832,53.170354],[29.204439,53.170804],[29.203976,53.171332],[29.203845,53.171481],[29.203484,53.171884],[29.201548,53.174142],[29.201197,53.174556],[29.201068,53.174712],[29.200981,53.174808],[29.200764,53.175052],[29.19915,53.176869],[29.198689,53.177365],[29.198615,53.177446],[29.198524,53.177547],[29.198325,53.17777],[29.197791,53.178363],[29.197683,53.178483],[29.197453,53.178742],[29.197048,53.179188],[29.196482,53.179812],[29.196054,53.180284],[29.195175,53.181256],[29.193584,53.182988],[29.192885,53.183765],[29.192666,53.183997],[29.192377,53.184246],[29.19196,53.18455],[29.191591,53.184762],[29.190729,53.185241],[29.190075,53.185532],[29.18944,53.185762],[29.188739,53.185969],[29.188518,53.186027],[29.187384,53.186318],[29.187282,53.186345],[29.186812,53.186473],[29.184829,53.187005],[29.184574,53.187029],[29.184401,53.187076],[29.183584,53.187313],[29.183072,53.18747],[29.182718,53.187578],[29.182121,53.187764],[29.179895,53.188455],[29.178427,53.188909],[29.177841,53.189084],[29.177168,53.189285],[29.175296,53.189845],[29.172186,53.190798],[29.169768,53.19156],[29.16908,53.191771],[29.164819,53.19307],[29.158436,53.195017],[29.155437,53.195935],[29.154063,53.196357],[29.153652,53.196483],[29.152624,53.196799],[29.152159,53.196942],[29.151154,53.197253],[29.149964,53.197622],[29.145906,53.198879],[29.145564,53.198985],[29.141887,53.200119],[29.137522,53.201466],[29.128734,53.204171],[29.128247,53.20432],[29.1275,53.20455],[29.127282,53.204617],[29.126321,53.204912],[29.124551,53.205455],[29.124388,53.205505],[29.124121,53.205592],[29.118669,53.207297],[29.117639,53.207528],[29.11713,53.207597],[29.1166,53.20764],[29.115143,53.207695],[29.114374,53.207703],[29.114159,53.207708],[29.110247,53.207788],[29.10803,53.207825],[29.10727,53.207835],[29.106621,53.207845],[29.106417,53.207848],[29.106141,53.207852],[29.1058,53.207863],[29.10479,53.207875],[29.100595,53.207979],[29.099749,53.207997],[29.093653,53.20813],[29.088275,53.208237],[29.08704,53.208261],[29.086696,53.20827],[29.086446,53.208273],[29.085557,53.208287],[29.083882,53.208312],[29.081143,53.208362],[29.07973,53.208409],[29.078339,53.208482],[29.075949,53.208723],[29.074273,53.208892],[29.073963,53.208985],[29.07383,53.209079],[29.073727,53.209184],[29.073646,53.209348],[29.073503,53.209547],[29.073327,53.209798],[29.073167,53.209972],[29.073068,53.21007],[29.072658,53.210384],[29.07217,53.210681],[29.071745,53.210885],[29.071247,53.21106],[29.070701,53.211195],[29.070291,53.211258],[29.069917,53.21128],[29.069698,53.211307],[29.069416,53.211317],[29.069158,53.211322],[29.068831,53.211319],[29.06847,53.211291],[29.068157,53.211251],[29.067728,53.211173],[29.067257,53.211048],[29.066533,53.210771],[29.065783,53.210439],[29.065205,53.210188],[29.064398,53.20991],[29.064084,53.209848],[29.063682,53.209804],[29.062517,53.209726],[29.06192,53.20972],[29.060895,53.209741],[29.060056,53.209769],[29.05932,53.209818],[29.058666,53.209862],[29.056791,53.210078],[29.055349,53.210333],[29.053593,53.210775],[29.053397,53.210829],[29.052548,53.211064],[29.049471,53.211995],[29.046274,53.212976],[29.045417,53.21324],[29.04229,53.214162],[29.040325,53.214766],[29.037739,53.215561],[29.037043,53.215792],[29.035061,53.216447],[29.034773,53.216543],[29.03339,53.217066],[29.032601,53.217375],[29.030837,53.218042],[29.028719,53.21882],[29.027351,53.219261],[29.026887,53.219416],[29.026053,53.219671],[29.022586,53.22073],[29.021725,53.220993],[29.020041,53.221515],[29.019127,53.221791],[29.018642,53.221941],[29.017972,53.222149],[29.01759,53.222263],[29.016287,53.222658],[29.01597,53.222755],[29.015831,53.222795],[29.015391,53.222921],[29.015362,53.22293],[29.013982,53.223339],[29.011833,53.223978],[29.006785,53.225442],[29.000604,53.227254],[28.987214,53.231278],[28.980564,53.233262],[28.979257,53.23368],[28.977038,53.234389],[28.976917,53.234428],[28.976371,53.234598],[28.976123,53.234673],[28.974596,53.235127],[28.97207,53.235878],[28.969836,53.236542],[28.961836,53.238979],[28.959538,53.239672],[28.9595,53.239683],[28.958745,53.239915],[28.957245,53.240377],[28.956872,53.240491],[28.956422,53.240628],[28.954013,53.241359],[28.951831,53.242021],[28.94855,53.243016],[28.947138,53.243451],[28.945024,53.244102],[28.943854,53.244448],[28.943061,53.244685],[28.941612,53.24512],[28.940886,53.245338],[28.938297,53.246039],[28.935565,53.246771],[28.934052,53.247217],[28.933149,53.24749],[28.932506,53.247702],[28.930414,53.248405],[28.929452,53.248755],[28.927472,53.249531],[28.926178,53.250028],[28.923623,53.251009],[28.92145,53.251824],[28.918156,53.253059],[28.917144,53.253442],[28.91556,53.254041],[28.915371,53.254113],[28.908834,53.256586],[28.907278,53.257174],[28.906008,53.257665],[28.905657,53.257801],[28.904217,53.258357],[28.904048,53.258422],[28.901358,53.259461],[28.891834,53.26314],[28.888438,53.264452],[28.878829,53.26807],[28.873726,53.270007],[28.868826,53.271857],[28.866372,53.272785],[28.857897,53.275984],[28.855786,53.276781],[28.855707,53.276809],[28.8552,53.276989],[28.855076,53.277037],[28.854779,53.277152],[28.85352,53.277638],[28.850764,53.278671],[28.848849,53.279388],[28.848503,53.279518],[28.843916,53.28124],[28.842256,53.281863],[28.84172,53.282065],[28.841287,53.282227],[28.84071,53.282444],[28.837842,53.283521],[28.832797,53.285414],[28.832069,53.285687],[28.827963,53.28695],[28.81456,53.29107],[28.814045,53.291229],[28.806626,53.293434],[28.804762,53.293988],[28.801176,53.295101],[28.801046,53.295141],[28.798574,53.295885],[28.797529,53.296197],[28.796063,53.296641],[28.787778,53.29914],[28.781842,53.300931],[28.774214,53.303237],[28.772728,53.303686],[28.772408,53.303783],[28.770538,53.304353],[28.770511,53.304361],[28.770243,53.304443],[28.770078,53.304493],[28.769854,53.30456],[28.768198,53.305059],[28.767865,53.305161],[28.766363,53.305612],[28.764488,53.306175],[28.761829,53.306974],[28.753765,53.309396],[28.751741,53.310041],[28.748639,53.310977],[28.74597,53.311785],[28.740574,53.313417],[28.739697,53.31368],[28.734984,53.315126],[28.734594,53.315245],[28.73299,53.315731],[28.732255,53.315954],[28.730822,53.316389],[28.730069,53.316618],[28.729973,53.316647],[28.729747,53.316715],[28.727554,53.317371],[28.724115,53.318395],[28.723792,53.318493],[28.721081,53.319315],[28.720234,53.319563],[28.719413,53.31981],[28.7088,53.323003],[28.707877,53.32328],[28.706229,53.323763],[28.703538,53.324552],[28.700434,53.325494],[28.699704,53.32571],[28.696284,53.326726],[28.693556,53.327537],[28.692544,53.327837],[28.69244,53.327868],[28.690097,53.328574],[28.689763,53.328674],[28.689394,53.328779],[28.687973,53.329185],[28.686879,53.329497],[28.686448,53.329618],[28.684174,53.330269],[28.683787,53.330377],[28.683307,53.33051],[28.679251,53.331762],[28.678325,53.332039],[28.676687,53.332527],[28.674718,53.333124],[28.674008,53.33334],[28.672243,53.333868],[28.671245,53.334166],[28.665922,53.335759],[28.665603,53.335855],[28.663088,53.3366],[28.662882,53.336736],[28.662797,53.336834],[28.662775,53.336907],[28.662751,53.336996],[28.662787,53.337097],[28.663,53.337206],[28.663611,53.337548],[28.664004,53.337773],[28.664569,53.338091],[28.664724,53.338182],[28.665363,53.338556],[28.665589,53.338639],[28.665752,53.338668],[28.665984,53.338663],[28.666223,53.338637],[28.666507,53.338598],[28.666562,53.338543],[28.666622,53.338475],[28.666641,53.338436],[28.666653,53.338386],[28.666652,53.338318],[28.666648,53.338143],[28.665357,53.336629],[28.665105,53.336332],[28.664645,53.33577],[28.664611,53.335731],[28.664189,53.335248],[28.663915,53.334931],[28.663752,53.334728],[28.663572,53.334481],[28.663307,53.334102],[28.663199,53.333955],[28.662707,53.333213],[28.662387,53.33271],[28.661945,53.33195],[28.661479,53.331091],[28.660957,53.330054],[28.660621,53.329587],[28.660272,53.32915],[28.659853,53.328688],[28.659217,53.328147],[28.658934,53.327914],[28.658608,53.327648],[28.658068,53.327265],[28.657803,53.327077],[28.656531,53.326154],[28.655246,53.325251],[28.65485,53.324967],[28.654382,53.324641],[28.654257,53.324552],[28.653686,53.324148],[28.65355,53.324052],[28.653127,53.323753],[28.652924,53.323613],[28.652428,53.323271],[28.651636,53.322691],[28.650461,53.321875],[28.649743,53.321368],[28.649483,53.321184],[28.649254,53.321019],[28.648793,53.320688],[28.648592,53.320543],[28.648249,53.320297],[28.64811,53.320197],[28.647857,53.320015],[28.647645,53.319861],[28.64753,53.319778],[28.646931,53.319343],[28.646685,53.31912],[28.646615,53.31905],[28.646116,53.318503],[28.645729,53.318053],[28.645579,53.317872],[28.645269,53.317497],[28.645219,53.317436],[28.644948,53.317111],[28.644682,53.316803],[28.64465,53.316763],[28.644436,53.316496],[28.64428,53.316302],[28.643937,53.315883],[28.642211,53.31388],[28.641885,53.313491],[28.641769,53.313352],[28.641317,53.312807],[28.641162,53.312621],[28.640662,53.312792],[28.640022,53.31301],[28.639204,53.31329],[28.638392,53.313567],[28.638317,53.313474],[28.638257,53.3134],[28.638113,53.313235],[28.637999,53.313103],[28.637304,53.312305],[28.636379,53.311174],[28.635656,53.310289],[28.6356,53.310225],[28.635528,53.310135],[28.635197,53.309718],[28.634823,53.309268],[28.634752,53.309184],[28.634593,53.309232],[28.634434,53.309281],[28.633259,53.309637],[28.63223,53.309949],[28.629866,53.310662],[28.629181,53.310868],[28.628824,53.310976],[28.628714,53.311009],[28.628626,53.311035],[28.628537,53.310923],[28.628511,53.31089],[28.628074,53.310343],[28.627465,53.309603],[28.626719,53.308714],[28.626637,53.308606],[28.626602,53.308476],[28.62649,53.308066],[28.626369,53.307665],[28.626178,53.307106],[28.625976,53.306663],[28.62506,53.304949],[28.624156,53.303287],[28.623373,53.301823],[28.623006,53.30122],[28.622914,53.301078],[28.622791,53.300919],[28.622435,53.300459],[28.622369,53.300374],[28.62228,53.300259],[28.622193,53.300156],[28.620512,53.298172],[28.620457,53.298107],[28.620367,53.298],[28.620155,53.298038],[28.619554,53.298142],[28.618862,53.298273],[28.617048,53.298813],[28.615372,53.299334],[28.615164,53.299398],[28.61417,53.299717],[28.613646,53.299892],[28.612954,53.300124],[28.612113,53.300391],[28.61188,53.300465],[28.611378,53.300613],[28.611198,53.300647],[28.610956,53.300692],[28.610474,53.300769],[28.610033,53.300867],[28.609954,53.300885],[28.609675,53.300938],[28.609337,53.30098],[28.609118,53.300996],[28.608933,53.301003],[28.608589,53.301014],[28.605903,53.300894],[28.603943,53.300797],[28.60358,53.300773],[28.603369,53.300745],[28.603192,53.300716],[28.602972,53.300666],[28.602591,53.300538],[28.601626,53.300131],[28.600688,53.299688],[28.5994,53.299078],[28.599269,53.299015],[28.598946,53.298861],[28.598617,53.298704],[28.598306,53.298556],[28.597592,53.298227],[28.597367,53.298124],[28.59719,53.298044],[28.596918,53.297931],[28.59654,53.297709],[28.595985,53.297313],[28.595436,53.296953],[28.593486,53.295675],[28.58987,53.293235],[28.587745,53.291813],[28.587357,53.291554],[28.587169,53.291428],[28.586878,53.291233],[28.585482,53.2903],[28.583829,53.289198],[28.583434,53.288939],[28.582012,53.287994],[28.578419,53.285566],[28.574479,53.282939],[28.572174,53.281391],[28.571302,53.280806],[28.570899,53.280503],[28.570732,53.28037],[28.570591,53.280214],[28.570426,53.279966],[28.570294,53.279684],[28.570115,53.279096],[28.570007,53.278735],[28.569656,53.27755],[28.569444,53.276835],[28.568751,53.274463],[28.568278,53.272843],[28.567918,53.27167],[28.567854,53.271468],[28.567747,53.271148],[28.567673,53.270989],[28.567588,53.270857],[28.56749,53.270751],[28.56738,53.270662],[28.567244,53.270586],[28.566994,53.270465],[28.566435,53.270237],[28.564645,53.269599],[28.562614,53.268877],[28.562014,53.268663],[28.559109,53.267633],[28.55832,53.26734],[28.557568,53.267087],[28.557116,53.266985],[28.556728,53.266922],[28.556001,53.266855],[28.552798,53.266614],[28.550659,53.266454],[28.549689,53.266381],[28.549464,53.266365],[28.542313,53.265853],[28.537878,53.265512],[28.536885,53.265442],[28.536103,53.265386],[28.533602,53.265208],[28.525002,53.264542],[28.524749,53.264522],[28.524118,53.264482],[28.52355,53.264445],[28.521352,53.264304],[28.519798,53.264193],[28.516912,53.263988],[28.51611,53.263931],[28.513492,53.263739],[28.512205,53.263629],[28.511226,53.263539],[28.510901,53.263467],[28.510668,53.263383],[28.510327,53.263226],[28.50717,53.261205],[28.504997,53.259815],[28.503897,53.259111],[28.50187,53.257824],[28.5006,53.257026],[28.500277,53.256824],[28.499284,53.2562],[28.498151,53.255473],[28.497231,53.254882],[28.493225,53.25231],[28.49194,53.251492],[28.491371,53.251134],[28.49095,53.250898],[28.490632,53.250766],[28.490266,53.250662],[28.488486,53.250155],[28.485636,53.249358],[28.481529,53.248209],[28.481402,53.248174],[28.472361,53.245644],[28.471676,53.245453],[28.470415,53.245116],[28.469995,53.245033],[28.46944,53.24498],[28.46309,53.24455],[28.462575,53.24451],[28.457751,53.244134],[28.457433,53.244109],[28.456891,53.244067],[28.456292,53.244025],[28.442705,53.243078],[28.432818,53.242389],[28.431667,53.242309],[28.43091,53.242255],[28.42782,53.242037],[28.42178,53.241612],[28.416554,53.241265],[28.413867,53.241074],[28.413339,53.241032],[28.413218,53.241024],[28.412836,53.240993],[28.412571,53.240966],[28.412179,53.2409],[28.411665,53.24078],[28.409686,53.240204],[28.406775,53.239322],[28.405991,53.239109],[28.405315,53.238985],[28.404472,53.238895],[28.403385,53.238813],[28.402599,53.238784],[28.400421,53.23874],[28.398921,53.238682],[28.397531,53.238629],[28.392493,53.238402],[28.391069,53.238348],[28.390111,53.238312],[28.389402,53.238283],[28.384206,53.238065],[28.36932,53.237423],[28.367529,53.237343],[28.367128,53.23731],[28.366731,53.237247],[28.366379,53.237137],[28.366096,53.236987],[28.365758,53.236742],[28.364809,53.235989],[28.362716,53.234407],[28.362339,53.234122],[28.361833,53.233727],[28.359239,53.231704],[28.357757,53.230548],[28.356462,53.229594],[28.355609,53.228964],[28.3545,53.228158],[28.353639,53.227578],[28.353318,53.227417],[28.353088,53.227326],[28.35281,53.227258],[28.352583,53.227229],[28.352228,53.227232],[28.350611,53.227412],[28.34847,53.227672],[28.347711,53.227762],[28.3453,53.228028],[28.344817,53.228062],[28.344477,53.228077],[28.344057,53.228066],[28.343661,53.228022],[28.343204,53.227941],[28.338885,53.226794],[28.338458,53.226712],[28.33799,53.226653],[28.335043,53.226381],[28.333898,53.226268],[28.333162,53.22616],[28.332831,53.226096],[28.332505,53.226029],[28.322715,53.223611],[28.321697,53.223328],[28.320166,53.222836],[28.319431,53.2226],[28.319064,53.222482],[28.318104,53.222174],[28.315287,53.221273],[28.31394,53.220826],[28.312283,53.220218],[28.311238,53.21984],[28.307606,53.218351],[28.306647,53.217982],[28.3058,53.217656],[28.303139,53.2166],[28.302796,53.21648],[28.302393,53.21638],[28.302085,53.216343],[28.301884,53.216335],[28.301612,53.216331],[28.301295,53.216363],[28.300878,53.216418],[28.300374,53.216505],[28.300284,53.21652],[28.300187,53.216536],[28.299245,53.216692],[28.29739,53.216997],[28.295903,53.217229],[28.295256,53.217328],[28.294945,53.217355],[28.294483,53.217348],[28.294281,53.217338],[28.293547,53.217283],[28.293092,53.217243],[28.292373,53.217181],[28.290511,53.217041],[28.290175,53.217016],[28.289751,53.216972],[28.289536,53.216936],[28.289378,53.216871],[28.28925,53.216806],[28.289096,53.216681],[28.288521,53.216196],[28.28789,53.215671],[28.286937,53.214858],[28.286676,53.214674],[28.28649,53.214565],[28.286278,53.214454],[28.285883,53.214281],[28.285308,53.214082],[28.284983,53.21397],[28.28471,53.213875],[28.283784,53.213551],[28.282983,53.213266],[28.282684,53.213165],[28.282236,53.213016],[28.282,53.212951],[28.281786,53.212905],[28.28144,53.212871],[28.28108,53.212859],[28.280743,53.212869],[28.280373,53.212893],[28.279071,53.212974],[28.277366,53.21308],[28.268231,53.213647],[28.266726,53.21374],[28.261502,53.214064],[28.257884,53.214288],[28.251639,53.214686],[28.247046,53.214971],[28.241942,53.215305],[28.237128,53.215612],[28.234288,53.215803],[28.231227,53.215982],[28.229942,53.216065],[28.228413,53.216164],[28.228025,53.216187],[28.227333,53.216231],[28.224522,53.21641],[28.222389,53.216543],[28.221438,53.216606],[28.218418,53.216806],[28.218082,53.216828],[28.215431,53.216982],[28.214555,53.217028],[28.213798,53.217056],[28.212767,53.217067],[28.20917,53.21709],[28.208853,53.217091],[28.207671,53.2171],[28.193429,53.217216],[28.19293,53.21722],[28.192663,53.217222],[28.192221,53.217225],[28.185457,53.217277],[28.180885,53.217292],[28.178255,53.217298],[28.178175,53.217298],[28.16371,53.217334],[28.163275,53.217335],[28.162845,53.217335],[28.161615,53.217339],[28.160451,53.217336],[28.158958,53.217332],[28.158441,53.217334],[28.15809,53.217337],[28.155333,53.217349],[28.155103,53.21735],[28.148365,53.217355],[28.139607,53.217361],[28.139006,53.217341],[28.138725,53.217318],[28.138376,53.217276],[28.134333,53.21662],[28.132159,53.216268],[28.121311,53.214484],[28.121049,53.21444],[28.105121,53.211775],[28.102228,53.211311],[28.100705,53.211067],[28.097805,53.210581],[28.087995,53.208939],[28.087822,53.208911],[28.07789,53.207256],[28.076507,53.207038],[28.076147,53.207002],[28.075883,53.206988],[28.07563,53.206983],[28.075381,53.206995],[28.075161,53.207018],[28.074897,53.207054],[28.073906,53.207245],[28.0735,53.207326],[28.069878,53.208051],[28.059625,53.210104],[28.058075,53.210414],[28.051186,53.211817],[28.050633,53.21193],[28.050369,53.211974],[28.050075,53.211998],[28.049787,53.212006],[28.049252,53.211991],[28.048599,53.211972],[28.048402,53.211985],[28.048246,53.212002],[28.04818,53.212032],[28.047843,53.212116],[28.047764,53.212131],[28.047681,53.21213],[28.047603,53.212112],[28.047539,53.212081],[28.047496,53.212038],[28.047479,53.21199],[28.047381,53.211963],[28.047218,53.211933],[28.047177,53.211931],[28.04658,53.211908],[28.045754,53.211876],[28.045103,53.211851],[28.044021,53.211809],[28.040571,53.211676],[28.038219,53.211601],[28.036636,53.211546],[28.034383,53.211468],[28.033415,53.211437],[28.029721,53.211317],[28.029398,53.211306],[28.022765,53.211084],[28.014601,53.21079],[28.014244,53.210779],[28.013421,53.210752],[27.99958,53.210266],[27.999175,53.210253],[27.991166,53.209997],[27.98431,53.209772],[27.981271,53.209673],[27.980678,53.209651],[27.980102,53.209629],[27.979058,53.209594],[27.973763,53.209412],[27.96886,53.209255],[27.954685,53.20881],[27.945675,53.208528],[27.939837,53.208362],[27.93157,53.208128],[27.928204,53.208056],[27.923465,53.2079],[27.917685,53.207744],[27.916577,53.207721],[27.916149,53.207739],[27.915447,53.207791],[27.909878,53.208562],[27.903239,53.209426],[27.901699,53.209625],[27.901426,53.209672],[27.900276,53.209805],[27.895222,53.210412],[27.886311,53.211546],[27.884138,53.211834],[27.869474,53.213774],[27.867049,53.214101],[27.863065,53.214613],[27.857897,53.21529],[27.851614,53.216112],[27.850866,53.216208],[27.848921,53.216459],[27.846638,53.216776],[27.842245,53.217648],[27.841473,53.217792],[27.840964,53.21786],[27.840439,53.217892],[27.839953,53.217878],[27.839439,53.217844],[27.839046,53.217787],[27.83857,53.21768],[27.838145,53.217552],[27.832093,53.21567],[27.824979,53.213439],[27.815003,53.210312],[27.813101,53.209706],[27.810751,53.208969],[27.810478,53.208883],[27.804676,53.207059],[27.801761,53.20615],[27.801169,53.205992],[27.800671,53.205897],[27.80021,53.205848],[27.799773,53.205829],[27.799216,53.205827],[27.796593,53.20594],[27.792925,53.206076],[27.786617,53.206346],[27.781804,53.206545],[27.771957,53.206954],[27.771569,53.20697],[27.770482,53.207013],[27.770168,53.207024],[27.769672,53.207042],[27.768484,53.207086],[27.768069,53.207107],[27.767603,53.207143],[27.767083,53.207222],[27.766417,53.207359],[27.765907,53.2075],[27.765628,53.207618],[27.765023,53.207929],[27.764785,53.208075],[27.763045,53.209258],[27.762763,53.209443],[27.760904,53.210701],[27.759655,53.211551],[27.755773,53.214162],[27.754505,53.215015],[27.754072,53.215305],[27.75206,53.216641],[27.738354,53.225912],[27.738169,53.226037],[27.735456,53.227875],[27.735001,53.228073],[27.734541,53.228237],[27.734148,53.228314],[27.733745,53.228355],[27.729635,53.228531],[27.726858,53.22862],[27.723049,53.228761],[27.717728,53.228979],[27.712622,53.229177],[27.706526,53.229438],[27.706228,53.229452],[27.704902,53.229518],[27.703578,53.229541],[27.699191,53.22972],[27.692565,53.229976],[27.692248,53.229988],[27.673894,53.230735],[27.670736,53.230858],[27.670487,53.230864],[27.664005,53.23116],[27.657823,53.231392],[27.657012,53.231425],[27.653966,53.23155],[27.644578,53.231969],[27.644412,53.231976],[27.644316,53.231981],[27.643688,53.23201],[27.643569,53.232016],[27.640218,53.232178],[27.639246,53.232222],[27.638773,53.232229],[27.638555,53.23223],[27.638341,53.232218],[27.637625,53.232155],[27.63741,53.232115],[27.635505,53.231769],[27.630282,53.230774],[27.629723,53.230666],[27.629661,53.230654],[27.629355,53.230597],[27.628599,53.230453],[27.627423,53.230232],[27.626286,53.230019],[27.625343,53.229848],[27.624361,53.229657],[27.623463,53.229501],[27.621087,53.229035],[27.619814,53.228735],[27.60499,53.223577],[27.604808,53.223513],[27.604155,53.223293],[27.603691,53.223138],[27.603249,53.223002],[27.602796,53.222888],[27.602262,53.222775],[27.601761,53.222686],[27.601219,53.222597],[27.600559,53.222485],[27.599687,53.222344],[27.598568,53.222175],[27.598385,53.222145],[27.596359,53.221815],[27.59242,53.221195],[27.590542,53.220887],[27.588195,53.220513],[27.587118,53.220342],[27.583696,53.219779],[27.577917,53.218878],[27.577026,53.218789],[27.576354,53.218777],[27.575608,53.218807],[27.559363,53.220474],[27.554698,53.220964],[27.553565,53.221066],[27.553261,53.221093],[27.552591,53.221081],[27.55143,53.221005],[27.551347,53.221],[27.551235,53.22101],[27.551106,53.221006],[27.551073,53.221005],[27.551008,53.221003],[27.550801,53.220997],[27.550673,53.220993],[27.550428,53.220977],[27.550157,53.220942],[27.549991,53.22092],[27.549787,53.220886],[27.549599,53.220856],[27.549503,53.220848],[27.547867,53.220713],[27.546824,53.220629],[27.54621,53.220579],[27.545475,53.220524],[27.544894,53.220474],[27.544611,53.220452],[27.542294,53.220268],[27.540317,53.220106],[27.537903,53.219923],[27.536876,53.219837],[27.535894,53.21976],[27.535088,53.219691],[27.534203,53.219619],[27.532908,53.219517],[27.532,53.219445],[27.531663,53.219419],[27.531417,53.2194],[27.530178,53.219299],[27.529487,53.219248],[27.529183,53.219224],[27.528698,53.219213],[27.528264,53.219228],[27.518327,53.22006],[27.517859,53.220099],[27.511642,53.220607],[27.510816,53.220669],[27.510197,53.220721],[27.508781,53.220835],[27.508626,53.220852],[27.507573,53.220944],[27.507281,53.220971],[27.506748,53.221015],[27.505372,53.221141],[27.503917,53.22126],[27.502273,53.221398],[27.501536,53.22146],[27.500665,53.221534],[27.499122,53.221667],[27.49806,53.221755],[27.497201,53.221824],[27.496653,53.221864],[27.496294,53.221882],[27.495943,53.221886],[27.495489,53.221869],[27.494732,53.221834],[27.493783,53.22178],[27.492866,53.221719],[27.491946,53.221665],[27.49,53.221545],[27.488042,53.221412],[27.487671,53.221383],[27.486207,53.221292],[27.483046,53.221095],[27.481023,53.220975],[27.47927,53.220854],[27.475683,53.220634],[27.474594,53.220563],[27.47318,53.22048],[27.470626,53.220311],[27.469117,53.220221],[27.467697,53.22013],[27.466629,53.220076],[27.466502,53.220068],[27.465068,53.219944],[27.457635,53.219486],[27.453208,53.219206],[27.44717,53.218831],[27.446606,53.218797],[27.443093,53.218577],[27.434991,53.218078],[27.428905,53.217686],[27.4223,53.21725],[27.421641,53.217237],[27.42105,53.217261],[27.420016,53.21736],[27.419839,53.217379],[27.419373,53.217433],[27.413425,53.218035],[27.413092,53.218069],[27.398921,53.219503],[27.39284,53.22011],[27.389196,53.220479],[27.388606,53.220535],[27.387689,53.220623],[27.387298,53.220661],[27.385754,53.220808],[27.385017,53.220882],[27.384137,53.220974],[27.381587,53.221232],[27.378876,53.221507],[27.378434,53.221554],[27.37529,53.221873],[27.374989,53.221899],[27.372998,53.222103],[27.36932,53.222465],[27.36184,53.223222],[27.361513,53.22325],[27.354403,53.223955],[27.352651,53.224115],[27.34768,53.224432],[27.34564,53.224568],[27.341307,53.224834],[27.333331,53.225362],[27.333107,53.225378],[27.328099,53.225715],[27.319268,53.22629],[27.316861,53.22641],[27.309596,53.226883],[27.29712,53.227625],[27.294734,53.227748],[27.293813,53.227796],[27.2859,53.22817],[27.285589,53.228187],[27.284589,53.228229],[27.281505,53.228391],[27.280044,53.22848],[27.279778,53.228491],[27.278902,53.228545],[27.276325,53.228677],[27.274718,53.228766],[27.273754,53.228827],[27.270986,53.229004],[27.270504,53.229044],[27.270172,53.229083],[27.269912,53.229116],[27.269184,53.229262],[27.264664,53.230097],[27.264438,53.230141],[27.264174,53.230189],[27.263748,53.23027],[27.263559,53.230319],[27.259543,53.231091],[27.257891,53.2314],[27.256284,53.231728],[27.255607,53.231858],[27.25323,53.232332],[27.243801,53.234149],[27.239049,53.23503],[27.234395,53.235858],[27.2201,53.238496],[27.21482,53.239468],[27.210131,53.240328],[27.209698,53.240404],[27.209439,53.240449],[27.203943,53.241471],[27.187257,53.244591],[27.186361,53.244762],[27.185928,53.244844],[27.184783,53.245035],[27.181731,53.245604],[27.181415,53.245662],[27.176439,53.24657],[27.172006,53.247393],[27.170126,53.247613],[27.152426,53.248935],[27.146251,53.249381],[27.143339,53.24961],[27.141608,53.249753],[27.140908,53.249801],[27.140363,53.249793],[27.139875,53.24975],[27.139238,53.24964],[27.137088,53.249161],[27.135185,53.24872],[27.129724,53.247509],[27.119143,53.245173],[27.118261,53.24499],[27.117675,53.24493],[27.116939,53.244926],[27.11628,53.244988],[27.115657,53.245101],[27.115091,53.245258],[27.114554,53.245465],[27.11407,53.24569],[27.113726,53.245849],[27.113021,53.246173],[27.112222,53.246508],[27.111156,53.247009],[27.110978,53.247092],[27.10973,53.247673],[27.107769,53.248567],[27.10287,53.25081],[27.097743,53.253158],[27.096535,53.253713],[27.092613,53.255517],[27.091877,53.255777],[27.091237,53.255929],[27.090244,53.256035],[27.079886,53.256603],[27.071107,53.257055],[27.067807,53.25725],[27.065803,53.257337],[27.065577,53.257347],[27.04673,53.258362],[27.036218,53.258885],[27.031763,53.259105],[27.028071,53.259073],[27.020006,53.258972],[27.01071,53.25884],[27.003895,53.258714],[27.003436,53.258707],[26.97744,53.25828],[26.968335,53.25807],[26.959085,53.257857],[26.958843,53.257852],[26.958724,53.257846],[26.955084,53.257673],[26.953032,53.257589],[26.9529,53.257584],[26.950437,53.257481],[26.94515,53.257288],[26.942799,53.257183],[26.941777,53.257134],[26.937966,53.25698],[26.935556,53.256875],[26.934021,53.256738],[26.932723,53.25657],[26.930611,53.256245],[26.927123,53.255543],[26.923291,53.254736],[26.918229,53.253694],[26.914466,53.252877],[26.913736,53.252717],[26.913417,53.252651],[26.903542,53.250522],[26.8993,53.24958],[26.897208,53.249163],[26.895257,53.248801],[26.886405,53.247672],[26.879852,53.246823],[26.878147,53.246563],[26.87688,53.246294],[26.865002,53.243167],[26.863383,53.24274],[26.859574,53.241734],[26.850377,53.240304],[26.84524,53.239512],[26.8436,53.239262],[26.835986,53.238098],[26.835612,53.23804],[26.833105,53.237652],[26.828745,53.236973],[26.827507,53.23678],[26.823877,53.236212],[26.817978,53.235289],[26.816388,53.235032],[26.809405,53.233954],[26.808273,53.23378],[26.795575,53.231816],[26.776754,53.229186],[26.772857,53.228588],[26.768042,53.227913],[26.766385,53.227703],[26.760202,53.226833],[26.759262,53.226774],[26.758016,53.226706],[26.75681,53.226713],[26.756005,53.226744],[26.75531,53.226809],[26.753594,53.227047],[26.751377,53.227371],[26.749765,53.22763],[26.748795,53.22778],[26.746195,53.22815],[26.745968,53.228182],[26.745476,53.228255],[26.743278,53.228564],[26.741839,53.228787],[26.74129,53.228866],[26.738986,53.229198],[26.732956,53.230069],[26.731512,53.230167],[26.730936,53.230178],[26.730706,53.230176],[26.730208,53.230178],[26.729388,53.230131],[26.728611,53.230052],[26.727721,53.22993],[26.725387,53.229483],[26.725081,53.229418],[26.723687,53.229133],[26.721445,53.22865],[26.72032,53.228402],[26.719785,53.228285],[26.719555,53.22823],[26.718321,53.227956],[26.717144,53.227694],[26.716721,53.227592],[26.716082,53.227398],[26.715541,53.227203],[26.714982,53.227],[26.714833,53.226946],[26.714173,53.226708],[26.713294,53.226364],[26.712582,53.226029],[26.71213,53.225789],[26.711479,53.225422],[26.710826,53.225024],[26.710196,53.224639],[26.709425,53.22412],[26.706756,53.222177],[26.705377,53.221169],[26.704363,53.220428],[26.704155,53.220503],[26.701978,53.221286],[26.701039,53.221589],[26.700308,53.221825],[26.698684,53.222082],[26.697659,53.222288],[26.697574,53.222304],[26.697404,53.222335],[26.697228,53.222362],[26.696855,53.22243],[26.696112,53.222557],[26.695876,53.222594],[26.694717,53.222812],[26.694004,53.222945],[26.693795,53.222983],[26.693655,53.222824],[26.693451,53.222708],[26.693326,53.222635],[26.693033,53.222696],[26.692899,53.222735],[26.692894,53.222737],[26.692894,53.222737],[26.692842,53.222753],[26.692839,53.222791],[26.692614,53.222956],[26.692608,53.222957],[26.692603,53.222957],[26.69255,53.222943],[26.692603,53.222957],[26.692608,53.222957],[26.692614,53.222956],[26.692839,53.222791],[26.692842,53.222753],[26.692894,53.222737],[26.692899,53.222735],[26.693033,53.222696],[26.693326,53.222635],[26.693451,53.222708],[26.693655,53.222824],[26.693795,53.222983],[26.694004,53.222945],[26.694717,53.222812],[26.695876,53.222594],[26.696112,53.222557],[26.696855,53.22243],[26.697228,53.222362],[26.697404,53.222335],[26.697574,53.222304],[26.697659,53.222288],[26.698684,53.222082],[26.700308,53.221825],[26.701039,53.221589],[26.701978,53.221286],[26.704155,53.220503],[26.704363,53.220428],[26.705377,53.221169],[26.706756,53.222177],[26.709425,53.22412],[26.710196,53.224639],[26.710826,53.225024],[26.711479,53.225422],[26.71213,53.225789],[26.712582,53.226029],[26.713294,53.226364],[26.714173,53.226708],[26.714833,53.226946],[26.714982,53.227],[26.715541,53.227203],[26.716082,53.227398],[26.716721,53.227592],[26.717144,53.227694],[26.718321,53.227956],[26.719555,53.22823],[26.719785,53.228285],[26.72032,53.228402],[26.721445,53.22865],[26.723687,53.229133],[26.723607,53.229257],[26.723528,53.229379],[26.723488,53.229441],[26.723423,53.229543],[26.723364,53.229645],[26.723086,53.230112],[26.722955,53.230329],[26.722395,53.231138],[26.721742,53.23199],[26.721096,53.232719],[26.720339,53.23353],[26.719218,53.234517],[26.718941,53.234769],[26.716993,53.236191],[26.715884,53.23685],[26.715043,53.23735],[26.709786,53.240511],[26.708406,53.241328],[26.705585,53.243046],[26.703733,53.244174],[26.701268,53.245663],[26.699472,53.246707],[26.698313,53.247326],[26.696672,53.248201],[26.695678,53.248637],[26.694756,53.24899],[26.694442,53.249111],[26.692883,53.249643],[26.691437,53.250076],[26.690511,53.250315],[26.689013,53.250656],[26.687588,53.250933],[26.687351,53.25098],[26.686973,53.251053],[26.68659,53.251113],[26.686323,53.251155],[26.684982,53.251373],[26.682599,53.251616],[26.681061,53.251714],[26.678965,53.251758],[26.676859,53.251771],[26.676437,53.25179],[26.676216,53.2518],[26.67608,53.251811],[26.675969,53.251825],[26.675901,53.251837],[26.67587,53.251863],[26.675829,53.251885],[26.675784,53.2519],[26.675733,53.251909],[26.675681,53.251911],[26.67563,53.251906],[26.675581,53.251894],[26.675538,53.251877],[26.675504,53.251855],[26.675478,53.25183],[26.675384,53.251806],[26.675227,53.251789],[26.674939,53.251774],[26.674476,53.251746],[26.669394,53.251667],[26.66682,53.251635],[26.665355,53.251574],[26.663861,53.251481],[26.661041,53.251238],[26.657087,53.250671],[26.655241,53.250341],[26.654289,53.250156],[26.653293,53.249933],[26.651944,53.249615],[26.650724,53.249305],[26.648829,53.248786],[26.648246,53.248626],[26.647527,53.248418],[26.646873,53.248198],[26.646337,53.248018],[26.645769,53.247804],[26.64514,53.247544],[26.644542,53.247281],[26.643912,53.246989],[26.643268,53.246666],[26.642427,53.246207],[26.641516,53.24564],[26.640818,53.245158],[26.640086,53.244617],[26.639775,53.244372],[26.639301,53.243953],[26.63849,53.243178],[26.636864,53.241475],[26.635995,53.240581],[26.635969,53.240554],[26.635851,53.240437],[26.634664,53.239222],[26.634468,53.239109],[26.634369,53.239058],[26.634254,53.239019],[26.634093,53.238984],[26.63396,53.238965],[26.633852,53.238959],[26.633747,53.238943],[26.63353,53.238948],[26.633384,53.23896],[26.633129,53.239043],[26.632847,53.239189],[26.632121,53.239886],[26.631611,53.240377],[26.631221,53.240751],[26.630738,53.241226],[26.630473,53.241485],[26.629789,53.242137],[26.626627,53.245147],[26.626335,53.245425],[26.626124,53.245626],[26.625449,53.246268],[26.625236,53.24649],[26.625057,53.246668],[26.624977,53.246761],[26.624746,53.246984],[26.623214,53.248465],[26.620164,53.251414],[26.615576,53.255885],[26.615377,53.256079],[26.615317,53.256137],[26.615136,53.256312],[26.612684,53.258686],[26.608073,53.26315],[26.607098,53.264094],[26.606744,53.264437],[26.605971,53.265188],[26.605175,53.26596],[26.60503,53.2661],[26.603677,53.267437],[26.601056,53.26993],[26.600061,53.270876],[26.599543,53.271378],[26.59885,53.272049],[26.598631,53.272275],[26.598411,53.272498],[26.597266,53.27361],[26.597203,53.273671],[26.596044,53.274787],[26.591581,53.279083],[26.590317,53.280301],[26.586921,53.283571],[26.586041,53.284418],[26.585782,53.284667],[26.58511,53.28532],[26.58465,53.285704],[26.58359,53.286589],[26.582592,53.287421],[26.578703,53.290666],[26.576276,53.292743],[26.576116,53.292989],[26.576034,53.293158],[26.575988,53.293493],[26.575995,53.293658],[26.575967,53.293814],[26.575881,53.293957],[26.575811,53.294028],[26.57568,53.294136],[26.575115,53.294583],[26.575037,53.294835],[26.57498,53.29519],[26.574966,53.295632],[26.574978,53.296108],[26.575321,53.299317],[26.575381,53.299814],[26.575414,53.300132],[26.57543,53.300481],[26.575383,53.300902],[26.575315,53.301285],[26.575165,53.301643],[26.574951,53.302015],[26.574793,53.302253],[26.574266,53.302846],[26.572965,53.304266],[26.570378,53.307082],[26.567068,53.310697],[26.566867,53.310918],[26.564692,53.313322],[26.56141,53.316873],[26.560352,53.318019],[26.559401,53.318951],[26.559314,53.319036],[26.556053,53.32177],[26.555393,53.322418],[26.55464,53.32317],[26.55392,53.323995],[26.553435,53.324552],[26.552042,53.326374],[26.551862,53.32661],[26.551434,53.327189],[26.551008,53.327681],[26.550648,53.328041],[26.550246,53.328379],[26.549757,53.328771],[26.549067,53.329316],[26.548438,53.329767],[26.546682,53.331059],[26.54618,53.33139],[26.545701,53.331681],[26.545246,53.331911],[26.544684,53.332153],[26.544243,53.332321],[26.543732,53.332473],[26.543328,53.332574],[26.543131,53.332615],[26.542899,53.332663],[26.542546,53.332726],[26.54213,53.332787],[26.541678,53.332844],[26.541422,53.33287],[26.541123,53.332891],[26.540756,53.332909],[26.540397,53.332916],[26.540096,53.332922],[26.539762,53.332922],[26.539375,53.332917],[26.539148,53.332914],[26.538317,53.332893],[26.5369,53.332853],[26.536279,53.33284],[26.534018,53.332776],[26.532065,53.332716],[26.530743,53.332686],[26.529954,53.332694],[26.529225,53.332725],[26.528518,53.332785],[26.528106,53.332842],[26.527753,53.332894],[26.527108,53.333026],[26.526485,53.333186],[26.525749,53.333412],[26.525046,53.333688],[26.52448,53.333948],[26.524032,53.334187],[26.523676,53.334395],[26.52337,53.334607],[26.522856,53.33498],[26.522733,53.335255],[26.522697,53.335436],[26.52266,53.335622],[26.522551,53.335772],[26.52238,53.335916],[26.522152,53.336037],[26.521888,53.336155],[26.521713,53.33628],[26.521548,53.336448],[26.521494,53.336641],[26.521125,53.337842],[26.52091,53.338494],[26.520487,53.339851],[26.520442,53.339987],[26.517898,53.348255],[26.517525,53.34948],[26.516134,53.353936],[26.516121,53.353977],[26.515229,53.356848],[26.514932,53.357787],[26.514493,53.359216],[26.5145,53.359282],[26.514499,53.359435],[26.514508,53.359509],[26.514564,53.359617],[26.514642,53.359689],[26.514661,53.359743],[26.514653,53.359788],[26.514592,53.359858],[26.514514,53.359908],[26.514423,53.359935],[26.514327,53.360018],[26.514235,53.360176],[26.514151,53.360329],[26.513847,53.361275],[26.51317,53.363464],[26.512547,53.365398],[26.511115,53.369981],[26.510283,53.37259],[26.509794,53.374132],[26.509484,53.375115],[26.509486,53.375467],[26.509524,53.375799],[26.50958,53.376004],[26.509794,53.376753],[26.509905,53.377137],[26.510207,53.378046],[26.510311,53.378416],[26.510416,53.378767],[26.510457,53.379069],[26.510475,53.379332],[26.510427,53.379659],[26.510324,53.380035],[26.510173,53.380354],[26.509991,53.380645],[26.509691,53.381026],[26.509176,53.38167],[26.508839,53.382087],[26.508375,53.382693],[26.507557,53.383744],[26.507373,53.383696],[26.50722,53.383637],[26.507064,53.383582],[26.506926,53.383519],[26.506815,53.383433],[26.507632,53.380939],[26.507682,53.380711],[26.507718,53.380524],[26.5077,53.380445],[26.507552,53.380243],[26.505445,53.378923],[26.504623,53.37842],[26.501344,53.376408],[26.494009,53.371885],[26.488861,53.36871],[26.48374,53.365552],[26.480115,53.363361],[26.47297,53.359253],[26.470116,53.357629],[26.468498,53.356726],[26.46606,53.355349],[26.463075,53.353648],[26.46197,53.353023],[26.460887,53.352404],[26.454634,53.34886],[26.453358,53.348133],[26.45278,53.347805],[26.451054,53.346818],[26.450569,53.346551],[26.449044,53.345652],[26.445787,53.343801],[26.445324,53.343538],[26.44471,53.343182],[26.442851,53.342147],[26.440966,53.341086],[26.440048,53.340573],[26.439441,53.340234],[26.437048,53.338896],[26.435154,53.337824],[26.43443,53.33741],[26.432587,53.336339],[26.43216,53.336103],[26.429565,53.334635],[26.427742,53.333604],[26.423539,53.33123],[26.419392,53.328874],[26.418319,53.328249],[26.416431,53.327155],[26.412547,53.324727],[26.410251,53.323221],[26.408219,53.321816],[26.407314,53.32119],[26.406089,53.320379],[26.403798,53.31876],[26.401475,53.317177],[26.399116,53.315545],[26.398398,53.315048],[26.398267,53.314959],[26.397181,53.314222],[26.39562,53.313131],[26.39255,53.311025],[26.390557,53.309656],[26.38803,53.307902],[26.387711,53.307689],[26.386609,53.306952],[26.385305,53.306113],[26.383957,53.305312],[26.382201,53.304325],[26.38043,53.303385],[26.379355,53.302814],[26.378131,53.302234],[26.376469,53.301472],[26.375875,53.301199],[26.374366,53.300548],[26.372904,53.299949],[26.371765,53.299509],[26.370663,53.29909],[26.369216,53.298575],[26.368776,53.298426],[26.367955,53.298148],[26.365742,53.29744],[26.363511,53.296776],[26.35964,53.295653],[26.359022,53.295475],[26.357068,53.294915],[26.356121,53.294637],[26.350869,53.293097],[26.35006,53.292865],[26.344248,53.291168],[26.341796,53.290445],[26.339286,53.289666],[26.336128,53.288515],[26.335162,53.288174],[26.333309,53.287443],[26.331448,53.286656],[26.329951,53.285949],[26.328356,53.285179],[26.327385,53.284711],[26.324661,53.283387],[26.323661,53.282902],[26.319955,53.281061],[26.313086,53.277683],[26.313005,53.277643],[26.312405,53.277348],[26.310347,53.276346],[26.308781,53.275564],[26.305913,53.274156],[26.304007,53.273222],[26.302062,53.272302],[26.301561,53.272075],[26.300983,53.271813],[26.298901,53.270935],[26.29724,53.270267],[26.295543,53.269658],[26.292952,53.268763],[26.29197,53.26845],[26.290307,53.267919],[26.288755,53.267461],[26.288607,53.26742],[26.28787,53.267218],[26.286214,53.266796],[26.283965,53.266243],[26.281896,53.265779],[26.279541,53.265253],[26.27619,53.264517],[26.27472,53.264196],[26.270851,53.263353],[26.268802,53.262905],[26.266667,53.26243],[26.262821,53.26157],[26.260683,53.261096],[26.256054,53.260072],[26.253812,53.259581],[26.250591,53.25887],[26.24794,53.258289],[26.246513,53.257973],[26.245193,53.25768],[26.242493,53.257078],[26.240229,53.256544],[26.237782,53.255924],[26.2353,53.25529],[26.232603,53.254529],[26.231371,53.254182],[26.229204,53.253535],[26.226978,53.252851],[26.224884,53.252198],[26.220562,53.25074],[26.219408,53.250341],[26.206336,53.245825],[26.204551,53.24521],[26.201052,53.244003],[26.19357,53.241416],[26.192019,53.24088],[26.19056,53.240376],[26.185309,53.238587],[26.183198,53.23782],[26.181501,53.237193],[26.180657,53.236853],[26.179517,53.236392],[26.178076,53.235788],[26.176765,53.235229],[26.175538,53.234663],[26.174401,53.234115],[26.172986,53.233396],[26.17167,53.232694],[26.170081,53.231813],[26.169068,53.231211],[26.167435,53.230199],[26.164605,53.228445],[26.161924,53.226777],[26.159255,53.225127],[26.158556,53.224704],[26.157589,53.224119],[26.155864,53.223091],[26.154417,53.222272],[26.153095,53.221553],[26.151811,53.220902],[26.150526,53.220275],[26.148935,53.219529],[26.147638,53.219011],[26.146541,53.218555],[26.144881,53.21788],[26.143037,53.217182],[26.142469,53.216965],[26.141541,53.216637],[26.140581,53.216324],[26.139264,53.215894],[26.137177,53.215184],[26.134342,53.21439],[26.132384,53.213881],[26.126292,53.212375],[26.123951,53.211797],[26.122077,53.211344],[26.120809,53.211033],[26.120669,53.210999],[26.118486,53.210463],[26.116175,53.209809],[26.114636,53.209339],[26.113077,53.208824],[26.112849,53.208743],[26.111689,53.208328],[26.110277,53.207792],[26.109468,53.207464],[26.107915,53.206826],[26.107516,53.206649],[26.106011,53.20598],[26.102484,53.204367],[26.099957,53.203169],[26.098879,53.202666],[26.09858,53.202525],[26.0977,53.202133],[26.095625,53.201215],[26.092449,53.199776],[26.087073,53.197338],[26.083674,53.195738],[26.082844,53.195374],[26.081583,53.19477],[26.08006,53.193988],[26.078608,53.193232],[26.077864,53.192835],[26.075951,53.19175],[26.074375,53.190861],[26.073665,53.190464],[26.072131,53.189586],[26.071278,53.189082],[26.068928,53.187793],[26.068089,53.187388],[26.06715,53.18694],[26.066411,53.186608],[26.06603,53.186453],[26.064905,53.186032],[26.063652,53.185538],[26.062072,53.18493],[26.060529,53.184428],[26.060127,53.184297],[26.058476,53.183813],[26.057182,53.183476],[26.05588,53.183157],[26.05435,53.182817],[26.05305,53.182557],[26.051513,53.182297],[26.050349,53.182112],[26.049038,53.18193],[26.047743,53.181778],[26.046342,53.181648],[26.045048,53.181538],[26.04404,53.181486],[26.043344,53.181454],[26.041709,53.181377],[26.041378,53.181373],[26.040585,53.181346],[26.038044,53.181257],[26.035858,53.181142],[26.034668,53.181057],[26.033181,53.180913],[26.031768,53.180769],[26.031523,53.180739],[26.030886,53.180662],[26.029614,53.180486],[26.028275,53.180262],[26.027125,53.180052],[26.02586,53.179799],[26.024627,53.179524],[26.021298,53.178677],[26.020835,53.17855],[26.019349,53.17814],[26.018837,53.177992],[26.018144,53.17779],[26.017605,53.177631],[26.017037,53.177462],[26.01468,53.17677],[26.012601,53.176152],[26.010584,53.1755],[26.008866,53.174897],[26.007114,53.174254],[26.005224,53.173505],[26.004566,53.173231],[26.003909,53.172958],[26.001429,53.171872],[25.999156,53.170885],[25.99591,53.16947],[25.994552,53.168882],[25.993207,53.168312],[25.992383,53.167941],[25.992229,53.167872],[25.991273,53.16742],[25.990338,53.166931],[25.989342,53.166421],[25.988723,53.166062],[25.987744,53.165476],[25.986944,53.164986],[25.985964,53.164348],[25.985401,53.16393],[25.984825,53.163501],[25.984354,53.163135],[25.983984,53.162828],[25.983515,53.16244],[25.983036,53.162052],[25.982294,53.161369],[25.98185,53.160946],[25.981388,53.160508],[25.980383,53.159509],[25.980021,53.159297],[25.979834,53.159219],[25.979573,53.159176],[25.97923,53.15915],[25.978983,53.159182],[25.9788,53.15924],[25.978598,53.15936],[25.978474,53.159516],[25.97845,53.15967],[25.978485,53.15987],[25.978634,53.160034],[25.97884,53.160134],[25.979108,53.160206],[25.979447,53.160224],[25.980207,53.160149],[25.980442,53.160111],[25.981527,53.159929],[25.986303,53.159132],[25.98673,53.159066],[25.987516,53.158934],[25.987976,53.158855],[25.990887,53.158386],[25.991553,53.158268],[25.992099,53.158157],[25.992661,53.157994],[25.992974,53.157877],[25.993262,53.157726],[25.993677,53.157453],[25.994256,53.157065],[25.994719,53.156698],[25.995262,53.156111],[25.995562,53.155791],[25.995977,53.155319],[25.99606,53.155061],[25.996776,53.154291],[25.996988,53.154054],[25.997185,53.153844],[25.997376,53.153645],[25.997551,53.153463],[25.998021,53.152958],[25.998284,53.152646],[25.998381,53.152538],[25.998727,53.152156],[25.999024,53.15188],[25.999125,53.151788],[25.999366,53.151602],[26.000018,53.150883],[26.000415,53.150455],[26.000442,53.150424],[26.000977,53.149826],[26.001128,53.149659],[26.001276,53.1495],[26.001679,53.149069],[26.001765,53.148977],[26.0035,53.147121],[26.0039,53.146693],[26.004114,53.146465],[26.004504,53.146048],[26.004761,53.145771],[26.00482,53.145708],[26.005256,53.145226],[26.005836,53.144585],[26.006486,53.14388],[26.006662,53.143676],[26.006829,53.143476],[26.00706,53.14321],[26.007202,53.14306],[26.007676,53.142551],[26.007813,53.142387],[26.007951,53.142221],[26.008037,53.142126],[26.008424,53.141695],[26.008785,53.141269],[26.009162,53.140843],[26.011501,53.138344],[26.012508,53.137233],[26.01252,53.137095],[26.012523,53.136991],[26.012505,53.136974],[26.012328,53.136914],[26.012218,53.136875],[26.011979,53.136791],[26.011862,53.13675],[26.011422,53.136627],[26.010971,53.1365],[26.01043,53.136348],[26.010201,53.13628],[26.009102,53.135957],[26.008208,53.135693],[26.006781,53.13527],[26.005904,53.13501],[26.005825,53.134986],[26.005733,53.134962],[26.00566,53.134942],[26.004652,53.134647],[26.004186,53.134511],[26.003593,53.134338],[26.002651,53.134067],[26.002563,53.134041],[26.002138,53.133919],[26.001265,53.133668],[26.00115,53.133635],[26.001074,53.133614],[25.999791,53.133249],[25.999252,53.133077],[25.998949,53.132914],[25.998811,53.132805],[25.998704,53.132673],[25.998633,53.132546],[25.998502,53.131981],[25.998429,53.13183],[25.998351,53.131714],[25.998253,53.131617],[25.99813,53.131522],[25.997962,53.131429],[25.997738,53.131342],[25.996136,53.130775],[25.995823,53.130664],[25.995572,53.130575],[25.995474,53.13054],[25.994936,53.13035],[25.994786,53.130296],[25.994707,53.13027],[25.994313,53.130137],[25.993298,53.129794],[25.992568,53.129547],[25.991169,53.129061],[25.990967,53.128991],[25.99056,53.12885],[25.990103,53.128692],[25.989298,53.128415],[25.988957,53.128297],[25.988732,53.128219],[25.988593,53.12817],[25.988312,53.128072],[25.98813,53.12799],[25.988022,53.127932],[25.987918,53.127832],[25.987589,53.127364],[25.987495,53.127233],[25.98743,53.12714],[25.986804,53.126248],[25.985689,53.124658],[25.985541,53.124444],[25.98539,53.124206],[25.985142,53.123814],[25.984972,53.123546],[25.984725,53.123157],[25.984578,53.122919],[25.984399,53.122662],[25.984257,53.122455],[25.983958,53.122021],[25.983639,53.121557],[25.983508,53.121421],[25.98338,53.121317],[25.983181,53.121184],[25.982988,53.121077],[25.981969,53.12065],[25.981886,53.120615],[25.981583,53.120488],[25.981046,53.120262],[25.980951,53.120222],[25.980459,53.120015],[25.979949,53.119801],[25.979647,53.119675],[25.979727,53.119609],[25.979779,53.119567],[25.980612,53.118887],[25.981223,53.118409],[25.981876,53.117898],[25.98021,53.117126],[25.979925,53.117003],[25.980436,53.116626],[25.980941,53.116253],[25.981261,53.116017],[25.981411,53.115892],[25.98163,53.115747]],"type":"LineString"},"properties":{"routeId":"gomel","source":"https://routing.openstreetmap.de/routed-car","fetchedAt":"2026-10-08T07:16:43.617Z","distanceMeters":453275.3,"durationSeconds":24547.7,"demoOnly":true}}