{"type":"Feature","geometry":{"coordinates":[[23.816787,53.666817],[23.816505,53.666896],[23.816133,53.667],[23.816021,53.667033],[23.816518,53.667656],[23.816836,53.66808],[23.817087,53.668407],[23.817152,53.668491],[23.817435,53.668858],[23.817873,53.669429],[23.818004,53.669612],[23.818067,53.669704],[23.818233,53.669677],[23.818655,53.669602],[23.820129,53.669339],[23.820716,53.669182],[23.821034,53.669065],[23.821177,53.669003],[23.821306,53.668926],[23.821435,53.668836],[23.821561,53.668673],[23.821573,53.668621],[23.821597,53.66857],[23.821632,53.668522],[23.821699,53.66846],[23.821784,53.668407],[23.821885,53.668364],[23.821997,53.668333],[23.822117,53.668316],[23.82224,53.668312],[23.822375,53.668323],[23.822503,53.668351],[23.822573,53.668377],[23.822619,53.668394],[23.822687,53.668431],[23.822746,53.668473],[23.822803,53.668529],[23.822843,53.66859],[23.822865,53.668654],[23.822876,53.668699],[23.822866,53.668755],[23.822846,53.668811],[23.822833,53.668971],[23.822874,53.669131],[23.822946,53.669271],[23.823187,53.66956],[23.823678,53.669994],[23.823963,53.670246],[23.824458,53.670648],[23.825492,53.671487],[23.827783,53.673331],[23.828263,53.673716],[23.82848,53.673801],[23.828624,53.673897],[23.828742,53.674008],[23.828788,53.674026],[23.828863,53.67405],[23.829011,53.67409],[23.829028,53.67409],[23.829504,53.674067],[23.829647,53.674047],[23.829964,53.673985],[23.830283,53.673904],[23.830652,53.673798],[23.832508,53.673235],[23.832987,53.67309],[23.833352,53.672975],[23.833474,53.672921],[23.833523,53.672864],[23.833539,53.672777],[23.833497,53.672678],[23.833322,53.672477],[23.833113,53.672237],[23.833087,53.672207],[23.832989,53.672094],[23.833359,53.67197],[23.833639,53.671876],[23.833796,53.671821],[23.834049,53.671733],[23.834123,53.671708],[23.834432,53.6716],[23.834584,53.671547],[23.834763,53.671484],[23.835485,53.671233],[23.835782,53.67113],[23.835925,53.671083],[23.835935,53.67108],[23.835961,53.671071],[23.835987,53.671064],[23.83614,53.671013],[23.836254,53.670976],[23.836371,53.671086],[23.836374,53.671089],[23.836683,53.671379],[23.837124,53.671792],[23.837256,53.671869],[23.837397,53.671928],[23.837599,53.671963],[23.837816,53.67195],[23.83846,53.671841],[23.838753,53.671791],[23.838811,53.671781],[23.839239,53.671706],[23.839598,53.671665],[23.839843,53.671643],[23.840051,53.671641],[23.840204,53.671655],[23.840366,53.671684],[23.840627,53.671759],[23.840697,53.67179],[23.840925,53.671888],[23.841113,53.671977],[23.841445,53.672196],[23.841609,53.672242],[23.841798,53.672265],[23.841884,53.67227],[23.842042,53.672278],[23.842427,53.672278],[23.842648,53.67228],[23.842656,53.67228],[23.84307,53.672281],[23.843893,53.672269],[23.844059,53.67227],[23.845543,53.67227],[23.846166,53.672265],[23.846801,53.67226],[23.846992,53.672257],[23.847619,53.672247],[23.847669,53.672246],[23.848607,53.672226],[23.84866,53.672224],[23.849077,53.672195],[23.849676,53.672153],[23.850167,53.672106],[23.85042,53.67208],[23.850927,53.672027],[23.851573,53.671957],[23.851732,53.67194],[23.851882,53.671921],[23.852039,53.671904],[23.852169,53.671891],[23.852856,53.671809],[23.853074,53.671784],[23.853548,53.671731],[23.853816,53.671697],[23.854159,53.671607],[23.854586,53.671557],[23.855336,53.671469],[23.856181,53.671371],[23.856669,53.671314],[23.857707,53.671192],[23.857751,53.671187],[23.857875,53.671173],[23.858687,53.671061],[23.859926,53.670892],[23.860535,53.670802],[23.860831,53.670758],[23.861224,53.670706],[23.861499,53.67067],[23.862002,53.670605],[23.862124,53.670589],[23.862906,53.670484],[23.863321,53.670429],[23.864423,53.670284],[23.865041,53.670213],[23.865165,53.670198],[23.86537,53.670166],[23.866094,53.670082],[23.866523,53.670031],[23.867022,53.669985],[23.86755,53.669937],[23.867818,53.669913],[23.868533,53.669838],[23.871454,53.669516],[23.872351,53.669395],[23.873318,53.669228],[23.873609,53.669165],[23.874525,53.668967],[23.875156,53.668827],[23.875993,53.668598],[23.876733,53.668408],[23.877298,53.668232],[23.87787,53.66804],[23.878627,53.667772],[23.879787,53.667354],[23.88163,53.666694],[23.883078,53.666198],[23.883458,53.666074],[23.883498,53.666061],[23.883525,53.666053],[23.885192,53.665527],[23.885951,53.665312],[23.886445,53.665172],[23.88692,53.665046],[23.88757,53.664874],[23.888033,53.664762],[23.888615,53.664621],[23.889863,53.664332],[23.891086,53.66408],[23.892745,53.663776],[23.894205,53.663526],[23.897366,53.662967],[23.898708,53.66273],[23.899298,53.662626],[23.901172,53.662288],[23.902963,53.661982],[23.904636,53.661715],[23.90648,53.661441],[23.909013,53.661128],[23.909754,53.661038],[23.912851,53.660664],[23.913052,53.66064],[23.919312,53.659901],[23.927343,53.658938],[23.927644,53.658902],[23.935342,53.657981],[23.935593,53.657953],[23.942483,53.657124],[23.943164,53.657042],[23.95064,53.656153],[23.955149,53.655605],[23.957233,53.655354],[23.958209,53.655235],[23.958803,53.655164],[23.963423,53.654608],[23.964099,53.654529],[23.965726,53.654335],[23.96871,53.653978],[23.970395,53.653775],[23.972571,53.653514],[23.978378,53.652816],[23.983551,53.652185],[23.984481,53.652057],[23.985397,53.651894],[23.986568,53.651649],[23.987181,53.651502],[23.987929,53.651282],[23.988542,53.651087],[23.988806,53.650995],[23.989354,53.650803],[23.989777,53.650646],[23.990455,53.650365],[23.990804,53.650218],[23.991261,53.650024],[23.992679,53.649419],[23.993135,53.649224],[23.993283,53.649161],[23.993854,53.648911],[23.994344,53.648696],[23.996324,53.647844],[23.997794,53.647221],[23.999188,53.646633],[24.000237,53.646191],[24.000645,53.646015],[24.0028,53.645087],[24.003721,53.644693],[24.004456,53.644375],[24.005863,53.643775],[24.007313,53.643157],[24.010499,53.641791],[24.011478,53.641377],[24.012996,53.640735],[24.017593,53.638763],[24.021558,53.637064],[24.023687,53.636153],[24.025036,53.635577],[24.026844,53.634805],[24.027243,53.634624],[24.030135,53.633385],[24.032941,53.632182],[24.033542,53.631924],[24.035628,53.63103],[24.037146,53.630378],[24.037945,53.630033],[24.040365,53.628952],[24.042234,53.628189],[24.048348,53.625571],[24.04882,53.62537],[24.050873,53.624486],[24.052607,53.623741],[24.055186,53.622628],[24.058199,53.62133],[24.059071,53.620963],[24.059945,53.620595],[24.060928,53.620229],[24.061717,53.61995],[24.062586,53.619658],[24.062955,53.619545],[24.064305,53.61913],[24.065848,53.618699],[24.066997,53.618342],[24.068129,53.617963],[24.068419,53.617869],[24.068702,53.617777],[24.070342,53.617243],[24.072312,53.616601],[24.073022,53.616368],[24.073446,53.616229],[24.074289,53.615952],[24.075632,53.615514],[24.076098,53.615362],[24.078336,53.614633],[24.081641,53.613536],[24.082002,53.613417],[24.083979,53.612763],[24.084198,53.612691],[24.084382,53.61263],[24.084431,53.612614],[24.084573,53.612567],[24.084752,53.612507],[24.085183,53.612354],[24.086141,53.612039],[24.08657,53.611885],[24.086671,53.611849],[24.086886,53.611772],[24.087259,53.611634],[24.088338,53.611234],[24.088864,53.611035],[24.089616,53.61075],[24.090611,53.61041],[24.09172,53.610047],[24.091844,53.610006],[24.094037,53.609272],[24.094421,53.609144],[24.10307,53.606263],[24.104017,53.605958],[24.104612,53.60579],[24.10731,53.605047],[24.108175,53.604809],[24.111737,53.603833],[24.115146,53.602881],[24.118421,53.601978],[24.121192,53.601213],[24.122791,53.600771],[24.124552,53.600285],[24.125208,53.600104],[24.125976,53.599891],[24.129455,53.598926],[24.130668,53.59859],[24.132042,53.598219],[24.132802,53.598014],[24.134248,53.597643],[24.134878,53.597482],[24.138105,53.596631],[24.141361,53.595779],[24.143051,53.595322],[24.143975,53.595072],[24.145862,53.594562],[24.146877,53.594297],[24.14871,53.593818],[24.150494,53.593367],[24.151781,53.593049],[24.153197,53.592692],[24.155934,53.592026],[24.157852,53.591547],[24.160492,53.590912],[24.162501,53.590433],[24.163514,53.590191],[24.165596,53.58971],[24.166314,53.58954],[24.169926,53.588687],[24.171892,53.5882],[24.17379,53.587696],[24.175361,53.587272],[24.176772,53.586876],[24.178883,53.586268],[24.181592,53.585482],[24.182363,53.585258],[24.182981,53.585081],[24.184163,53.584753],[24.184319,53.584709],[24.185256,53.584472],[24.185821,53.584338],[24.186556,53.584194],[24.187377,53.584052],[24.188174,53.583942],[24.188974,53.583863],[24.189652,53.583812],[24.190345,53.58378],[24.190993,53.583751],[24.192631,53.583733],[24.193093,53.583732],[24.1941,53.583752],[24.195664,53.583802],[24.197198,53.583857],[24.197934,53.583879],[24.198936,53.583908],[24.200609,53.58396],[24.201769,53.584003],[24.202905,53.584031],[24.203744,53.584056],[24.206159,53.584127],[24.207782,53.584182],[24.209262,53.584214],[24.209832,53.584218],[24.210856,53.584222],[24.211609,53.584211],[24.211729,53.584209],[24.212831,53.58418],[24.21355,53.58415],[24.214543,53.584096],[24.216416,53.583962],[24.217237,53.583893],[24.218086,53.583809],[24.219598,53.58365],[24.22141,53.583384],[24.222757,53.583168],[24.223932,53.582956],[24.224864,53.582778],[24.225993,53.582535],[24.227324,53.582249],[24.228868,53.581866],[24.23021,53.581494],[24.231773,53.581062],[24.234779,53.580264],[24.235204,53.580152],[24.236487,53.579852],[24.237215,53.579695],[24.237971,53.579548],[24.238829,53.579381],[24.239853,53.579195],[24.240511,53.579082],[24.241301,53.578953],[24.242125,53.578841],[24.244271,53.578577],[24.245249,53.57847],[24.246122,53.578392],[24.247559,53.578283],[24.248899,53.578214],[24.250125,53.57817],[24.251451,53.57814],[24.252426,53.578139],[24.253299,53.57815],[24.254155,53.578161],[24.25482,53.578178],[24.255524,53.578204],[24.256355,53.578247],[24.256959,53.578281],[24.257607,53.578323],[24.258534,53.578388],[24.259384,53.578466],[24.260425,53.578564],[24.261189,53.578637],[24.261916,53.578723],[24.263017,53.578873],[24.26426,53.579052],[24.265202,53.579204],[24.266246,53.579394],[24.267265,53.579599],[24.26744,53.579634],[24.268687,53.579909],[24.269795,53.580182],[24.270139,53.580272],[24.27076,53.580435],[24.271945,53.58076],[24.273578,53.581223],[24.27425,53.58141],[24.274918,53.581578],[24.275571,53.581732],[24.27622,53.581872],[24.276884,53.581986],[24.27763,53.5821],[24.278575,53.582218],[24.27929,53.582287],[24.280299,53.582347],[24.281271,53.582384],[24.282174,53.582385],[24.283212,53.582348],[24.283899,53.582301],[24.284253,53.582277],[24.285566,53.582128],[24.287007,53.581947],[24.288408,53.581755],[24.289831,53.581574],[24.294429,53.580978],[24.298104,53.580508],[24.299509,53.580324],[24.301709,53.580036],[24.307098,53.579343],[24.312733,53.578613],[24.313529,53.57851],[24.314916,53.57833],[24.315221,53.57829],[24.323684,53.577185],[24.324392,53.577101],[24.324508,53.577085],[24.325021,53.577017],[24.326129,53.576877],[24.327126,53.576751],[24.329794,53.576399],[24.335187,53.575696],[24.340492,53.575009],[24.341814,53.574836],[24.344033,53.574546],[24.345591,53.574345],[24.346656,53.574257],[24.347554,53.574201],[24.348567,53.574185],[24.34918,53.574184],[24.349767,53.574198],[24.350958,53.574256],[24.351822,53.574329],[24.352853,53.574448],[24.354219,53.574612],[24.355715,53.574782],[24.356779,53.574916],[24.357199,53.574967],[24.358306,53.575101],[24.360913,53.575416],[24.36266,53.575627],[24.365613,53.575991],[24.368527,53.576342],[24.373246,53.576917],[24.373609,53.576961],[24.378495,53.577554],[24.381107,53.577877],[24.383739,53.578186],[24.384941,53.578326],[24.38706,53.578576],[24.38797,53.578687],[24.390039,53.578941],[24.39102,53.579058],[24.393977,53.579409],[24.397905,53.579894],[24.403106,53.5805],[24.403372,53.580531],[24.405579,53.580789],[24.409316,53.581233],[24.411148,53.581444],[24.412532,53.581611],[24.413678,53.581749],[24.414206,53.581811],[24.417247,53.582169],[24.418758,53.582344],[24.419658,53.582452],[24.42024,53.582523],[24.420546,53.582559],[24.424081,53.582975],[24.424739,53.583053],[24.426165,53.583214],[24.427835,53.583374],[24.429243,53.583482],[24.430953,53.583588],[24.432666,53.58367],[24.434609,53.583749],[24.442512,53.584067],[24.445758,53.584188],[24.447398,53.584259],[24.449101,53.584331],[24.451549,53.584456],[24.452571,53.584522],[24.453626,53.584602],[24.454662,53.584675],[24.455857,53.584767],[24.459045,53.585012],[24.462345,53.585279],[24.464563,53.585459],[24.468144,53.585753],[24.470173,53.585919],[24.472261,53.58609],[24.472749,53.586125],[24.476585,53.586432],[24.477316,53.586492],[24.478063,53.586553],[24.480545,53.586758],[24.480806,53.586779],[24.485931,53.58718],[24.491401,53.587618],[24.491931,53.587661],[24.495368,53.58794],[24.495912,53.587992],[24.496948,53.588107],[24.497487,53.588187],[24.497994,53.588275],[24.500341,53.588673],[24.503594,53.589328],[24.50702,53.589999],[24.508343,53.590256],[24.510035,53.590584],[24.510841,53.590739],[24.513123,53.591176],[24.513583,53.591268],[24.519106,53.592309],[24.519193,53.592327],[24.522438,53.592894],[24.522861,53.592972],[24.525736,53.593505],[24.529029,53.594116],[24.530478,53.594411],[24.531313,53.594569],[24.534363,53.595147],[24.537117,53.595689],[24.538289,53.59592],[24.541917,53.596604],[24.543252,53.596907],[24.54349,53.59696],[24.544667,53.597251],[24.546078,53.597629],[24.547606,53.598059],[24.551016,53.598986],[24.551292,53.599059],[24.552725,53.599437],[24.553866,53.599762],[24.555192,53.600117],[24.556199,53.60039],[24.557142,53.600637],[24.557865,53.600824],[24.558607,53.600998],[24.559689,53.601233],[24.560772,53.601448],[24.562033,53.601661],[24.563025,53.601813],[24.564274,53.602001],[24.565411,53.602131],[24.568241,53.602401],[24.571344,53.602687],[24.573545,53.602892],[24.575518,53.603085],[24.580086,53.603517],[24.584466,53.603931],[24.588304,53.604292],[24.590227,53.60447],[24.591656,53.60458],[24.593329,53.604686],[24.594286,53.604737],[24.595309,53.604775],[24.596943,53.604835],[24.599639,53.604924],[24.60707,53.605175],[24.610244,53.605274],[24.610734,53.605289],[24.61441,53.605422],[24.619453,53.605583],[24.623904,53.605744],[24.625294,53.60579],[24.627992,53.60588],[24.629905,53.605965],[24.631117,53.606044],[24.63252,53.606169],[24.634206,53.606362],[24.635563,53.606517],[24.637115,53.606696],[24.638382,53.606846],[24.638696,53.606883],[24.639419,53.606968],[24.640637,53.607114],[24.640859,53.607141],[24.643121,53.607412],[24.64386,53.607498],[24.646774,53.60784],[24.648804,53.608088],[24.65174,53.608429],[24.653454,53.608634],[24.655383,53.608864],[24.658293,53.609217],[24.663404,53.609821],[24.665865,53.61011],[24.667998,53.610361],[24.668114,53.610372],[24.668568,53.610427],[24.673005,53.610949],[24.674894,53.61118],[24.677015,53.611504],[24.678458,53.611743],[24.679452,53.611956],[24.681686,53.612533],[24.6828,53.61286],[24.685723,53.613719],[24.687691,53.614299],[24.689469,53.614822],[24.69074,53.615182],[24.695267,53.616509],[24.695987,53.616722],[24.698096,53.617347],[24.700926,53.618186],[24.701295,53.618295],[24.701533,53.618366],[24.704527,53.619256],[24.705427,53.619524],[24.709167,53.620636],[24.709305,53.620677],[24.709986,53.620887],[24.717613,53.623177],[24.720166,53.623919],[24.720685,53.62407],[24.723404,53.624894],[24.723495,53.62492],[24.726487,53.625794],[24.72838,53.626367],[24.730935,53.627102],[24.734628,53.628179],[24.737012,53.628874],[24.739436,53.62958],[24.741539,53.630217],[24.742662,53.630572],[24.745555,53.631517],[24.746673,53.631894],[24.74815,53.632354],[24.7489,53.632595],[24.74967,53.63283],[24.750412,53.63304],[24.751055,53.633209],[24.751948,53.633449],[24.753851,53.633923],[24.758028,53.635017],[24.764042,53.63657],[24.766267,53.637141],[24.768549,53.637739],[24.769211,53.637907],[24.772501,53.638863],[24.773215,53.639106],[24.774137,53.639466],[24.775052,53.639845],[24.776615,53.640544],[24.77737,53.640977],[24.781386,53.643281],[24.784253,53.644853],[24.785053,53.645291],[24.786,53.645854],[24.787943,53.646994],[24.788324,53.64722],[24.789153,53.647713],[24.790181,53.648312],[24.791533,53.6491],[24.79201,53.64938],[24.792145,53.649459],[24.792168,53.649472],[24.792275,53.649534],[24.792343,53.649573],[24.792431,53.649624],[24.795232,53.651242],[24.795555,53.651429],[24.798033,53.652859],[24.798966,53.653398],[24.801602,53.654922],[24.803536,53.656039],[24.804097,53.656383],[24.806721,53.657893],[24.80992,53.659733],[24.809947,53.659749],[24.810067,53.659818],[24.81018,53.659883],[24.810332,53.659972],[24.811235,53.660492],[24.811525,53.66066],[24.814793,53.662565],[24.817504,53.66413],[24.818778,53.664796],[24.819633,53.665243],[24.821038,53.665962],[24.821131,53.66601],[24.823145,53.666977],[24.826391,53.668537],[24.828424,53.669499],[24.829624,53.670222],[24.83196,53.671664],[24.832218,53.671831],[24.840273,53.677028],[24.840771,53.677333],[24.841753,53.677998],[24.842427,53.67844],[24.843879,53.679392],[24.84458,53.679852],[24.846469,53.680885],[24.847496,53.681344],[24.849712,53.682238],[24.851213,53.682822],[24.851564,53.682959],[24.851846,53.683047],[24.854339,53.683828],[24.855228,53.684106],[24.856142,53.684392],[24.856832,53.68461],[24.856984,53.684659],[24.858943,53.685285],[24.866353,53.687653],[24.867649,53.688068],[24.869082,53.688526],[24.873196,53.689853],[24.880953,53.692356],[24.881867,53.692651],[24.889881,53.695117],[24.891508,53.695628],[24.891715,53.695691],[24.891851,53.695735],[24.891935,53.695759],[24.892042,53.695792],[24.892122,53.695816],[24.892768,53.696021],[24.893366,53.696214],[24.894493,53.696571],[24.89667,53.69726],[24.898211,53.697739],[24.902805,53.69921],[24.910086,53.70157],[24.911396,53.701995],[24.913489,53.702676],[24.913812,53.70278],[24.914253,53.702932],[24.914501,53.703009],[24.914679,53.703063],[24.915278,53.703262],[24.915921,53.703468],[24.916064,53.703514],[24.918102,53.704156],[24.929407,53.707749],[24.929565,53.707799],[24.929765,53.707863],[24.929959,53.707925],[24.936122,53.709926],[24.939017,53.710892],[24.94162,53.711724],[24.94198,53.711839],[24.942757,53.712085],[24.943847,53.712399],[24.945754,53.712959],[24.950837,53.714483],[24.952984,53.715258],[24.95383,53.715611],[24.954559,53.715942],[24.95585,53.716577],[24.956463,53.716891],[24.956587,53.716964],[24.95703,53.717222],[24.957233,53.71734],[24.957742,53.717665],[24.959002,53.718409],[24.960598,53.719373],[24.964678,53.721585],[24.966706,53.722664],[24.969902,53.724335],[24.974647,53.726831],[24.975263,53.727156],[24.975991,53.727551],[24.976697,53.727934],[24.976781,53.727981],[24.977466,53.728344],[24.977844,53.728538],[24.97809,53.728665],[24.979383,53.72933],[24.984566,53.732016],[24.985372,53.73243],[24.988148,53.733878],[24.989462,53.734572],[24.999462,53.739851],[25.000347,53.740326],[25.000732,53.740498],[25.001751,53.740956],[25.006618,53.742825],[25.013403,53.745409],[25.014319,53.745751],[25.017023,53.746778],[25.017127,53.746818],[25.017765,53.747073],[25.0181,53.747199],[25.019433,53.747714],[25.019673,53.747805],[25.020918,53.748383],[25.021584,53.748693],[25.022925,53.749389],[25.024346,53.750209],[25.025436,53.750972],[25.025557,53.751057],[25.025727,53.751174],[25.026188,53.751505],[25.026497,53.751726],[25.03505,53.757854],[25.040336,53.761673],[25.044688,53.764828],[25.049373,53.768213],[25.054147,53.771685],[25.057059,53.773835],[25.05854,53.774943],[25.05917,53.775395],[25.061694,53.777195],[25.063517,53.778523],[25.064267,53.779043],[25.065975,53.780333],[25.066134,53.78045],[25.066523,53.780727],[25.066942,53.781026],[25.067962,53.78177],[25.073291,53.785657],[25.079661,53.79023],[25.083092,53.792731],[25.089257,53.797224],[25.090357,53.797915],[25.090684,53.79812],[25.091222,53.798453],[25.091499,53.798622],[25.092997,53.799533],[25.095192,53.800849],[25.09618,53.801466],[25.096453,53.801636],[25.103346,53.805923],[25.106433,53.807823],[25.107877,53.808719],[25.109769,53.809892],[25.109875,53.809958],[25.110101,53.810097],[25.110359,53.810256],[25.111586,53.81101],[25.113344,53.81214],[25.113717,53.812362],[25.115519,53.813579],[25.116272,53.814128],[25.117103,53.814802],[25.117731,53.815343],[25.118747,53.816356],[25.119821,53.817502],[25.121913,53.819666],[25.122885,53.820597],[25.123929,53.821502],[25.124783,53.822152],[25.12522,53.822455],[25.12594,53.822927],[25.12606,53.823008],[25.126565,53.823294],[25.126678,53.823361],[25.127126,53.823629],[25.127428,53.823809],[25.128094,53.824186],[25.129424,53.82488],[25.131516,53.825784],[25.132816,53.826284],[25.134005,53.826728],[25.135204,53.827185],[25.135321,53.827226],[25.140904,53.829274],[25.145185,53.830904],[25.145575,53.831051],[25.145898,53.831165],[25.1464,53.831344],[25.149542,53.832544],[25.158557,53.835902],[25.162762,53.837487],[25.170032,53.840212],[25.171123,53.840606],[25.172621,53.841162],[25.176286,53.842563],[25.177444,53.843001],[25.180224,53.844048],[25.181878,53.844667],[25.183857,53.845436],[25.184004,53.845494],[25.185474,53.846072],[25.186251,53.84638],[25.186539,53.846494],[25.188323,53.847164],[25.188484,53.847227],[25.189556,53.847649],[25.190572,53.847991],[25.191267,53.84819],[25.191764,53.848321],[25.192593,53.848439],[25.193024,53.84846],[25.193413,53.848452],[25.193914,53.848369],[25.194375,53.84821],[25.194752,53.84809],[25.195139,53.848016],[25.195522,53.847984],[25.196093,53.847993],[25.196283,53.847999],[25.196677,53.848021],[25.197571,53.848093],[25.197929,53.848134],[25.198367,53.8482],[25.198571,53.848228],[25.19905,53.848326],[25.199473,53.848485],[25.199907,53.848719],[25.200226,53.848942],[25.20075,53.849443],[25.201067,53.849785],[25.201527,53.850284],[25.202213,53.851027],[25.202593,53.85148],[25.202672,53.851567],[25.203332,53.852285],[25.204008,53.852793],[25.204642,53.853158],[25.204868,53.853278],[25.20565,53.853664],[25.207487,53.854329],[25.207586,53.854366],[25.208369,53.854659],[25.208717,53.85479],[25.209358,53.85503],[25.21369,53.856654],[25.217348,53.858037],[25.21886,53.858592],[25.220068,53.859044],[25.220355,53.859152],[25.231824,53.86345],[25.233515,53.864083],[25.233902,53.86422],[25.23403,53.864266],[25.234175,53.864317],[25.235743,53.864871],[25.236449,53.865114],[25.238809,53.865926],[25.238996,53.865987],[25.240149,53.86634],[25.240314,53.86639],[25.241404,53.866729],[25.243033,53.867231],[25.243398,53.867346],[25.244852,53.867792],[25.245771,53.868075],[25.24611,53.868176],[25.246655,53.868345],[25.247421,53.868579],[25.248069,53.868771],[25.248886,53.869025],[25.248949,53.869045],[25.24938,53.86918],[25.250012,53.869368],[25.250708,53.869585],[25.250994,53.869668],[25.251493,53.86982],[25.252118,53.870012],[25.253283,53.870364],[25.254215,53.870669],[25.256367,53.87133],[25.257652,53.871719],[25.258154,53.871871],[25.25842,53.871952],[25.258486,53.871972],[25.259186,53.872015],[25.25939,53.872027],[25.259619,53.872041],[25.259709,53.87203],[25.2598,53.872027],[25.25989,53.872034],[25.259978,53.87205],[25.260059,53.872075],[25.260131,53.872108],[25.260193,53.872148],[25.260242,53.872193],[25.260277,53.872243],[25.260297,53.872296],[25.260446,53.87241],[25.26082,53.872695],[25.261307,53.872845],[25.261718,53.872971],[25.263884,53.873633],[25.26967,53.8754],[25.271506,53.875964],[25.272066,53.876016],[25.272657,53.87603],[25.272797,53.876028],[25.272934,53.876047],[25.273058,53.876086],[25.273161,53.876142],[25.273237,53.876211],[25.273263,53.876248],[25.273281,53.87629],[25.27329,53.876343],[25.273291,53.876364],[25.273291,53.876387],[25.273375,53.876526],[25.273494,53.876717],[25.273652,53.876891],[25.273963,53.877095],[25.274146,53.877207],[25.274293,53.877269],[25.274342,53.877351],[25.274699,53.877565],[25.274846,53.877668],[25.275307,53.877989],[25.275384,53.87804],[25.275849,53.878348],[25.276771,53.878956],[25.276917,53.879053],[25.27718,53.879256],[25.277468,53.879451],[25.277576,53.879524],[25.278156,53.879913],[25.2784,53.880076],[25.279911,53.881091],[25.280366,53.881396],[25.280457,53.881457],[25.280634,53.881573],[25.280824,53.881698],[25.282624,53.882913],[25.283045,53.883192],[25.283112,53.883236],[25.283433,53.883446],[25.283533,53.883512],[25.283599,53.883563],[25.283766,53.883674],[25.283886,53.883754],[25.283937,53.883788],[25.284016,53.88384],[25.284169,53.883942],[25.284279,53.884018],[25.284523,53.884176],[25.2858,53.885027],[25.286321,53.885452],[25.286983,53.885897],[25.287504,53.886229],[25.290098,53.887783],[25.291006,53.888267],[25.291456,53.888432],[25.291729,53.888524],[25.29207,53.888631],[25.292386,53.888728],[25.292802,53.888841],[25.293183,53.888931],[25.293757,53.889046],[25.293975,53.889093],[25.295431,53.889384],[25.295512,53.889401],[25.296318,53.889564],[25.296814,53.889663],[25.297197,53.88974],[25.297658,53.889832],[25.298051,53.8899],[25.298402,53.889951],[25.299339,53.890076],[25.299921,53.890138],[25.300562,53.890188],[25.301042,53.890209],[25.301428,53.890217],[25.302554,53.890205],[25.302843,53.890193],[25.302827,53.890059],[25.302787,53.889198],[25.302861,53.889016],[25.30295,53.888898],[25.303057,53.888763],[25.303107,53.888701],[25.303273,53.888547],[25.303378,53.888447],[25.303691,53.888146],[25.303779,53.888062],[25.30406,53.887792],[25.304234,53.887626],[25.304234,53.887626],[25.304439,53.887491],[25.304824,53.887266],[25.305224,53.887053],[25.305423,53.886942],[25.306126,53.886582],[25.30619,53.886546],[25.306226,53.8865],[25.306314,53.886387],[25.307026,53.885077],[25.307091,53.884929],[25.307137,53.88474],[25.307092,53.884584],[25.306915,53.884244],[25.30679,53.884041],[25.306589,53.883704],[25.306435,53.88349],[25.30615,53.883276],[25.306043,53.883196],[25.305891,53.883141],[25.306037,53.883013],[25.306485,53.882697],[25.306967,53.882307],[25.307484,53.881745],[25.307711,53.881582],[25.308024,53.881355],[25.308301,53.881131],[25.308845,53.880621],[25.308916,53.880557],[25.309016,53.880409],[25.309227,53.880271],[25.310643,53.878907],[25.310721,53.878758],[25.310882,53.878681],[25.311769,53.877843],[25.312437,53.877207],[25.312519,53.87713],[25.31273,53.876938],[25.312744,53.876842],[25.312891,53.876782],[25.31311,53.876588],[25.313863,53.87589],[25.313994,53.87576],[25.314743,53.875048],[25.315511,53.874342],[25.316002,53.873875],[25.316049,53.873827],[25.316157,53.873719],[25.316274,53.873605],[25.316799,53.873115],[25.317051,53.872855],[25.317249,53.87269],[25.317399,53.872544],[25.317503,53.872443],[25.317649,53.872285],[25.317828,53.872116],[25.318289,53.871694],[25.318644,53.871363],[25.320092,53.869994],[25.321401,53.868756],[25.321948,53.868236],[25.322551,53.867677],[25.323441,53.866846],[25.323568,53.866638],[25.323809,53.866495],[25.323949,53.866306],[25.324346,53.866003],[25.326867,53.863617],[25.327498,53.86303],[25.327595,53.862871],[25.3278,53.862748],[25.327894,53.862658],[25.328135,53.862434],[25.328957,53.861658],[25.330202,53.860467],[25.33049,53.86021],[25.330817,53.859932],[25.331071,53.859678],[25.331187,53.859562],[25.332315,53.858471],[25.333451,53.857409],[25.334411,53.856494],[25.335143,53.855729],[25.33546,53.855399],[25.336312,53.854418],[25.33646,53.854232],[25.3369,53.853677],[25.337244,53.853196],[25.337337,53.853054],[25.337361,53.853017],[25.337525,53.852759],[25.337692,53.85248],[25.337699,53.852467],[25.337743,53.852397],[25.338228,53.85161],[25.338499,53.851165],[25.339348,53.849769],[25.339656,53.849263],[25.339723,53.84915],[25.340234,53.848325],[25.340515,53.84787],[25.340676,53.84761],[25.341102,53.846883],[25.341709,53.845896],[25.342587,53.844453],[25.344165,53.841971],[25.345726,53.839471],[25.346242,53.838645],[25.346451,53.83831],[25.346498,53.838239],[25.346662,53.837985],[25.347136,53.837206],[25.347604,53.836482],[25.347641,53.836426],[25.348364,53.835314],[25.348455,53.835157],[25.349086,53.834046],[25.349285,53.833696],[25.349842,53.832808],[25.351345,53.830508],[25.352014,53.829442],[25.352246,53.829096],[25.354201,53.825977],[25.354439,53.82556],[25.354861,53.824832],[25.354943,53.824557],[25.35507,53.82398],[25.35508,53.823934],[25.35521,53.822635],[25.35542,53.82056],[25.355402,53.820359],[25.355387,53.820196],[25.354938,53.818718],[25.354664,53.817898],[25.354554,53.81755],[25.354517,53.817265],[25.354466,53.816774],[25.354492,53.816221],[25.35453,53.815884],[25.35464,53.81558],[25.35477,53.815298],[25.356873,53.811672],[25.356886,53.811648],[25.358826,53.808298],[25.359296,53.807528],[25.359626,53.807137],[25.359876,53.806874],[25.36014,53.80665],[25.360799,53.8061],[25.361614,53.805458],[25.362308,53.804931],[25.36274,53.804609],[25.363393,53.804111],[25.36362,53.803939],[25.363765,53.803829],[25.364744,53.803065],[25.366716,53.801581],[25.366921,53.801422],[25.367708,53.800813],[25.369001,53.799819],[25.369256,53.799619],[25.369436,53.799484],[25.369664,53.799309],[25.370871,53.798367],[25.37152,53.797861],[25.371847,53.797614],[25.372156,53.797382],[25.372843,53.796826],[25.372893,53.796785],[25.37315,53.796534],[25.373358,53.796189],[25.373668,53.795544],[25.37388,53.795126],[25.373984,53.794906],[25.37415,53.794592],[25.376615,53.789507],[25.377289,53.788166],[25.37782,53.787108],[25.378813,53.785118],[25.381584,53.779421],[25.383005,53.776547],[25.383726,53.775117],[25.384178,53.774191],[25.384452,53.773627],[25.384718,53.773066],[25.385623,53.771239],[25.385752,53.770973],[25.387497,53.767359],[25.387804,53.76672],[25.388557,53.765184],[25.38932,53.763618],[25.389406,53.76346],[25.389959,53.762315],[25.390018,53.762197],[25.390088,53.762045],[25.390368,53.761455],[25.390618,53.760943],[25.390692,53.760624],[25.390714,53.760318],[25.390729,53.760234],[25.390747,53.760072],[25.39075,53.759921],[25.390753,53.759784],[25.390755,53.759703],[25.390807,53.759587],[25.390912,53.759485],[25.391062,53.759405],[25.391244,53.759354],[25.391444,53.759335],[25.391645,53.759351],[25.391829,53.7594],[25.391982,53.759479],[25.392065,53.75955],[25.392333,53.759712],[25.392637,53.759835],[25.393102,53.759971],[25.393487,53.759984],[25.393989,53.759999],[25.395193,53.760015],[25.397188,53.760078],[25.400133,53.760135],[25.400777,53.760116],[25.401451,53.760017],[25.402182,53.759894],[25.403003,53.75971],[25.403503,53.759545],[25.404683,53.758924],[25.404826,53.758832],[25.405278,53.758542],[25.40567,53.758289],[25.40788,53.756564],[25.409623,53.755112],[25.41059,53.754341],[25.412028,53.753194],[25.412559,53.752768],[25.413207,53.752253],[25.413783,53.751797],[25.414384,53.751316],[25.414928,53.75088],[25.415326,53.750525],[25.415469,53.750354],[25.415515,53.750286],[25.415804,53.749862],[25.415832,53.749814],[25.415969,53.749579],[25.416211,53.74899],[25.416318,53.74847],[25.416414,53.745437],[25.416462,53.740331],[25.416461,53.739451],[25.41647,53.73883],[25.416492,53.737354],[25.416507,53.737152],[25.416586,53.736841],[25.416709,53.736514],[25.417037,53.735854],[25.41714,53.735679],[25.417327,53.735405],[25.417428,53.735313],[25.417648,53.735108],[25.417922,53.734879],[25.418122,53.734741],[25.418749,53.734378],[25.420736,53.733226],[25.423541,53.731589],[25.431588,53.726886],[25.43285,53.726148],[25.432934,53.726099],[25.434675,53.72508],[25.438508,53.722838],[25.441035,53.721362],[25.441848,53.720977],[25.442637,53.720649],[25.450448,53.71766],[25.454536,53.716136],[25.454677,53.716082],[25.455539,53.715749],[25.455607,53.715723],[25.456281,53.715463],[25.456995,53.715185],[25.458128,53.714768],[25.458964,53.714552],[25.46004,53.714311],[25.464061,53.713424],[25.464689,53.713342],[25.464998,53.713308],[25.465447,53.713284],[25.465871,53.713285],[25.466616,53.713314],[25.467845,53.713477],[25.468116,53.713519],[25.474621,53.714549],[25.480626,53.715498],[25.483586,53.715975],[25.484462,53.716116],[25.484588,53.716136],[25.485082,53.716215],[25.485709,53.716315],[25.486242,53.716386],[25.488579,53.71671],[25.489965,53.716914],[25.49109,53.717056],[25.49311,53.717342],[25.493763,53.717434],[25.494479,53.717536],[25.495951,53.717744],[25.497901,53.718026],[25.498501,53.718113],[25.499175,53.718198],[25.499368,53.718213],[25.499913,53.718232],[25.499976,53.718233],[25.500337,53.71824],[25.500537,53.718239],[25.500819,53.718228],[25.501073,53.718209],[25.501467,53.718166],[25.501936,53.718087],[25.502258,53.718041],[25.503973,53.717703],[25.504313,53.717636],[25.504372,53.717625],[25.504417,53.717616],[25.505754,53.717359],[25.506422,53.717229],[25.506528,53.717209],[25.506986,53.71712],[25.507303,53.717056],[25.50931,53.716652],[25.510207,53.716472],[25.510232,53.716465],[25.510356,53.716441],[25.510609,53.716375],[25.510971,53.716286],[25.511742,53.716043],[25.513251,53.715567],[25.513522,53.715482],[25.515078,53.714976],[25.522278,53.712665],[25.527037,53.711138],[25.535424,53.708467],[25.535805,53.70834],[25.536323,53.708168],[25.538508,53.707333],[25.542319,53.705876],[25.544491,53.705001],[25.547385,53.70373],[25.549236,53.702943],[25.551593,53.701884],[25.555318,53.700275],[25.557496,53.69923],[25.558779,53.698694],[25.562338,53.69706],[25.565128,53.695868],[25.571387,53.693085],[25.573384,53.692197],[25.573966,53.691938],[25.574406,53.691746],[25.574922,53.691522],[25.576219,53.690993],[25.576626,53.690828],[25.577482,53.690547],[25.578001,53.690394],[25.578505,53.690284],[25.57935,53.690135],[25.580679,53.689951],[25.581531,53.689855],[25.585288,53.689656],[25.591647,53.689318],[25.5941,53.689188],[25.595055,53.689137],[25.599414,53.688905],[25.616864,53.687979],[25.619016,53.687861],[25.620202,53.6878],[25.621029,53.687727],[25.62182,53.687607],[25.622627,53.687458],[25.62276,53.68742],[25.62315,53.687293],[25.630809,53.684823],[25.632534,53.684243],[25.637811,53.682512],[25.63932,53.682019],[25.640223,53.681776],[25.641128,53.68153],[25.641704,53.681373],[25.642417,53.681192],[25.644493,53.680664],[25.645598,53.680359],[25.646242,53.680181],[25.646837,53.679991],[25.647703,53.679629],[25.649176,53.678926],[25.650727,53.678153],[25.653154,53.676897],[25.654261,53.676338],[25.65544,53.675822],[25.657982,53.674816],[25.660484,53.673813],[25.66176,53.67331],[25.662114,53.673162],[25.662444,53.673017],[25.662696,53.6729],[25.662896,53.672792],[25.663317,53.672509],[25.663725,53.672169],[25.667324,53.669069],[25.670964,53.665839],[25.672002,53.665011],[25.672611,53.66463],[25.673973,53.663873],[25.675021,53.663308],[25.675243,53.663189],[25.676126,53.6627],[25.676948,53.662259],[25.677383,53.662026],[25.679752,53.660677],[25.680329,53.660388],[25.680904,53.660172],[25.68157,53.65998],[25.687159,53.658497],[25.690521,53.657634],[25.692371,53.657146],[25.693122,53.65692],[25.693823,53.65668],[25.694439,53.656405],[25.695246,53.656065],[25.695999,53.655693],[25.699513,53.653826],[25.70222,53.652368],[25.704905,53.650865],[25.708672,53.648837],[25.709228,53.648552],[25.710178,53.648065],[25.712649,53.64671],[25.718088,53.643796],[25.718775,53.643457],[25.719925,53.642956],[25.722871,53.641724],[25.723057,53.641665],[25.725982,53.640458],[25.728378,53.639495],[25.730343,53.638689],[25.731164,53.638307],[25.731725,53.638026],[25.73245,53.637592],[25.732569,53.637524],[25.734057,53.636683],[25.734319,53.636535],[25.73437,53.636506],[25.734668,53.636338],[25.736804,53.635193],[25.740813,53.63307],[25.743113,53.631972],[25.744643,53.631243],[25.745626,53.630773],[25.748375,53.629462],[25.750671,53.628374],[25.75075,53.628336],[25.751703,53.627871],[25.752723,53.627374],[25.758593,53.624514],[25.75977,53.623866],[25.760218,53.623582],[25.760902,53.623149],[25.761566,53.622602],[25.761861,53.622324],[25.762741,53.621398],[25.763146,53.620971],[25.765762,53.618254],[25.766455,53.617498],[25.767104,53.616886],[25.76777,53.616345],[25.768477,53.615812],[25.76893,53.615528],[25.769363,53.615254],[25.770111,53.614889],[25.771045,53.614524],[25.772123,53.614124],[25.772694,53.613927],[25.77336,53.613729],[25.77391,53.61359],[25.774472,53.613465],[25.778046,53.612801],[25.778703,53.612664],[25.780414,53.612282],[25.781899,53.611835],[25.783957,53.611168],[25.787441,53.610035],[25.791239,53.608794],[25.793321,53.608116],[25.794002,53.607912],[25.800346,53.605827],[25.801982,53.60529],[25.803692,53.60474],[25.803934,53.604662],[25.804583,53.60444],[25.8052,53.604201],[25.80564,53.603988],[25.805967,53.603813],[25.806456,53.603491],[25.806783,53.603219],[25.807625,53.60239],[25.807961,53.602446],[25.808423,53.602483],[25.808618,53.602487],[25.809223,53.6025],[25.809828,53.602512],[25.810872,53.602525],[25.811186,53.60253],[25.811742,53.602542],[25.813134,53.602572],[25.813893,53.602584],[25.814298,53.60256],[25.815427,53.602473],[25.816021,53.602413],[25.817096,53.602278],[25.819361,53.602015],[25.821424,53.601726],[25.823582,53.601427],[25.824939,53.600695],[25.82578,53.600357],[25.825978,53.600234],[25.826109,53.600103],[25.826111,53.599968],[25.82601,53.599559],[25.826126,53.599561],[25.826309,53.599605],[25.826693,53.599694],[25.826693,53.599814],[25.82698,53.599883],[25.826982,53.600022],[25.826985,53.600114],[25.826992,53.600213],[25.82708,53.60037],[25.827205,53.600506],[25.827767,53.600675],[25.827767,53.600675],[25.827205,53.600506],[25.82708,53.60037],[25.826992,53.600213],[25.826985,53.600114],[25.826982,53.600022],[25.82698,53.599883],[25.826693,53.599814],[25.826693,53.599694],[25.826309,53.599605],[25.826126,53.599561],[25.82601,53.599559],[25.825965,53.599404],[25.825934,53.599239],[25.825873,53.598963],[25.825801,53.598659],[25.825733,53.59841],[25.825728,53.598205],[25.825725,53.598145],[25.825724,53.598045],[25.82579,53.597958],[25.826183,53.59745],[25.826429,53.597133],[25.826565,53.596916],[25.826634,53.596719],[25.826693,53.5963],[25.826783,53.595867],[25.826792,53.595729],[25.826798,53.595639],[25.826859,53.594737],[25.826961,53.593903],[25.827032,53.593519],[25.827079,53.593264],[25.826907,53.592105],[25.826895,53.592017],[25.826886,53.591939],[25.826862,53.591785],[25.826762,53.591562],[25.826074,53.590787],[25.826051,53.590766],[25.825941,53.590659],[25.825594,53.590471],[25.825281,53.590341],[25.825076,53.590248],[25.824863,53.59011],[25.824571,53.589862],[25.824488,53.589792],[25.824435,53.589709],[25.824375,53.589499],[25.824414,53.58935],[25.824491,53.588936],[25.824577,53.588343],[25.824598,53.588213],[25.824853,53.586737],[25.825013,53.585776],[25.825047,53.585582],[25.825075,53.585426],[25.825105,53.585255],[25.825141,53.585043],[25.825187,53.584804],[25.825238,53.584541],[25.825438,53.583513],[25.825854,53.581114],[25.825863,53.581041],[25.825873,53.58096],[25.825943,53.58055],[25.82654,53.577173],[25.827021,53.574458],[25.827146,53.573909],[25.827564,53.571439],[25.827882,53.569677],[25.828456,53.566134],[25.829036,53.562937],[25.8292,53.562014],[25.829151,53.561785],[25.82906,53.561587],[25.828948,53.561422],[25.82883,53.561348],[25.828718,53.561238],[25.828673,53.561112],[25.828701,53.560985],[25.828799,53.56087],[25.829028,53.560745],[25.829285,53.560533],[25.829487,53.560266],[25.829633,53.559543],[25.829688,53.55894],[25.829748,53.55797],[25.829802,53.556186],[25.829881,53.554357],[25.829968,53.552142],[25.829998,53.551252],[25.83008,53.550703],[25.830732,53.547849],[25.830771,53.547672],[25.830785,53.547609],[25.830834,53.547346],[25.830856,53.547233],[25.831336,53.545156],[25.831555,53.544139],[25.831689,53.543525],[25.832392,53.540347],[25.832527,53.53999],[25.832681,53.53974],[25.832831,53.539538],[25.833049,53.539303],[25.833232,53.539152],[25.833439,53.538994],[25.833676,53.538842],[25.834263,53.538496],[25.836657,53.537038],[25.837926,53.536271],[25.838213,53.53611],[25.838599,53.53593],[25.839125,53.53575],[25.84042,53.53539],[25.841675,53.535072],[25.84306,53.534729],[25.843807,53.534519],[25.844095,53.534425],[25.844393,53.534312],[25.844717,53.534153],[25.84498,53.53399],[25.84524,53.533797],[25.845434,53.533617],[25.845699,53.53336],[25.846905,53.531976],[25.847377,53.531442],[25.848348,53.53034],[25.849349,53.52921],[25.850995,53.527349],[25.855307,53.52248],[25.856635,53.520966],[25.857005,53.520575],[25.857182,53.520449],[25.857426,53.520291],[25.857796,53.520112],[25.858453,53.519846],[25.859821,53.519306],[25.860569,53.519001],[25.861104,53.518737],[25.861975,53.518186],[25.863242,53.517356],[25.8637,53.51706],[25.864104,53.516799],[25.864572,53.516476],[25.865007,53.516079],[25.86658,53.514599],[25.868437,53.512823],[25.868815,53.512412],[25.869054,53.512135],[25.869895,53.511047],[25.870715,53.509989],[25.87099,53.509669],[25.871287,53.509341],[25.871695,53.508978],[25.872233,53.508579],[25.872813,53.508223],[25.873825,53.507653],[25.875254,53.506951],[25.876209,53.506479],[25.876673,53.506229],[25.877309,53.505826],[25.877674,53.505574],[25.877963,53.505342],[25.878405,53.504938],[25.878755,53.504525],[25.879115,53.50402],[25.879384,53.503564],[25.880331,53.501948],[25.880515,53.501627],[25.88145,53.500184],[25.882415,53.498767],[25.883628,53.496988],[25.884964,53.495011],[25.886386,53.492938],[25.890048,53.487754],[25.892441,53.484058],[25.892895,53.481629],[25.893183,53.480416],[25.893299,53.479715],[25.893217,53.479222],[25.89268,53.477262],[25.891293,53.471363],[25.890925,53.470349],[25.890845,53.470028],[25.890553,53.468696],[25.890446,53.468265],[25.890461,53.467816],[25.890495,53.467593],[25.890898,53.466219],[25.890903,53.466086],[25.890939,53.465966],[25.890915,53.465824],[25.890892,53.465723],[25.890749,53.465505],[25.890461,53.465119],[25.890169,53.46469],[25.889782,53.464098],[25.889592,53.463782],[25.889406,53.463265],[25.889389,53.463225],[25.889294,53.463004],[25.889236,53.462905],[25.889205,53.462851],[25.889121,53.462707],[25.889009,53.46258],[25.888437,53.461905],[25.887797,53.461215],[25.887525,53.46096],[25.887043,53.460593],[25.88632,53.460113],[25.885931,53.459841],[25.885631,53.459606],[25.885445,53.459409],[25.885237,53.459075],[25.885094,53.458852],[25.885023,53.4587],[25.884992,53.458519],[25.885004,53.458326],[25.885262,53.457806],[25.885499,53.457283],[25.885721,53.456857],[25.885769,53.456756],[25.885868,53.456545],[25.886097,53.456076],[25.886323,53.455648],[25.886569,53.455182],[25.886671,53.455031],[25.887509,53.453635],[25.887821,53.453136],[25.888143,53.452632],[25.88847,53.452144],[25.88902,53.451228],[25.889375,53.450684],[25.889705,53.450164],[25.890176,53.44929],[25.890404,53.448678],[25.890543,53.44805],[25.89065,53.447263],[25.890722,53.446715],[25.890826,53.446166],[25.890923,53.445727],[25.891037,53.445471],[25.891245,53.445131],[25.891574,53.444726],[25.89339,53.44272],[25.894323,53.441689],[25.894909,53.441031],[25.895529,53.440358],[25.895854,53.440041],[25.896078,53.439848],[25.896389,53.43961],[25.896545,53.439478],[25.897313,53.438947],[25.897547,53.438808],[25.897938,53.438529],[25.898164,53.438351],[25.898501,53.438066],[25.89884,53.437639],[25.899024,53.437379],[25.899226,53.437023],[25.899841,53.43589],[25.900383,53.43506],[25.901084,53.434192],[25.902812,53.432053],[25.903197,53.431582],[25.90353,53.431171],[25.904065,53.430512],[25.904371,53.430142],[25.904462,53.430039],[25.904743,53.42972],[25.904911,53.429542],[25.904977,53.429475],[25.905115,53.429338],[25.905263,53.429204],[25.905791,53.428794],[25.905791,53.428794],[25.905924,53.428669],[25.906139,53.428467],[25.906268,53.428349],[25.906506,53.428118],[25.90659,53.428036],[25.906934,53.427686],[25.907287,53.427379],[25.90762,53.42709],[25.907656,53.42706],[25.907825,53.426913],[25.909182,53.425732],[25.910225,53.424806],[25.910999,53.424065],[25.911544,53.423537],[25.911671,53.423405],[25.911793,53.42328],[25.911882,53.423187],[25.912026,53.423023],[25.912312,53.422696],[25.913032,53.42187],[25.913895,53.420882],[25.915136,53.419515],[25.916011,53.418651],[25.916405,53.418222],[25.916781,53.417804],[25.917022,53.417479],[25.917254,53.417066],[25.9174,53.416744],[25.917536,53.416353],[25.917612,53.415988],[25.917674,53.415596],[25.917772,53.415082],[25.917826,53.414794],[25.918273,53.413607],[25.918786,53.412144],[25.919208,53.410961],[25.919419,53.410376],[25.919648,53.409725],[25.919756,53.409353],[25.91978,53.409062],[25.919754,53.408806],[25.919666,53.408393],[25.919487,53.40789],[25.919328,53.407445],[25.919295,53.407353],[25.919166,53.407021],[25.919005,53.406611],[25.918899,53.40634],[25.918818,53.40612],[25.918776,53.405982],[25.918746,53.405729],[25.91876,53.405581],[25.918812,53.405325],[25.919024,53.404328],[25.919081,53.40409],[25.919165,53.403742],[25.919299,53.403254],[25.919423,53.402995],[25.919599,53.402647],[25.919755,53.402384],[25.920047,53.402001],[25.921214,53.400491],[25.922364,53.399002],[25.923183,53.397975],[25.923285,53.397823],[25.923853,53.396986],[25.924499,53.396113],[25.925684,53.394614],[25.926922,53.393102],[25.928083,53.391602],[25.929229,53.390194],[25.929395,53.38999],[25.930612,53.388481],[25.932348,53.386336],[25.933029,53.385501],[25.934197,53.38407],[25.934507,53.38375],[25.934976,53.383368],[25.935279,53.383149],[25.935648,53.382936],[25.936016,53.382728],[25.936609,53.38243],[25.937256,53.382113],[25.937719,53.381883],[25.93792,53.381784],[25.938101,53.381691],[25.938506,53.381486],[25.939373,53.381041],[25.939798,53.380841],[25.940744,53.380368],[25.942402,53.37954],[25.947676,53.37686],[25.949319,53.376025],[25.950798,53.375289],[25.9534,53.373998],[25.953878,53.373744],[25.954351,53.373464],[25.954908,53.373109],[25.955387,53.372755],[25.955993,53.372234],[25.956224,53.372034],[25.956485,53.371791],[25.956813,53.371483],[25.957133,53.371187],[25.95787,53.370504],[25.958157,53.370238],[25.958377,53.370031],[25.959251,53.369208],[25.960624,53.367977],[25.962069,53.366636],[25.962562,53.366284],[25.96357,53.365638],[25.964179,53.36524],[25.96443,53.365075],[25.965208,53.364576],[25.966259,53.36391],[25.967009,53.36344],[25.967491,53.363193],[25.967764,53.363052],[25.968584,53.362662],[25.968699,53.362604],[25.968933,53.362488],[25.969372,53.362219],[25.970036,53.361738],[25.970608,53.361314],[25.970746,53.361212],[25.971626,53.360581],[25.972406,53.360019],[25.972638,53.359852],[25.973621,53.359184],[25.973897,53.35902],[25.97479,53.35849],[25.975802,53.357926],[25.9771,53.357181],[25.977661,53.35687],[25.978987,53.356094],[25.979335,53.355875],[25.979524,53.355745],[25.98023,53.355181],[25.98036,53.355069],[25.980494,53.354951],[25.981191,53.354381],[25.98184,53.353836],[25.982548,53.353264],[25.982957,53.352925],[25.983258,53.352673],[25.985104,53.35117],[25.985641,53.350671],[25.986068,53.35023],[25.986149,53.350116],[25.986706,53.349329],[25.98689,53.349068],[25.988195,53.347243],[25.988908,53.346226],[25.98923,53.345671],[25.9894,53.345378],[25.989648,53.344948],[25.989837,53.344488],[25.989928,53.344206],[25.990055,53.3438],[25.990147,53.342964],[25.990169,53.341652],[25.990131,53.341229],[25.99007,53.340868],[25.990005,53.340545],[25.989894,53.340144],[25.989782,53.339876],[25.989579,53.339385],[25.98905,53.338295],[25.988489,53.337113],[25.988158,53.336449],[25.986966,53.333984],[25.986102,53.33221],[25.985924,53.331777],[25.985775,53.33122],[25.985726,53.330729],[25.985716,53.330209],[25.985897,53.329271],[25.986032,53.328787],[25.986248,53.328301],[25.986971,53.327103],[25.98718,53.32683],[25.987492,53.326357],[25.98775,53.325988],[25.988129,53.325432],[25.989097,53.323905],[25.990318,53.322098],[25.990674,53.321529],[25.991938,53.319525],[25.992791,53.318214],[25.993416,53.317368],[25.993945,53.316824],[25.99443,53.316361],[25.994996,53.315894],[25.995589,53.315471],[25.996123,53.315167],[25.996656,53.314878],[25.997357,53.314571],[25.997957,53.314334],[25.998655,53.3141],[25.999237,53.313927],[26.000111,53.31369],[26.001144,53.313502],[26.001543,53.313456],[26.002049,53.31339],[26.004357,53.313076],[26.006169,53.312829],[26.009236,53.31242],[26.010053,53.312302],[26.011985,53.312024],[26.014375,53.311705],[26.016836,53.31136],[26.017958,53.311162],[26.019167,53.310948],[26.019725,53.310806],[26.020325,53.310602],[26.021133,53.310335],[26.021647,53.310136],[26.02211,53.309941],[26.022497,53.309758],[26.023149,53.309427],[26.02373,53.309045],[26.024127,53.30875],[26.024195,53.3087],[26.025171,53.307868],[26.027453,53.305629],[26.028354,53.304744],[26.029005,53.304105],[26.02984,53.303286],[26.031633,53.301487],[26.03365,53.299511],[26.037468,53.29568],[26.042078,53.291137],[26.042965,53.290238],[26.043871,53.289364],[26.044261,53.288977],[26.044548,53.288692],[26.045248,53.287926],[26.045769,53.287233],[26.046206,53.286607],[26.046549,53.28601],[26.046701,53.285566],[26.046844,53.285146],[26.046916,53.284936],[26.047367,53.283335],[26.047513,53.282817],[26.047598,53.282513],[26.047654,53.282289],[26.047753,53.281897],[26.047882,53.281383],[26.048045,53.280672],[26.048118,53.280242],[26.048098,53.280078],[26.048068,53.279984],[26.048,53.279775],[26.047832,53.27946],[26.047646,53.279102],[26.047062,53.27816],[26.046466,53.277157],[26.0463,53.276878],[26.0454,53.275363],[26.044985,53.274605],[26.044888,53.274347],[26.044815,53.27402],[26.044778,53.273649],[26.044761,53.273173],[26.044775,53.272002],[26.044737,53.270782],[26.0447,53.270439],[26.044635,53.27003],[26.044534,53.269711],[26.044384,53.269383],[26.044105,53.268835],[26.043798,53.268272],[26.043583,53.267962],[26.043409,53.26765],[26.043325,53.267492],[26.043264,53.26738],[26.043207,53.267223],[26.04316,53.267068],[26.04314,53.266897],[26.043174,53.266714],[26.043243,53.266535],[26.04349,53.266209],[26.043849,53.265777],[26.044069,53.265497],[26.044323,53.26517],[26.044661,53.264737],[26.04487,53.26447],[26.04496,53.264347],[26.045165,53.264064],[26.045275,53.263902],[26.045359,53.26372],[26.045427,53.263556],[26.045446,53.263388],[26.045426,53.263226],[26.045408,53.263175],[26.045384,53.263112],[26.045337,53.262993],[26.045247,53.262827],[26.044992,53.262434],[26.044713,53.262028],[26.044615,53.261894],[26.044377,53.261581],[26.044167,53.261254],[26.044048,53.261024],[26.04388,53.260715],[26.043734,53.260467],[26.043572,53.26011],[26.043455,53.259855],[26.042782,53.258414],[26.042474,53.257755],[26.042247,53.257246],[26.041989,53.256625],[26.041735,53.25602],[26.04143,53.255175],[26.041356,53.254977],[26.041278,53.254773],[26.041233,53.254634],[26.040951,53.25376],[26.040652,53.252728],[26.040495,53.25223],[26.04039,53.251702],[26.040398,53.251125],[26.040403,53.250745],[26.040422,53.249438],[26.040446,53.247906],[26.040573,53.246491],[26.040621,53.246185],[26.040706,53.245961],[26.04083,53.245681],[26.041036,53.245364],[26.041333,53.244867],[26.041622,53.244466],[26.041959,53.243919],[26.042126,53.243616],[26.042217,53.243446],[26.042293,53.243245],[26.042345,53.242958],[26.042343,53.242709],[26.042318,53.242513],[26.042265,53.242255],[26.042172,53.241985],[26.041975,53.241592],[26.041689,53.241144],[26.040232,53.239007],[26.039262,53.237603],[26.03848,53.236473],[26.03826,53.236147],[26.038129,53.235911],[26.037962,53.235604],[26.037871,53.23532],[26.037802,53.234856],[26.037662,53.233784],[26.037635,53.233581],[26.037446,53.231639],[26.037362,53.230908],[26.037279,53.230182],[26.037206,53.229619],[26.037183,53.229005],[26.037187,53.226142],[26.037184,53.225274],[26.037181,53.22392],[26.037177,53.223794],[26.037183,53.220492],[26.037186,53.220463],[26.037212,53.219995],[26.037239,53.219866],[26.037328,53.219434],[26.03755,53.218866],[26.037627,53.218678],[26.038094,53.217531],[26.038126,53.217454],[26.038147,53.217403],[26.038308,53.217013],[26.038404,53.216722],[26.038451,53.21638],[26.038464,53.216143],[26.038472,53.216001],[26.038466,53.21575],[26.038478,53.215311],[26.03845,53.214691],[26.038426,53.214143],[26.03839,53.213636],[26.038381,53.213521],[26.038382,53.213448],[26.038384,53.213136],[26.038387,53.213102],[26.038406,53.212891],[26.038456,53.212489],[26.038475,53.211921],[26.038469,53.211012],[26.038461,53.210245],[26.038419,53.209844],[26.038378,53.209578],[26.038296,53.209365],[26.038172,53.209146],[26.037966,53.208873],[26.036587,53.207486],[26.036159,53.207045],[26.033101,53.203898],[26.032877,53.203659],[26.032733,53.203506],[26.032508,53.203267],[26.031691,53.202399],[26.031609,53.202315],[26.031579,53.202285],[26.031372,53.202074],[26.031286,53.201987],[26.030811,53.201483],[26.030613,53.201271],[26.029867,53.200473],[26.029752,53.200315],[26.029656,53.200101],[26.029599,53.199891],[26.029548,53.199558],[26.029538,53.199375],[26.02951,53.198862],[26.029516,53.198444],[26.029524,53.197852],[26.029557,53.19723],[26.029566,53.197068],[26.029656,53.19584],[26.029727,53.194623],[26.02979,53.193611],[26.029832,53.192668],[26.029874,53.192077],[26.0299,53.191541],[26.029855,53.191023],[26.029794,53.190392],[26.029791,53.190364],[26.029774,53.190224],[26.029676,53.189386],[26.029524,53.187876],[26.029382,53.186431],[26.02924,53.185191],[26.029115,53.183913],[26.029104,53.183799],[26.029024,53.182874],[26.028883,53.182617],[26.028682,53.18234],[26.028591,53.182213],[26.028446,53.182062],[26.028079,53.181803],[26.027663,53.18155],[26.025678,53.180496],[26.024243,53.179878],[26.022697,53.179252],[26.022162,53.17903],[26.021298,53.178677],[26.020835,53.17855],[26.019349,53.17814],[26.018837,53.177992],[26.018144,53.17779],[26.017605,53.177631],[26.017037,53.177462],[26.01468,53.17677],[26.012601,53.176152],[26.010584,53.1755],[26.008866,53.174897],[26.007114,53.174254],[26.005224,53.173505],[26.004566,53.173231],[26.003909,53.172958],[26.001429,53.171872],[25.999156,53.170885],[25.99591,53.16947],[25.994552,53.168882],[25.993207,53.168312],[25.992383,53.167941],[25.992229,53.167872],[25.991273,53.16742],[25.990338,53.166931],[25.989342,53.166421],[25.988723,53.166062],[25.987744,53.165476],[25.986944,53.164986],[25.985964,53.164348],[25.985401,53.16393],[25.984825,53.163501],[25.984354,53.163135],[25.983984,53.162828],[25.983515,53.16244],[25.983036,53.162052],[25.982294,53.161369],[25.98185,53.160946],[25.981388,53.160508],[25.980383,53.159509],[25.980021,53.159297],[25.979834,53.159219],[25.979573,53.159176],[25.97923,53.15915],[25.978983,53.159182],[25.9788,53.15924],[25.978598,53.15936],[25.978474,53.159516],[25.97845,53.15967],[25.978485,53.15987],[25.978634,53.160034],[25.97884,53.160134],[25.979108,53.160206],[25.979447,53.160224],[25.980207,53.160149],[25.980442,53.160111],[25.981527,53.159929],[25.986303,53.159132],[25.98673,53.159066],[25.987516,53.158934],[25.987976,53.158855],[25.990887,53.158386],[25.991553,53.158268],[25.992099,53.158157],[25.992661,53.157994],[25.992974,53.157877],[25.993262,53.157726],[25.993677,53.157453],[25.994256,53.157065],[25.994719,53.156698],[25.995262,53.156111],[25.995562,53.155791],[25.995977,53.155319],[25.99606,53.155061],[25.996776,53.154291],[25.996988,53.154054],[25.997185,53.153844],[25.997376,53.153645],[25.997551,53.153463],[25.998021,53.152958],[25.998284,53.152646],[25.998381,53.152538],[25.998727,53.152156],[25.999024,53.15188],[25.999125,53.151788],[25.999366,53.151602],[26.000018,53.150883],[26.000415,53.150455],[26.000442,53.150424],[26.000977,53.149826],[26.001128,53.149659],[26.001276,53.1495],[26.001679,53.149069],[26.001765,53.148977],[26.0035,53.147121],[26.0039,53.146693],[26.004114,53.146465],[26.004504,53.146048],[26.004761,53.145771],[26.00482,53.145708],[26.005256,53.145226],[26.005836,53.144585],[26.006486,53.14388],[26.006662,53.143676],[26.006829,53.143476],[26.00706,53.14321],[26.007202,53.14306],[26.007676,53.142551],[26.007813,53.142387],[26.007951,53.142221],[26.008037,53.142126],[26.008424,53.141695],[26.008785,53.141269],[26.009162,53.140843],[26.011501,53.138344],[26.012508,53.137233],[26.01252,53.137095],[26.012523,53.136991],[26.012505,53.136974],[26.012328,53.136914],[26.012218,53.136875],[26.011979,53.136791],[26.011862,53.13675],[26.011422,53.136627],[26.010971,53.1365],[26.01043,53.136348],[26.010201,53.13628],[26.009102,53.135957],[26.008208,53.135693],[26.006781,53.13527],[26.005904,53.13501],[26.005825,53.134986],[26.005733,53.134962],[26.00566,53.134942],[26.004652,53.134647],[26.004186,53.134511],[26.003593,53.134338],[26.002651,53.134067],[26.002563,53.134041],[26.002138,53.133919],[26.001265,53.133668],[26.00115,53.133635],[26.001074,53.133614],[25.999791,53.133249],[25.999252,53.133077],[25.998949,53.132914],[25.998811,53.132805],[25.998704,53.132673],[25.998633,53.132546],[25.998502,53.131981],[25.998429,53.13183],[25.998351,53.131714],[25.998253,53.131617],[25.99813,53.131522],[25.997962,53.131429],[25.997738,53.131342],[25.996136,53.130775],[25.995823,53.130664],[25.995572,53.130575],[25.995474,53.13054],[25.994936,53.13035],[25.994786,53.130296],[25.994707,53.13027],[25.994313,53.130137],[25.993298,53.129794],[25.992568,53.129547],[25.991169,53.129061],[25.990967,53.128991],[25.99056,53.12885],[25.990103,53.128692],[25.989298,53.128415],[25.988957,53.128297],[25.988732,53.128219],[25.988593,53.12817],[25.988312,53.128072],[25.98813,53.12799],[25.988022,53.127932],[25.987918,53.127832],[25.987589,53.127364],[25.987495,53.127233],[25.98743,53.12714],[25.986804,53.126248],[25.985689,53.124658],[25.985541,53.124444],[25.98539,53.124206],[25.985142,53.123814],[25.984972,53.123546],[25.984725,53.123157],[25.984578,53.122919],[25.984399,53.122662],[25.984257,53.122455],[25.983958,53.122021],[25.983639,53.121557],[25.983508,53.121421],[25.98338,53.121317],[25.983181,53.121184],[25.982988,53.121077],[25.981969,53.12065],[25.981886,53.120615],[25.981583,53.120488],[25.981046,53.120262],[25.980951,53.120222],[25.980459,53.120015],[25.979949,53.119801],[25.979647,53.119675],[25.979727,53.119609],[25.979779,53.119567],[25.980612,53.118887],[25.981223,53.118409],[25.981876,53.117898],[25.98021,53.117126],[25.979925,53.117003],[25.980436,53.116626],[25.980941,53.116253],[25.981261,53.116017],[25.981411,53.115892],[25.98163,53.115747]],"type":"LineString"},"properties":{"routeId":"grodno","source":"https://routing.openstreetmap.de/routed-car","fetchedAt":"2026-10-08T07:16:39.659Z","distanceMeters":230721.5,"durationSeconds":12091.2,"demoOnly":true}}