{"type":"Feature","geometry":{"coordinates":[[27.562051,53.902142],[27.561619,53.901928],[27.561119,53.901678],[27.560907,53.901572],[27.559472,53.900864],[27.559147,53.900705],[27.559054,53.900659],[27.558953,53.900609],[27.558102,53.900181],[27.55771,53.899986],[27.556649,53.899456],[27.556202,53.899238],[27.5561,53.899187],[27.555852,53.899069],[27.555437,53.898864],[27.555355,53.898823],[27.554399,53.898349],[27.553914,53.898108],[27.553668,53.897986],[27.553571,53.898077],[27.552769,53.898941],[27.552366,53.899388],[27.552232,53.899531],[27.552167,53.8996],[27.551952,53.89983],[27.551499,53.900314],[27.551406,53.900413],[27.551365,53.900467],[27.551272,53.900561],[27.551206,53.900607],[27.551183,53.900624],[27.551108,53.900664],[27.550881,53.900764],[27.549882,53.901167],[27.549547,53.901333],[27.549298,53.901472],[27.549047,53.901618],[27.548889,53.901717],[27.548717,53.901808],[27.54857,53.901887],[27.54847,53.901815],[27.548333,53.901707],[27.548313,53.901689],[27.548179,53.901576],[27.547903,53.901364],[27.547201,53.900852],[27.547015,53.900715],[27.546555,53.900391],[27.546493,53.900347],[27.546323,53.900254],[27.545671,53.899917],[27.54564,53.899902],[27.545165,53.899682],[27.54402,53.899182],[27.543946,53.899151],[27.543529,53.899011],[27.543466,53.898988],[27.543281,53.898904],[27.543112,53.898806],[27.542981,53.898736],[27.542622,53.898581],[27.540971,53.897861],[27.540911,53.897835],[27.540875,53.897819],[27.54081,53.89779],[27.540142,53.897499],[27.539495,53.897198],[27.539297,53.897108],[27.539159,53.897048],[27.539008,53.897],[27.538813,53.896951],[27.538693,53.896937],[27.53843,53.896906],[27.538263,53.896956],[27.538082,53.896984],[27.538017,53.896993],[27.537644,53.896957],[27.537421,53.896883],[27.537243,53.896775],[27.537118,53.896625],[27.53708,53.89646],[27.537095,53.896394],[27.536976,53.896213],[27.536914,53.896114],[27.536847,53.896028],[27.536772,53.895959],[27.536684,53.895905],[27.53601,53.895582],[27.535392,53.895301],[27.534528,53.895023],[27.534191,53.894924],[27.533446,53.894737],[27.533407,53.894732],[27.532127,53.894359],[27.53081,53.893986],[27.53017,53.893777],[27.529822,53.893669],[27.529427,53.89351],[27.529137,53.893392],[27.528957,53.893308],[27.528514,53.893108],[27.528297,53.893007],[27.527834,53.892766],[27.527503,53.892587],[27.526368,53.891986],[27.524882,53.891164],[27.524533,53.890971],[27.523661,53.890498],[27.522505,53.8899],[27.521487,53.889388],[27.52125,53.889269],[27.52088,53.889098],[27.520355,53.888882],[27.518963,53.888336],[27.518746,53.888254],[27.51705,53.887644],[27.516349,53.887374],[27.5152,53.886957],[27.514824,53.88682],[27.514655,53.886765],[27.513519,53.886343],[27.512196,53.885853],[27.511259,53.885506],[27.510096,53.885067],[27.507992,53.884276],[27.503551,53.882609],[27.502803,53.882273],[27.502007,53.881892],[27.500966,53.881325],[27.500121,53.880745],[27.500037,53.880682],[27.499784,53.880476],[27.499584,53.880301],[27.499166,53.879912],[27.498916,53.879672],[27.498441,53.879144],[27.498085,53.878673],[27.497899,53.878387],[27.497503,53.87778],[27.496958,53.876944],[27.496835,53.87677],[27.496773,53.876672],[27.496581,53.876398],[27.496164,53.875752],[27.495187,53.874264],[27.494727,53.87359],[27.494264,53.872802],[27.493431,53.871681],[27.493298,53.871508],[27.492833,53.870947],[27.492523,53.870579],[27.492449,53.870496],[27.49181,53.869752],[27.491065,53.868989],[27.490665,53.868641],[27.490309,53.868344],[27.488783,53.86706],[27.48824,53.866625],[27.48808,53.866491],[27.48789,53.866322],[27.486495,53.865135],[27.486355,53.865017],[27.48565,53.864438],[27.485275,53.86413],[27.484462,53.86344],[27.483681,53.862795],[27.481749,53.861136],[27.481083,53.860565],[27.481036,53.860525],[27.480993,53.860487],[27.479437,53.85917],[27.47876,53.858578],[27.478429,53.858267],[27.478056,53.857835],[27.477989,53.857756],[27.477828,53.857552],[27.477747,53.857442],[27.477631,53.857261],[27.477389,53.85686],[27.477196,53.856444],[27.476846,53.855519],[27.476403,53.854359],[27.476321,53.854123],[27.476118,53.85356],[27.476034,53.853328],[27.475737,53.852633],[27.475329,53.851583],[27.474546,53.84963],[27.474434,53.849379],[27.474346,53.849182],[27.474309,53.84908],[27.474122,53.848727],[27.473902,53.848368],[27.473852,53.848288],[27.473536,53.847745],[27.473366,53.847478],[27.473017,53.846943],[27.472471,53.846227],[27.471935,53.845524],[27.471497,53.845023],[27.470869,53.844379],[27.470591,53.844095],[27.470112,53.843613],[27.469598,53.843164],[27.468912,53.842565],[27.468144,53.841815],[27.466261,53.840162],[27.466189,53.840089],[27.465677,53.839592],[27.464794,53.838694],[27.464422,53.838323],[27.464402,53.838298],[27.463178,53.836953],[27.46185,53.835516],[27.461267,53.834865],[27.460718,53.834323],[27.460161,53.833825],[27.459441,53.833244],[27.45915,53.83301],[27.458745,53.832723],[27.457787,53.832064],[27.457119,53.831642],[27.456338,53.831181],[27.453126,53.829422],[27.451885,53.828745],[27.449704,53.827546],[27.448623,53.826954],[27.448003,53.826613],[27.445717,53.825354],[27.444658,53.824787],[27.442207,53.823437],[27.441711,53.823169],[27.440583,53.822547],[27.440313,53.822401],[27.438594,53.821462],[27.43788,53.821076],[27.437471,53.820854],[27.43511,53.819558],[27.434205,53.819073],[27.433503,53.818686],[27.432842,53.818354],[27.432829,53.818345],[27.432435,53.818152],[27.432068,53.817986],[27.431296,53.817638],[27.430704,53.817384],[27.43042,53.817264],[27.429229,53.816806],[27.428423,53.816529],[27.427387,53.816188],[27.426382,53.815887],[27.425759,53.815698],[27.423946,53.815147],[27.420585,53.814145],[27.418322,53.813479],[27.417725,53.813311],[27.416829,53.813047],[27.414768,53.812439],[27.413605,53.812099],[27.412951,53.811911],[27.412713,53.81184],[27.409804,53.810958],[27.405933,53.809808],[27.40409,53.809247],[27.401978,53.80861],[27.397422,53.807281],[27.396033,53.806865],[27.394191,53.806324],[27.391928,53.805644],[27.390994,53.805396],[27.389811,53.805125],[27.388653,53.804872],[27.385247,53.804178],[27.384234,53.803968],[27.38309,53.803709],[27.381941,53.803384],[27.380587,53.802942],[27.380015,53.802727],[27.379217,53.802404],[27.378669,53.802168],[27.378416,53.802054],[27.377471,53.801581],[27.377237,53.801456],[27.37658,53.801085],[27.376099,53.800813],[27.375648,53.800499],[27.375576,53.800449],[27.37447,53.799682],[27.374061,53.7994],[27.373703,53.799142],[27.373163,53.798757],[27.372487,53.798274],[27.372103,53.798008],[27.371032,53.797228],[27.369981,53.796469],[27.369228,53.795856],[27.368637,53.795238],[27.368179,53.794684],[27.367957,53.794393],[27.367765,53.794102],[27.367619,53.793857],[27.367486,53.793617],[27.367028,53.792792],[27.366696,53.792218],[27.36653,53.791924],[27.366144,53.791249],[27.365844,53.790692],[27.365757,53.790519],[27.365642,53.790241],[27.365377,53.789603],[27.365058,53.78878],[27.364495,53.787139],[27.364382,53.786823],[27.363812,53.785199],[27.363595,53.784553],[27.363298,53.783803],[27.363002,53.783148],[27.362422,53.782167],[27.362251,53.781851],[27.362017,53.781497],[27.361895,53.781314],[27.361699,53.781056],[27.361572,53.780902],[27.360993,53.780198],[27.360576,53.779706],[27.360101,53.779229],[27.359606,53.778794],[27.359161,53.778424],[27.358431,53.777905],[27.356829,53.776595],[27.3547,53.774911],[27.354254,53.774535],[27.353769,53.774151],[27.353053,53.773585],[27.35287,53.77344],[27.35041,53.771498],[27.349469,53.770756],[27.348664,53.770123],[27.347975,53.769581],[27.347438,53.769162],[27.346359,53.768308],[27.344256,53.766642],[27.340006,53.763275],[27.339305,53.762719],[27.338627,53.762182],[27.338098,53.761765],[27.336909,53.760831],[27.336736,53.760696],[27.336039,53.760149],[27.335518,53.759742],[27.33338,53.758092],[27.330142,53.755591],[27.328,53.753936],[27.326484,53.752722],[27.326109,53.752432],[27.325545,53.752011],[27.323175,53.750175],[27.320949,53.748389],[27.313864,53.742879],[27.312761,53.74202],[27.311835,53.741281],[27.311444,53.740977],[27.309948,53.739816],[27.309425,53.739403],[27.308613,53.738764],[27.308408,53.7386],[27.307737,53.738045],[27.30681,53.73735],[27.305638,53.736563],[27.304945,53.736135],[27.304704,53.735991],[27.304146,53.735659],[27.303361,53.735243],[27.301919,53.734529],[27.300791,53.734037],[27.299891,53.733667],[27.298363,53.733108],[27.295357,53.732059],[27.294253,53.731721],[27.29317,53.731429],[27.288187,53.730196],[27.282275,53.728759],[27.279765,53.728156],[27.278654,53.727869],[27.278274,53.72778],[27.278054,53.727728],[27.274961,53.726997],[27.27428,53.726827],[27.273817,53.726713],[27.273053,53.726526],[27.259554,53.723209],[27.2578,53.722784],[27.255559,53.722235],[27.253408,53.721709],[27.252415,53.721452],[27.251215,53.721082],[27.251064,53.721031],[27.250114,53.720713],[27.24868,53.720198],[27.248056,53.719958],[27.247553,53.719742],[27.247151,53.71957],[27.24613,53.719131],[27.244538,53.718437],[27.234783,53.714196],[27.232349,53.713124],[27.230354,53.712258],[27.229741,53.711992],[27.229512,53.711894],[27.228889,53.711622],[27.228258,53.711346],[27.226167,53.710436],[27.222575,53.708871],[27.219935,53.70772],[27.219268,53.707386],[27.218898,53.707179],[27.218136,53.70674],[27.217551,53.706333],[27.217001,53.705918],[27.216688,53.705661],[27.216305,53.705325],[27.215938,53.70496],[27.215525,53.704496],[27.21499,53.703807],[27.214398,53.702859],[27.213946,53.701961],[27.213864,53.701794],[27.212094,53.698219],[27.211866,53.697749],[27.211414,53.696771],[27.209885,53.693701],[27.209529,53.693105],[27.209201,53.692555],[27.2085,53.69156],[27.207561,53.690357],[27.206503,53.68915],[27.205375,53.687978],[27.203597,53.686411],[27.202019,53.68522],[27.201637,53.684932],[27.200114,53.683891],[27.198266,53.682742],[27.197487,53.682295],[27.196013,53.681564],[27.195536,53.68133],[27.19488,53.681013],[27.193916,53.680575],[27.192659,53.680033],[27.191127,53.679426],[27.190737,53.679276],[27.187214,53.678035],[27.183275,53.676647],[27.181662,53.676076],[27.177909,53.674745],[27.173662,53.673247],[27.173397,53.673153],[27.172554,53.672854],[27.171192,53.672371],[27.17073,53.6722],[27.169189,53.67166],[27.15824,53.667798],[27.156043,53.667002],[27.154741,53.666576],[27.150539,53.665087],[27.149988,53.664892],[27.14627,53.66358],[27.14583,53.663426],[27.145657,53.663365],[27.144596,53.662993],[27.144187,53.662861],[27.14284,53.66246],[27.141989,53.662223],[27.140501,53.661814],[27.13916,53.661515],[27.137838,53.661229],[27.136229,53.660915],[27.135705,53.660827],[27.135233,53.660743],[27.132421,53.660316],[27.131233,53.660177],[27.130127,53.660069],[27.128744,53.659953],[27.127667,53.659884],[27.126339,53.659803],[27.124892,53.659757],[27.12092,53.659691],[27.116311,53.659618],[27.112101,53.659552],[27.10158,53.659374],[27.100511,53.65936],[27.100203,53.659352],[27.098156,53.659297],[27.09676,53.659224],[27.095347,53.659121],[27.094178,53.658998],[27.093934,53.65897],[27.09297,53.65886],[27.091764,53.65867],[27.09043,53.658427],[27.089098,53.658129],[27.087761,53.657809],[27.086794,53.657524],[27.085878,53.657253],[27.084269,53.656725],[27.083761,53.656531],[27.082545,53.656035],[27.081313,53.655503],[27.080708,53.655232],[27.080175,53.654958],[27.079542,53.654611],[27.078644,53.654105],[27.077668,53.653489],[27.077226,53.653199],[27.076481,53.652674],[27.075765,53.652152],[27.075059,53.651538],[27.074692,53.651226],[27.074116,53.650677],[27.073501,53.650063],[27.072802,53.649242],[27.072137,53.64836],[27.071705,53.647786],[27.06952,53.644657],[27.06897,53.643869],[27.068743,53.643544],[27.068111,53.642644],[27.067987,53.642468],[27.067768,53.642163],[27.067037,53.641127],[27.064513,53.637529],[27.06399,53.636807],[27.063164,53.635649],[27.062909,53.635236],[27.062875,53.635188],[27.056786,53.626515],[27.056139,53.625592],[27.052925,53.620998],[27.052197,53.619915],[27.051864,53.619251],[27.051497,53.618361],[27.049957,53.614619],[27.0486,53.61139],[27.048297,53.610678],[27.048043,53.610023],[27.047563,53.608772],[27.047438,53.608462],[27.046559,53.606286],[27.045343,53.603274],[27.04443,53.60109],[27.0443,53.600743],[27.043547,53.598835],[27.043293,53.598192],[27.043241,53.598063],[27.042349,53.595867],[27.042151,53.595381],[27.041619,53.594027],[27.04115,53.592868],[27.041034,53.592582],[27.040778,53.592072],[27.040532,53.591549],[27.040223,53.591054],[27.039883,53.590632],[27.039391,53.590003],[27.03899,53.589576],[27.038674,53.589274],[27.038273,53.588966],[27.037296,53.588245],[27.03672,53.587886],[27.0359,53.587449],[27.03458,53.586803],[27.031526,53.585307],[27.031106,53.585099],[27.029617,53.584379],[27.026128,53.582691],[27.019914,53.579679],[27.013353,53.576498],[27.008282,53.57405],[27.006931,53.573398],[27.002709,53.571356],[27.000473,53.570275],[26.996465,53.568345],[26.990039,53.565255],[26.984911,53.562791],[26.973942,53.557505],[26.973813,53.557442],[26.973512,53.557314],[26.972942,53.55704],[26.972618,53.556884],[26.970134,53.55569],[26.967319,53.554336],[26.966754,53.554064],[26.964966,53.553206],[26.96425,53.552884],[26.963506,53.552579],[26.963171,53.552443],[26.962871,53.55232],[26.961882,53.551976],[26.96088,53.55165],[26.959487,53.551274],[26.95866,53.551074],[26.95697,53.550698],[26.955533,53.550367],[26.955022,53.550258],[26.952151,53.54961],[26.946871,53.548407],[26.937173,53.546246],[26.934882,53.545743],[26.932044,53.545113],[26.931882,53.545082],[26.928439,53.544314],[26.927273,53.544055],[26.926066,53.54379],[26.922293,53.542969],[26.918704,53.542183],[26.909847,53.540211],[26.905155,53.539164],[26.905021,53.539134],[26.904522,53.539027],[26.903731,53.538847],[26.901736,53.538408],[26.90164,53.538386],[26.901423,53.538341],[26.899034,53.537796],[26.897769,53.537529],[26.892847,53.536449],[26.890492,53.535903],[26.876482,53.532829],[26.875079,53.532509],[26.873849,53.532238],[26.872702,53.531985],[26.870232,53.531445],[26.868243,53.531011],[26.866259,53.530597],[26.864725,53.530331],[26.864592,53.530307],[26.863121,53.530078],[26.862213,53.529939],[26.861349,53.529838],[26.859086,53.529581],[26.857489,53.52944],[26.855192,53.529336],[26.853335,53.529274],[26.851333,53.529259],[26.849592,53.529319],[26.848418,53.529372],[26.847128,53.529447],[26.845275,53.529606],[26.843599,53.529784],[26.841869,53.530001],[26.840873,53.530148],[26.839936,53.530301],[26.838144,53.530627],[26.837048,53.530837],[26.834771,53.531296],[26.832867,53.531685],[26.832544,53.531747],[26.822982,53.533672],[26.818278,53.534614],[26.815681,53.535069],[26.812975,53.535481],[26.811103,53.535747],[26.806694,53.536209],[26.805285,53.536327],[26.803546,53.536443],[26.80173,53.536546],[26.799051,53.536649],[26.795971,53.536693],[26.793686,53.536678],[26.791183,53.536624],[26.788429,53.536492],[26.786727,53.536377],[26.783408,53.536102],[26.78119,53.535884],[26.779315,53.535666],[26.777259,53.535346],[26.773667,53.534759],[26.769588,53.534106],[26.767518,53.533786],[26.766117,53.533552],[26.763442,53.533121],[26.762811,53.533027],[26.759575,53.532492],[26.759171,53.532426],[26.758636,53.532338],[26.755771,53.531869],[26.752726,53.53137],[26.749745,53.530889],[26.74686,53.530416],[26.744462,53.529996],[26.743477,53.529817],[26.740788,53.529323],[26.734217,53.528007],[26.731857,53.527522],[26.730487,53.527248],[26.728097,53.52673],[26.724591,53.525964],[26.718551,53.52455],[26.716311,53.523991],[26.710891,53.522638],[26.706942,53.521624],[26.704168,53.520902],[26.701236,53.520139],[26.694087,53.518302],[26.692272,53.517836],[26.691074,53.517496],[26.69033,53.5173],[26.689511,53.517063],[26.688764,53.516834],[26.687794,53.516525],[26.687079,53.516298],[26.685037,53.515625],[26.681151,53.51422],[26.680793,53.514082],[26.679987,53.513771],[26.679632,53.513634],[26.67806,53.512984],[26.676283,53.512203],[26.675924,53.512029],[26.674537,53.511358],[26.672715,53.510406],[26.670924,53.509441],[26.670443,53.509173],[26.670029,53.508943],[26.668386,53.508001],[26.667115,53.507257],[26.665836,53.506508],[26.665028,53.506021],[26.664664,53.50581],[26.663639,53.505217],[26.662863,53.504763],[26.661308,53.503852],[26.660943,53.503639],[26.659813,53.503007],[26.656993,53.501423],[26.653911,53.499618],[26.65268,53.498905],[26.650774,53.497791],[26.647196,53.495705],[26.644663,53.494147],[26.643446,53.493374],[26.640886,53.491624],[26.638998,53.490217],[26.636961,53.488637],[26.634095,53.486212],[26.632034,53.484302],[26.630194,53.482496],[26.626882,53.479254],[26.626217,53.478588],[26.625686,53.478036],[26.625326,53.477693],[26.624091,53.476476],[26.618347,53.470848],[26.612573,53.465142],[26.610534,53.463127],[26.606924,53.459574],[26.602768,53.455436],[26.600641,53.453143],[26.599201,53.451466],[26.597414,53.449282],[26.596199,53.447681],[26.595446,53.446718],[26.594594,53.445488],[26.594333,53.445286],[26.594138,53.445187],[26.593986,53.445148],[26.593656,53.445126],[26.592233,53.445133],[26.591474,53.445122],[26.588949,53.444909],[26.588576,53.44488],[26.588412,53.444917],[26.588306,53.444988],[26.588205,53.445105],[26.588129,53.445216],[26.585038,53.445006],[26.581509,53.444796],[26.574777,53.444383],[26.573284,53.444293],[26.565719,53.443819],[26.556116,53.443216],[26.554036,53.443115],[26.55014,53.442863],[26.545881,53.442596],[26.539199,53.442196],[26.535297,53.441959],[26.531212,53.441699],[26.529276,53.441593],[26.528448,53.441555],[26.527514,53.44152],[26.526764,53.441535],[26.526159,53.441616],[26.525418,53.441747],[26.520654,53.442803],[26.516484,53.443717],[26.511833,53.444727],[26.509013,53.445357],[26.507197,53.44576],[26.506489,53.445917],[26.504616,53.44633],[26.502424,53.446816],[26.496197,53.448176],[26.4924,53.448981],[26.489979,53.449527],[26.489713,53.449594],[26.489281,53.449706],[26.488667,53.449861],[26.486771,53.450445],[26.48527,53.450901],[26.48512,53.450947],[26.484914,53.451006],[26.48454,53.451114],[26.484232,53.451203],[26.483793,53.45133],[26.483391,53.451454],[26.483212,53.45151],[26.482975,53.451581],[26.482561,53.451703],[26.48239,53.451749],[26.482117,53.451831],[26.481454,53.452028],[26.481249,53.452089],[26.479553,53.452578],[26.478966,53.452747],[26.478339,53.452934],[26.477455,53.453189],[26.475921,53.453646],[26.473886,53.454253],[26.473701,53.454148],[26.472603,53.4535],[26.471162,53.452621],[26.470788,53.452377],[26.469934,53.45187],[26.46948,53.451578],[26.469356,53.451495],[26.469267,53.451426],[26.469731,53.451232],[26.469818,53.451198],[26.470148,53.451052],[26.470343,53.450933],[26.470445,53.450857],[26.470596,53.450735],[26.470649,53.450685],[26.470833,53.450514],[26.471001,53.450348],[26.471103,53.450241],[26.47134,53.450002],[26.471592,53.449695],[26.471929,53.449265],[26.47228,53.448794],[26.472481,53.448519],[26.472743,53.44816],[26.47281,53.448067],[26.472911,53.447942],[26.473058,53.447739],[26.473335,53.447358],[26.473642,53.446946],[26.475932,53.443878],[26.47613,53.443603],[26.477478,53.441793],[26.477476,53.441703],[26.477476,53.441627],[26.477431,53.441602],[26.477369,53.441546],[26.477347,53.441506],[26.47734,53.441463],[26.47735,53.441413],[26.477364,53.441386],[26.477411,53.441337],[26.477474,53.441299],[26.477577,53.441266],[26.477691,53.441256],[26.47774,53.441258],[26.477845,53.441201],[26.477954,53.441144],[26.478024,53.441032],[26.478287,53.440642],[26.47848,53.440264],[26.479071,53.439007],[26.480907,53.435191],[26.48143,53.434104],[26.481497,53.433965],[26.482773,53.431315],[26.484898,53.426904],[26.485017,53.426658],[26.485093,53.426501],[26.488725,53.418961],[26.489269,53.417785],[26.489643,53.416975],[26.490129,53.41597],[26.490373,53.415518],[26.490684,53.41506],[26.491883,53.413241],[26.494387,53.409503],[26.494538,53.409277],[26.494984,53.408625],[26.4953,53.408162],[26.496371,53.406595],[26.497806,53.404388],[26.498761,53.403005],[26.499114,53.402442],[26.499923,53.401202],[26.500191,53.400717],[26.500334,53.400495],[26.500688,53.399975],[26.500736,53.3999],[26.501751,53.398361],[26.502073,53.397826],[26.502307,53.397374],[26.502698,53.396391],[26.503145,53.395189],[26.503811,53.393167],[26.50429,53.391594],[26.505294,53.388432],[26.505739,53.38704],[26.505757,53.386979],[26.505971,53.386243],[26.506212,53.385416],[26.506534,53.385023],[26.506863,53.38457],[26.507557,53.383744],[26.508375,53.382693],[26.508839,53.382087],[26.509176,53.38167],[26.509691,53.381026],[26.509991,53.380645],[26.510173,53.380354],[26.510324,53.380035],[26.510427,53.379659],[26.510475,53.379332],[26.510457,53.379069],[26.510416,53.378767],[26.510311,53.378416],[26.510207,53.378046],[26.509905,53.377137],[26.509794,53.376753],[26.50958,53.376004],[26.509524,53.375799],[26.509486,53.375467],[26.509484,53.375115],[26.509794,53.374132],[26.510283,53.37259],[26.511115,53.369981],[26.512547,53.365398],[26.51317,53.363464],[26.513847,53.361275],[26.514151,53.360329],[26.514163,53.360171],[26.514173,53.360042],[26.51415,53.359971],[26.514104,53.35987],[26.514052,53.359822],[26.514017,53.359761],[26.514025,53.359718],[26.514046,53.359668],[26.514109,53.359616],[26.514175,53.359575],[26.514251,53.359559],[26.514331,53.35949],[26.514493,53.359216],[26.514932,53.357787],[26.515229,53.356848],[26.516121,53.353977],[26.516134,53.353936],[26.517525,53.34948],[26.517898,53.348255],[26.520442,53.339987],[26.520487,53.339851],[26.52091,53.338494],[26.521125,53.337842],[26.521494,53.336641],[26.521548,53.336448],[26.521581,53.336198],[26.521581,53.336035],[26.521556,53.335899],[26.521549,53.335809],[26.521587,53.335707],[26.521653,53.335579],[26.521807,53.335388],[26.521882,53.335358],[26.522034,53.335286],[26.522264,53.33521],[26.522417,53.335208],[26.522555,53.335144],[26.522856,53.33498],[26.52337,53.334607],[26.523676,53.334395],[26.524032,53.334187],[26.52448,53.333948],[26.525046,53.333688],[26.525749,53.333412],[26.526485,53.333186],[26.527108,53.333026],[26.527753,53.332894],[26.528106,53.332842],[26.528518,53.332785],[26.529225,53.332725],[26.529954,53.332694],[26.530743,53.332686],[26.532065,53.332716],[26.534018,53.332776],[26.536279,53.33284],[26.5369,53.332853],[26.538317,53.332893],[26.539148,53.332914],[26.539375,53.332917],[26.539762,53.332922],[26.540096,53.332922],[26.540397,53.332916],[26.540756,53.332909],[26.541123,53.332891],[26.541422,53.33287],[26.541678,53.332844],[26.54213,53.332787],[26.542546,53.332726],[26.542899,53.332663],[26.543131,53.332615],[26.543328,53.332574],[26.543732,53.332473],[26.544243,53.332321],[26.544684,53.332153],[26.545246,53.331911],[26.545701,53.331681],[26.54618,53.33139],[26.546682,53.331059],[26.548438,53.329767],[26.549067,53.329316],[26.549757,53.328771],[26.550246,53.328379],[26.550648,53.328041],[26.551008,53.327681],[26.551434,53.327189],[26.551862,53.32661],[26.552042,53.326374],[26.553435,53.324552],[26.55392,53.323995],[26.55464,53.32317],[26.555393,53.322418],[26.556053,53.32177],[26.559314,53.319036],[26.559401,53.318951],[26.560352,53.318019],[26.56141,53.316873],[26.564692,53.313322],[26.566867,53.310918],[26.567068,53.310697],[26.570378,53.307082],[26.572965,53.304266],[26.574266,53.302846],[26.574793,53.302253],[26.574951,53.302015],[26.575165,53.301643],[26.575315,53.301285],[26.575383,53.300902],[26.57543,53.300481],[26.575414,53.300132],[26.575381,53.299814],[26.575321,53.299317],[26.574978,53.296108],[26.574966,53.295632],[26.57498,53.29519],[26.575037,53.294835],[26.575115,53.294583],[26.575139,53.29436],[26.575106,53.294208],[26.574997,53.294152],[26.574938,53.294046],[26.574934,53.293914],[26.575022,53.293675],[26.575136,53.293543],[26.575285,53.293438],[26.575488,53.293352],[26.576276,53.292743],[26.578703,53.290666],[26.582592,53.287421],[26.58359,53.286589],[26.58465,53.285704],[26.58511,53.28532],[26.585782,53.284667],[26.586041,53.284418],[26.586921,53.283571],[26.590317,53.280301],[26.591581,53.279083],[26.596044,53.274787],[26.597203,53.273671],[26.597266,53.27361],[26.598411,53.272498],[26.598631,53.272275],[26.59885,53.272049],[26.599543,53.271378],[26.600061,53.270876],[26.601056,53.26993],[26.603677,53.267437],[26.60503,53.2661],[26.605175,53.26596],[26.605971,53.265188],[26.606744,53.264437],[26.607098,53.264094],[26.608073,53.26315],[26.612684,53.258686],[26.615136,53.256312],[26.615317,53.256137],[26.615377,53.256079],[26.615576,53.255885],[26.620164,53.251414],[26.623214,53.248465],[26.624746,53.246984],[26.624977,53.246761],[26.625057,53.246668],[26.625236,53.24649],[26.625449,53.246268],[26.626124,53.245626],[26.626335,53.245425],[26.626627,53.245147],[26.629789,53.242137],[26.630473,53.241485],[26.630738,53.241226],[26.631221,53.240751],[26.631611,53.240377],[26.632121,53.239886],[26.632847,53.239189],[26.633116,53.238793],[26.633288,53.238541],[26.633317,53.23844],[26.633388,53.238346],[26.633495,53.238267],[26.633632,53.238205],[26.633793,53.238166],[26.633966,53.238153],[26.634138,53.238166],[26.6343,53.238205],[26.634372,53.238233],[26.634459,53.238279],[26.634531,53.238333],[26.634586,53.238394],[26.634624,53.238459],[26.634643,53.238527],[26.634642,53.238596],[26.634616,53.238677],[26.634563,53.238752],[26.634542,53.238895],[26.634541,53.238973],[26.63456,53.239072],[26.634664,53.239222],[26.635851,53.240437],[26.635969,53.240554],[26.635995,53.240581],[26.636864,53.241475],[26.63849,53.243178],[26.639301,53.243953],[26.639775,53.244372],[26.640086,53.244617],[26.640818,53.245158],[26.641516,53.24564],[26.642427,53.246207],[26.643268,53.246666],[26.643912,53.246989],[26.644542,53.247281],[26.64514,53.247544],[26.645769,53.247804],[26.646337,53.248018],[26.646873,53.248198],[26.647527,53.248418],[26.648246,53.248626],[26.648829,53.248786],[26.650724,53.249305],[26.651944,53.249615],[26.653293,53.249933],[26.654289,53.250156],[26.655241,53.250341],[26.657087,53.250671],[26.661041,53.251238],[26.663861,53.251481],[26.665355,53.251574],[26.66682,53.251635],[26.669394,53.251667],[26.674476,53.251746],[26.674921,53.251727],[26.675243,53.251711],[26.675385,53.251698],[26.675439,53.251693],[26.675507,53.25168],[26.675546,53.251657],[26.675589,53.251641],[26.675636,53.251631],[26.675686,53.251627],[26.675736,53.251629],[26.675785,53.251638],[26.675829,53.251652],[26.675867,53.251672],[26.675884,53.251684],[26.676061,53.251709],[26.676315,53.251736],[26.67652,53.251744],[26.676859,53.251771],[26.678965,53.251758],[26.681061,53.251714],[26.682599,53.251616],[26.684982,53.251373],[26.686323,53.251155],[26.68659,53.251113],[26.686973,53.251053],[26.687351,53.25098],[26.687588,53.250933],[26.689013,53.250656],[26.690511,53.250315],[26.691437,53.250076],[26.692883,53.249643],[26.694442,53.249111],[26.694756,53.24899],[26.695678,53.248637],[26.696672,53.248201],[26.698313,53.247326],[26.699472,53.246707],[26.701268,53.245663],[26.703733,53.244174],[26.705585,53.243046],[26.708406,53.241328],[26.709786,53.240511],[26.715043,53.23735],[26.715884,53.23685],[26.716993,53.236191],[26.718941,53.234769],[26.719218,53.234517],[26.720339,53.23353],[26.721096,53.232719],[26.721742,53.23199],[26.722395,53.231138],[26.722955,53.230329],[26.723086,53.230112],[26.723364,53.229645],[26.723423,53.229543],[26.723488,53.229441],[26.723528,53.229379],[26.723607,53.229257],[26.723687,53.229133],[26.721445,53.22865],[26.72032,53.228402],[26.719785,53.228285],[26.719555,53.22823],[26.718321,53.227956],[26.717144,53.227694],[26.716721,53.227592],[26.716082,53.227398],[26.715541,53.227203],[26.714982,53.227],[26.714833,53.226946],[26.714173,53.226708],[26.713294,53.226364],[26.712582,53.226029],[26.71213,53.225789],[26.711479,53.225422],[26.710826,53.225024],[26.710196,53.224639],[26.709425,53.22412],[26.706756,53.222177],[26.705377,53.221169],[26.704363,53.220428],[26.704155,53.220503],[26.701978,53.221286],[26.701039,53.221589],[26.700308,53.221825],[26.698684,53.222082],[26.697659,53.222288],[26.697574,53.222304],[26.697404,53.222335],[26.697228,53.222362],[26.696855,53.22243],[26.696112,53.222557],[26.695876,53.222594],[26.694717,53.222812],[26.694004,53.222945],[26.693795,53.222983],[26.693655,53.222824],[26.693451,53.222708],[26.693326,53.222635],[26.693033,53.222696],[26.692899,53.222735],[26.692894,53.222737],[26.692894,53.222737],[26.692842,53.222753],[26.692839,53.222791],[26.692614,53.222956],[26.692608,53.222957],[26.692603,53.222957],[26.69255,53.222943],[26.692603,53.222957],[26.692608,53.222957],[26.692614,53.222956],[26.692839,53.222791],[26.692842,53.222753],[26.692894,53.222737],[26.692899,53.222735],[26.693033,53.222696],[26.693326,53.222635],[26.693451,53.222708],[26.693655,53.222824],[26.693795,53.222983],[26.694004,53.222945],[26.694717,53.222812],[26.695876,53.222594],[26.696112,53.222557],[26.696855,53.22243],[26.697228,53.222362],[26.697404,53.222335],[26.697574,53.222304],[26.697659,53.222288],[26.698684,53.222082],[26.700308,53.221825],[26.701039,53.221589],[26.701978,53.221286],[26.704155,53.220503],[26.704363,53.220428],[26.705377,53.221169],[26.706756,53.222177],[26.709425,53.22412],[26.710196,53.224639],[26.710826,53.225024],[26.711479,53.225422],[26.71213,53.225789],[26.712582,53.226029],[26.713294,53.226364],[26.714173,53.226708],[26.714833,53.226946],[26.714982,53.227],[26.715541,53.227203],[26.716082,53.227398],[26.716721,53.227592],[26.717144,53.227694],[26.718321,53.227956],[26.719555,53.22823],[26.719785,53.228285],[26.72032,53.228402],[26.721445,53.22865],[26.723687,53.229133],[26.723607,53.229257],[26.723528,53.229379],[26.723488,53.229441],[26.723423,53.229543],[26.723364,53.229645],[26.723086,53.230112],[26.722955,53.230329],[26.722395,53.231138],[26.721742,53.23199],[26.721096,53.232719],[26.720339,53.23353],[26.719218,53.234517],[26.718941,53.234769],[26.716993,53.236191],[26.715884,53.23685],[26.715043,53.23735],[26.709786,53.240511],[26.708406,53.241328],[26.705585,53.243046],[26.703733,53.244174],[26.701268,53.245663],[26.699472,53.246707],[26.698313,53.247326],[26.696672,53.248201],[26.695678,53.248637],[26.694756,53.24899],[26.694442,53.249111],[26.692883,53.249643],[26.691437,53.250076],[26.690511,53.250315],[26.689013,53.250656],[26.687588,53.250933],[26.687351,53.25098],[26.686973,53.251053],[26.68659,53.251113],[26.686323,53.251155],[26.684982,53.251373],[26.682599,53.251616],[26.681061,53.251714],[26.678965,53.251758],[26.676859,53.251771],[26.676437,53.25179],[26.676216,53.2518],[26.67608,53.251811],[26.675969,53.251825],[26.675901,53.251837],[26.67587,53.251863],[26.675829,53.251885],[26.675784,53.2519],[26.675733,53.251909],[26.675681,53.251911],[26.67563,53.251906],[26.675581,53.251894],[26.675538,53.251877],[26.675504,53.251855],[26.675478,53.25183],[26.675384,53.251806],[26.675227,53.251789],[26.674939,53.251774],[26.674476,53.251746],[26.669394,53.251667],[26.66682,53.251635],[26.665355,53.251574],[26.663861,53.251481],[26.661041,53.251238],[26.657087,53.250671],[26.655241,53.250341],[26.654289,53.250156],[26.653293,53.249933],[26.651944,53.249615],[26.650724,53.249305],[26.648829,53.248786],[26.648246,53.248626],[26.647527,53.248418],[26.646873,53.248198],[26.646337,53.248018],[26.645769,53.247804],[26.64514,53.247544],[26.644542,53.247281],[26.643912,53.246989],[26.643268,53.246666],[26.642427,53.246207],[26.641516,53.24564],[26.640818,53.245158],[26.640086,53.244617],[26.639775,53.244372],[26.639301,53.243953],[26.63849,53.243178],[26.636864,53.241475],[26.635995,53.240581],[26.635969,53.240554],[26.635851,53.240437],[26.634664,53.239222],[26.634468,53.239109],[26.634369,53.239058],[26.634254,53.239019],[26.634093,53.238984],[26.63396,53.238965],[26.633852,53.238959],[26.633747,53.238943],[26.63353,53.238948],[26.633384,53.23896],[26.633129,53.239043],[26.632847,53.239189],[26.632121,53.239886],[26.631611,53.240377],[26.631221,53.240751],[26.630738,53.241226],[26.630473,53.241485],[26.629789,53.242137],[26.626627,53.245147],[26.626335,53.245425],[26.626124,53.245626],[26.625449,53.246268],[26.625236,53.24649],[26.625057,53.246668],[26.624977,53.246761],[26.624746,53.246984],[26.623214,53.248465],[26.620164,53.251414],[26.615576,53.255885],[26.615377,53.256079],[26.615317,53.256137],[26.615136,53.256312],[26.612684,53.258686],[26.608073,53.26315],[26.607098,53.264094],[26.606744,53.264437],[26.605971,53.265188],[26.605175,53.26596],[26.60503,53.2661],[26.603677,53.267437],[26.601056,53.26993],[26.600061,53.270876],[26.599543,53.271378],[26.59885,53.272049],[26.598631,53.272275],[26.598411,53.272498],[26.597266,53.27361],[26.597203,53.273671],[26.596044,53.274787],[26.591581,53.279083],[26.590317,53.280301],[26.586921,53.283571],[26.586041,53.284418],[26.585782,53.284667],[26.58511,53.28532],[26.58465,53.285704],[26.58359,53.286589],[26.582592,53.287421],[26.578703,53.290666],[26.576276,53.292743],[26.576116,53.292989],[26.576034,53.293158],[26.575988,53.293493],[26.575995,53.293658],[26.575967,53.293814],[26.575881,53.293957],[26.575811,53.294028],[26.57568,53.294136],[26.575115,53.294583],[26.575037,53.294835],[26.57498,53.29519],[26.574966,53.295632],[26.574978,53.296108],[26.575321,53.299317],[26.575381,53.299814],[26.575414,53.300132],[26.57543,53.300481],[26.575383,53.300902],[26.575315,53.301285],[26.575165,53.301643],[26.574951,53.302015],[26.574793,53.302253],[26.574266,53.302846],[26.572965,53.304266],[26.570378,53.307082],[26.567068,53.310697],[26.566867,53.310918],[26.564692,53.313322],[26.56141,53.316873],[26.560352,53.318019],[26.559401,53.318951],[26.559314,53.319036],[26.556053,53.32177],[26.555393,53.322418],[26.55464,53.32317],[26.55392,53.323995],[26.553435,53.324552],[26.552042,53.326374],[26.551862,53.32661],[26.551434,53.327189],[26.551008,53.327681],[26.550648,53.328041],[26.550246,53.328379],[26.549757,53.328771],[26.549067,53.329316],[26.548438,53.329767],[26.546682,53.331059],[26.54618,53.33139],[26.545701,53.331681],[26.545246,53.331911],[26.544684,53.332153],[26.544243,53.332321],[26.543732,53.332473],[26.543328,53.332574],[26.543131,53.332615],[26.542899,53.332663],[26.542546,53.332726],[26.54213,53.332787],[26.541678,53.332844],[26.541422,53.33287],[26.541123,53.332891],[26.540756,53.332909],[26.540397,53.332916],[26.540096,53.332922],[26.539762,53.332922],[26.539375,53.332917],[26.539148,53.332914],[26.538317,53.332893],[26.5369,53.332853],[26.536279,53.33284],[26.534018,53.332776],[26.532065,53.332716],[26.530743,53.332686],[26.529954,53.332694],[26.529225,53.332725],[26.528518,53.332785],[26.528106,53.332842],[26.527753,53.332894],[26.527108,53.333026],[26.526485,53.333186],[26.525749,53.333412],[26.525046,53.333688],[26.52448,53.333948],[26.524032,53.334187],[26.523676,53.334395],[26.52337,53.334607],[26.522856,53.33498],[26.522733,53.335255],[26.522697,53.335436],[26.52266,53.335622],[26.522551,53.335772],[26.52238,53.335916],[26.522152,53.336037],[26.521888,53.336155],[26.521713,53.33628],[26.521548,53.336448],[26.521494,53.336641],[26.521125,53.337842],[26.52091,53.338494],[26.520487,53.339851],[26.520442,53.339987],[26.517898,53.348255],[26.517525,53.34948],[26.516134,53.353936],[26.516121,53.353977],[26.515229,53.356848],[26.514932,53.357787],[26.514493,53.359216],[26.5145,53.359282],[26.514499,53.359435],[26.514508,53.359509],[26.514564,53.359617],[26.514642,53.359689],[26.514661,53.359743],[26.514653,53.359788],[26.514592,53.359858],[26.514514,53.359908],[26.514423,53.359935],[26.514327,53.360018],[26.514235,53.360176],[26.514151,53.360329],[26.513847,53.361275],[26.51317,53.363464],[26.512547,53.365398],[26.511115,53.369981],[26.510283,53.37259],[26.509794,53.374132],[26.509484,53.375115],[26.509486,53.375467],[26.509524,53.375799],[26.50958,53.376004],[26.509794,53.376753],[26.509905,53.377137],[26.510207,53.378046],[26.510311,53.378416],[26.510416,53.378767],[26.510457,53.379069],[26.510475,53.379332],[26.510427,53.379659],[26.510324,53.380035],[26.510173,53.380354],[26.509991,53.380645],[26.509691,53.381026],[26.509176,53.38167],[26.508839,53.382087],[26.508375,53.382693],[26.507557,53.383744],[26.507373,53.383696],[26.50722,53.383637],[26.507064,53.383582],[26.506926,53.383519],[26.506815,53.383433],[26.507632,53.380939],[26.507682,53.380711],[26.507718,53.380524],[26.5077,53.380445],[26.507552,53.380243],[26.505445,53.378923],[26.504623,53.37842],[26.501344,53.376408],[26.494009,53.371885],[26.488861,53.36871],[26.48374,53.365552],[26.480115,53.363361],[26.47297,53.359253],[26.470116,53.357629],[26.468498,53.356726],[26.46606,53.355349],[26.463075,53.353648],[26.46197,53.353023],[26.460887,53.352404],[26.454634,53.34886],[26.453358,53.348133],[26.45278,53.347805],[26.451054,53.346818],[26.450569,53.346551],[26.449044,53.345652],[26.445787,53.343801],[26.445324,53.343538],[26.44471,53.343182],[26.442851,53.342147],[26.440966,53.341086],[26.440048,53.340573],[26.439441,53.340234],[26.437048,53.338896],[26.435154,53.337824],[26.43443,53.33741],[26.432587,53.336339],[26.43216,53.336103],[26.429565,53.334635],[26.427742,53.333604],[26.423539,53.33123],[26.419392,53.328874],[26.418319,53.328249],[26.416431,53.327155],[26.412547,53.324727],[26.410251,53.323221],[26.408219,53.321816],[26.407314,53.32119],[26.406089,53.320379],[26.403798,53.31876],[26.401475,53.317177],[26.399116,53.315545],[26.398398,53.315048],[26.398267,53.314959],[26.397181,53.314222],[26.39562,53.313131],[26.39255,53.311025],[26.390557,53.309656],[26.38803,53.307902],[26.387711,53.307689],[26.386609,53.306952],[26.385305,53.306113],[26.383957,53.305312],[26.382201,53.304325],[26.38043,53.303385],[26.379355,53.302814],[26.378131,53.302234],[26.376469,53.301472],[26.375875,53.301199],[26.374366,53.300548],[26.372904,53.299949],[26.371765,53.299509],[26.370663,53.29909],[26.369216,53.298575],[26.368776,53.298426],[26.367955,53.298148],[26.365742,53.29744],[26.363511,53.296776],[26.35964,53.295653],[26.359022,53.295475],[26.357068,53.294915],[26.356121,53.294637],[26.350869,53.293097],[26.35006,53.292865],[26.344248,53.291168],[26.341796,53.290445],[26.339286,53.289666],[26.336128,53.288515],[26.335162,53.288174],[26.333309,53.287443],[26.331448,53.286656],[26.329951,53.285949],[26.328356,53.285179],[26.327385,53.284711],[26.324661,53.283387],[26.323661,53.282902],[26.319955,53.281061],[26.313086,53.277683],[26.313005,53.277643],[26.312405,53.277348],[26.310347,53.276346],[26.308781,53.275564],[26.305913,53.274156],[26.304007,53.273222],[26.302062,53.272302],[26.301561,53.272075],[26.300983,53.271813],[26.298901,53.270935],[26.29724,53.270267],[26.295543,53.269658],[26.292952,53.268763],[26.29197,53.26845],[26.290307,53.267919],[26.288755,53.267461],[26.288607,53.26742],[26.28787,53.267218],[26.286214,53.266796],[26.283965,53.266243],[26.281896,53.265779],[26.279541,53.265253],[26.27619,53.264517],[26.27472,53.264196],[26.270851,53.263353],[26.268802,53.262905],[26.266667,53.26243],[26.262821,53.26157],[26.260683,53.261096],[26.256054,53.260072],[26.253812,53.259581],[26.250591,53.25887],[26.24794,53.258289],[26.246513,53.257973],[26.245193,53.25768],[26.242493,53.257078],[26.240229,53.256544],[26.237782,53.255924],[26.2353,53.25529],[26.232603,53.254529],[26.231371,53.254182],[26.229204,53.253535],[26.226978,53.252851],[26.224884,53.252198],[26.220562,53.25074],[26.219408,53.250341],[26.206336,53.245825],[26.204551,53.24521],[26.201052,53.244003],[26.19357,53.241416],[26.192019,53.24088],[26.19056,53.240376],[26.185309,53.238587],[26.183198,53.23782],[26.181501,53.237193],[26.180657,53.236853],[26.179517,53.236392],[26.178076,53.235788],[26.176765,53.235229],[26.175538,53.234663],[26.174401,53.234115],[26.172986,53.233396],[26.17167,53.232694],[26.170081,53.231813],[26.169068,53.231211],[26.167435,53.230199],[26.164605,53.228445],[26.161924,53.226777],[26.159255,53.225127],[26.158556,53.224704],[26.157589,53.224119],[26.155864,53.223091],[26.154417,53.222272],[26.153095,53.221553],[26.151811,53.220902],[26.150526,53.220275],[26.148935,53.219529],[26.147638,53.219011],[26.146541,53.218555],[26.144881,53.21788],[26.143037,53.217182],[26.142469,53.216965],[26.141541,53.216637],[26.140581,53.216324],[26.139264,53.215894],[26.137177,53.215184],[26.134342,53.21439],[26.132384,53.213881],[26.126292,53.212375],[26.123951,53.211797],[26.122077,53.211344],[26.120809,53.211033],[26.120669,53.210999],[26.118486,53.210463],[26.116175,53.209809],[26.114636,53.209339],[26.113077,53.208824],[26.112849,53.208743],[26.111689,53.208328],[26.110277,53.207792],[26.109468,53.207464],[26.107915,53.206826],[26.107516,53.206649],[26.106011,53.20598],[26.102484,53.204367],[26.099957,53.203169],[26.098879,53.202666],[26.09858,53.202525],[26.0977,53.202133],[26.095625,53.201215],[26.092449,53.199776],[26.087073,53.197338],[26.083674,53.195738],[26.082844,53.195374],[26.081583,53.19477],[26.08006,53.193988],[26.078608,53.193232],[26.077864,53.192835],[26.075951,53.19175],[26.074375,53.190861],[26.073665,53.190464],[26.072131,53.189586],[26.071278,53.189082],[26.068928,53.187793],[26.068089,53.187388],[26.06715,53.18694],[26.066411,53.186608],[26.06603,53.186453],[26.064905,53.186032],[26.063652,53.185538],[26.062072,53.18493],[26.060529,53.184428],[26.060127,53.184297],[26.058476,53.183813],[26.057182,53.183476],[26.05588,53.183157],[26.05435,53.182817],[26.05305,53.182557],[26.051513,53.182297],[26.050349,53.182112],[26.049038,53.18193],[26.047743,53.181778],[26.046342,53.181648],[26.045048,53.181538],[26.04404,53.181486],[26.043344,53.181454],[26.041709,53.181377],[26.041378,53.181373],[26.040585,53.181346],[26.038044,53.181257],[26.035858,53.181142],[26.034668,53.181057],[26.033181,53.180913],[26.031768,53.180769],[26.031523,53.180739],[26.030886,53.180662],[26.029614,53.180486],[26.028275,53.180262],[26.027125,53.180052],[26.02586,53.179799],[26.024627,53.179524],[26.021298,53.178677],[26.020835,53.17855],[26.019349,53.17814],[26.018837,53.177992],[26.018144,53.17779],[26.017605,53.177631],[26.017037,53.177462],[26.01468,53.17677],[26.012601,53.176152],[26.010584,53.1755],[26.008866,53.174897],[26.007114,53.174254],[26.005224,53.173505],[26.004566,53.173231],[26.003909,53.172958],[26.001429,53.171872],[25.999156,53.170885],[25.99591,53.16947],[25.994552,53.168882],[25.993207,53.168312],[25.992383,53.167941],[25.992229,53.167872],[25.991273,53.16742],[25.990338,53.166931],[25.989342,53.166421],[25.988723,53.166062],[25.987744,53.165476],[25.986944,53.164986],[25.985964,53.164348],[25.985401,53.16393],[25.984825,53.163501],[25.984354,53.163135],[25.983984,53.162828],[25.983515,53.16244],[25.983036,53.162052],[25.982294,53.161369],[25.98185,53.160946],[25.981388,53.160508],[25.980383,53.159509],[25.980021,53.159297],[25.979834,53.159219],[25.979573,53.159176],[25.97923,53.15915],[25.978983,53.159182],[25.9788,53.15924],[25.978598,53.15936],[25.978474,53.159516],[25.97845,53.15967],[25.978485,53.15987],[25.978634,53.160034],[25.97884,53.160134],[25.979108,53.160206],[25.979447,53.160224],[25.980207,53.160149],[25.980442,53.160111],[25.981527,53.159929],[25.986303,53.159132],[25.98673,53.159066],[25.987516,53.158934],[25.987976,53.158855],[25.990887,53.158386],[25.991553,53.158268],[25.992099,53.158157],[25.992661,53.157994],[25.992974,53.157877],[25.993262,53.157726],[25.993677,53.157453],[25.994256,53.157065],[25.994719,53.156698],[25.995262,53.156111],[25.995562,53.155791],[25.995977,53.155319],[25.99606,53.155061],[25.996776,53.154291],[25.996988,53.154054],[25.997185,53.153844],[25.997376,53.153645],[25.997551,53.153463],[25.998021,53.152958],[25.998284,53.152646],[25.998381,53.152538],[25.998727,53.152156],[25.999024,53.15188],[25.999125,53.151788],[25.999366,53.151602],[26.000018,53.150883],[26.000415,53.150455],[26.000442,53.150424],[26.000977,53.149826],[26.001128,53.149659],[26.001276,53.1495],[26.001679,53.149069],[26.001765,53.148977],[26.0035,53.147121],[26.0039,53.146693],[26.004114,53.146465],[26.004504,53.146048],[26.004761,53.145771],[26.00482,53.145708],[26.005256,53.145226],[26.005836,53.144585],[26.006486,53.14388],[26.006662,53.143676],[26.006829,53.143476],[26.00706,53.14321],[26.007202,53.14306],[26.007676,53.142551],[26.007813,53.142387],[26.007951,53.142221],[26.008037,53.142126],[26.008424,53.141695],[26.008785,53.141269],[26.009162,53.140843],[26.011501,53.138344],[26.012508,53.137233],[26.01252,53.137095],[26.012523,53.136991],[26.012505,53.136974],[26.012328,53.136914],[26.012218,53.136875],[26.011979,53.136791],[26.011862,53.13675],[26.011422,53.136627],[26.010971,53.1365],[26.01043,53.136348],[26.010201,53.13628],[26.009102,53.135957],[26.008208,53.135693],[26.006781,53.13527],[26.005904,53.13501],[26.005825,53.134986],[26.005733,53.134962],[26.00566,53.134942],[26.004652,53.134647],[26.004186,53.134511],[26.003593,53.134338],[26.002651,53.134067],[26.002563,53.134041],[26.002138,53.133919],[26.001265,53.133668],[26.00115,53.133635],[26.001074,53.133614],[25.999791,53.133249],[25.999252,53.133077],[25.998949,53.132914],[25.998811,53.132805],[25.998704,53.132673],[25.998633,53.132546],[25.998502,53.131981],[25.998429,53.13183],[25.998351,53.131714],[25.998253,53.131617],[25.99813,53.131522],[25.997962,53.131429],[25.997738,53.131342],[25.996136,53.130775],[25.995823,53.130664],[25.995572,53.130575],[25.995474,53.13054],[25.994936,53.13035],[25.994786,53.130296],[25.994707,53.13027],[25.994313,53.130137],[25.993298,53.129794],[25.992568,53.129547],[25.991169,53.129061],[25.990967,53.128991],[25.99056,53.12885],[25.990103,53.128692],[25.989298,53.128415],[25.988957,53.128297],[25.988732,53.128219],[25.988593,53.12817],[25.988312,53.128072],[25.98813,53.12799],[25.988022,53.127932],[25.987918,53.127832],[25.987589,53.127364],[25.987495,53.127233],[25.98743,53.12714],[25.986804,53.126248],[25.985689,53.124658],[25.985541,53.124444],[25.98539,53.124206],[25.985142,53.123814],[25.984972,53.123546],[25.984725,53.123157],[25.984578,53.122919],[25.984399,53.122662],[25.984257,53.122455],[25.983958,53.122021],[25.983639,53.121557],[25.983508,53.121421],[25.98338,53.121317],[25.983181,53.121184],[25.982988,53.121077],[25.981969,53.12065],[25.981886,53.120615],[25.981583,53.120488],[25.981046,53.120262],[25.980951,53.120222],[25.980459,53.120015],[25.979949,53.119801],[25.979647,53.119675],[25.979727,53.119609],[25.979779,53.119567],[25.980612,53.118887],[25.981223,53.118409],[25.981876,53.117898],[25.98021,53.117126],[25.979925,53.117003],[25.980436,53.116626],[25.980941,53.116253],[25.981261,53.116017],[25.981411,53.115892],[25.98163,53.115747]],"type":"LineString"},"properties":{"routeId":"minsk","source":"https://routing.openstreetmap.de/routed-car","fetchedAt":"2026-10-08T07:16:38.348Z","distanceMeters":216222.6,"durationSeconds":10513.5,"demoOnly":true}}