{"type":"Feature","geometry":{"coordinates":[[30.350482,53.916591],[30.350984,53.917653],[30.351009,53.917705],[30.350898,53.917724],[30.349783,53.917916],[30.349686,53.917921],[30.349562,53.917901],[30.349472,53.917864],[30.349417,53.917806],[30.349034,53.916813],[30.348887,53.916403],[30.34875,53.916036],[30.348694,53.915992],[30.348616,53.915943],[30.348501,53.915906],[30.348343,53.915884],[30.348153,53.915895],[30.348023,53.915902],[30.347893,53.915915],[30.347192,53.913994],[30.346864,53.913116],[30.346795,53.912932],[30.346771,53.912862],[30.346299,53.911507],[30.346261,53.911411],[30.346212,53.911282],[30.34618,53.911202],[30.345975,53.910493],[30.345951,53.910426],[30.345927,53.910338],[30.345771,53.909745],[30.3456,53.909082],[30.345501,53.908695],[30.345455,53.908514],[30.34543,53.908419],[30.345141,53.90729],[30.345065,53.906992],[30.344845,53.906057],[30.344744,53.90563],[30.344676,53.905315],[30.344653,53.905227],[30.344628,53.905132],[30.344598,53.90498],[30.344407,53.904007],[30.344243,53.903447],[30.344207,53.903379],[30.344022,53.903157],[30.34356,53.902664],[30.343146,53.902252],[30.342616,53.901709],[30.342564,53.901652],[30.342499,53.901581],[30.342198,53.901271],[30.342117,53.901189],[30.341675,53.900732],[30.340951,53.899967],[30.340662,53.899652],[30.34021,53.899183],[30.339761,53.898708],[30.33953,53.898464],[30.339155,53.8981],[30.338781,53.897737],[30.338726,53.897683],[30.338645,53.8975],[30.337963,53.896909],[30.337366,53.896393],[30.337273,53.896317],[30.337118,53.896223],[30.336955,53.896115],[30.3366,53.895847],[30.336654,53.895671],[30.336255,53.89557],[30.336211,53.89554],[30.335751,53.895204],[30.335271,53.895],[30.335045,53.894911],[30.330924,53.893609],[30.330452,53.893498],[30.330109,53.893434],[30.329831,53.893392],[30.328493,53.893203],[30.327476,53.893063],[30.326866,53.892994],[30.32653,53.892997],[30.325911,53.89303],[30.325642,53.893012],[30.325465,53.893027],[30.325277,53.893042],[30.325173,53.893051],[30.324895,53.893074],[30.324012,53.893126],[30.322931,53.893191],[30.322321,53.893236],[30.320205,53.89334],[30.319004,53.893405],[30.318581,53.893427],[30.317935,53.893461],[30.317229,53.893498],[30.317075,53.893508],[30.316114,53.893575],[30.315673,53.893609],[30.314705,53.893698],[30.31365,53.893796],[30.312974,53.893822],[30.312395,53.893835],[30.312116,53.893826],[30.311685,53.89381],[30.311019,53.893759],[30.310761,53.893728],[30.309973,53.893608],[30.309644,53.893553],[30.309426,53.893519],[30.309324,53.893501],[30.308331,53.893345],[30.307419,53.893198],[30.305443,53.892869],[30.304736,53.892757],[30.30455,53.892731],[30.304398,53.892706],[30.301785,53.892294],[30.301064,53.892171],[30.300718,53.89212],[30.300344,53.89206],[30.299649,53.891949],[30.299343,53.891898],[30.297125,53.891536],[30.296653,53.89146],[30.296004,53.891358],[30.295972,53.891353],[30.294987,53.891199],[30.293978,53.891035],[30.293346,53.890932],[30.292185,53.890742],[30.291142,53.89057],[30.28948,53.89026],[30.287916,53.88992],[30.287251,53.889745],[30.286903,53.889652],[30.286446,53.889533],[30.286303,53.889496],[30.285566,53.889305],[30.284393,53.888989],[30.283894,53.888855],[30.283092,53.888648],[30.282335,53.888444],[30.281518,53.888216],[30.280986,53.888078],[30.279796,53.887766],[30.279645,53.887729],[30.278932,53.887535],[30.278328,53.887366],[30.278164,53.88732],[30.278058,53.887285],[30.27788,53.887225],[30.277407,53.887036],[30.277046,53.886866],[30.276649,53.886655],[30.276266,53.886432],[30.275147,53.88574],[30.274765,53.885492],[30.274238,53.885152],[30.273695,53.884823],[30.272752,53.884218],[30.272651,53.884155],[30.272521,53.884075],[30.271819,53.88364],[30.271522,53.883448],[30.271404,53.883372],[30.270969,53.883105],[30.270202,53.882618],[30.270007,53.8825],[30.269837,53.882393],[30.26949,53.882175],[30.269369,53.882097],[30.269276,53.882034],[30.268799,53.881737],[30.268093,53.881287],[30.268,53.88123],[30.26779,53.881091],[30.267529,53.880888],[30.26741,53.88077],[30.26714,53.880475],[30.266919,53.880162],[30.266773,53.87994],[30.266604,53.879617],[30.266553,53.879501],[30.266271,53.878927],[30.266203,53.878785],[30.266106,53.878583],[30.266072,53.878519],[30.266037,53.87845],[30.265935,53.878233],[30.265832,53.878021],[30.265725,53.8778],[30.265638,53.877602],[30.265609,53.877536],[30.265432,53.877148],[30.265071,53.876293],[30.264858,53.875794],[30.264814,53.875696],[30.264322,53.874618],[30.26417,53.874296],[30.262782,53.871366],[30.260578,53.866745],[30.259674,53.864849],[30.258813,53.863011],[30.258037,53.86133],[30.257318,53.859756],[30.257283,53.859679],[30.257232,53.859564],[30.257138,53.859373],[30.256914,53.858834],[30.256413,53.857801],[30.256254,53.857451],[30.255952,53.856789],[30.255547,53.855914],[30.254442,53.853493],[30.253478,53.851379],[30.253345,53.8511],[30.253203,53.850803],[30.251938,53.848155],[30.251163,53.846509],[30.25023,53.84439],[30.248391,53.840475],[30.246724,53.836827],[30.245541,53.834221],[30.245,53.833056],[30.243859,53.83054],[30.243465,53.829669],[30.24325,53.829204],[30.242303,53.827144],[30.240414,53.823038],[30.240246,53.822674],[30.239975,53.822061],[30.239767,53.821603],[30.238247,53.818299],[30.238005,53.817788],[30.237857,53.817522],[30.237749,53.817329],[30.237324,53.816655],[30.237252,53.816554],[30.236707,53.815794],[30.236214,53.815263],[30.23556,53.814748],[30.234808,53.814231],[30.234458,53.814026],[30.234011,53.813814],[30.233775,53.813698],[30.232914,53.813328],[30.23236,53.813117],[30.231689,53.812857],[30.230711,53.812529],[30.229461,53.812161],[30.226546,53.811331],[30.225852,53.811134],[30.225688,53.811088],[30.225477,53.811028],[30.224383,53.810715],[30.223835,53.810554],[30.223702,53.810515],[30.222734,53.810244],[30.220831,53.809699],[30.215645,53.808223],[30.214478,53.807894],[30.213242,53.80752],[30.212732,53.807362],[30.212239,53.807187],[30.211737,53.807002],[30.211252,53.806814],[30.209526,53.80614],[30.20902,53.805831],[30.208473,53.80548],[30.20734,53.80459],[30.206715,53.80404],[30.206193,53.803539],[30.205881,53.803195],[30.205644,53.802922],[30.205384,53.802591],[30.205222,53.802436],[30.205161,53.802376],[30.205096,53.802323],[30.205011,53.802261],[30.20492,53.802201],[30.204749,53.802101],[30.20454,53.801973],[30.204392,53.801875],[30.204279,53.801808],[30.204239,53.801773],[30.204206,53.801743],[30.204177,53.801715],[30.204146,53.80168],[30.204129,53.801659],[30.204113,53.801637],[30.2041,53.801617],[30.20409,53.801597],[30.204079,53.80157],[30.20407,53.801539],[30.204065,53.801505],[30.204063,53.801486],[30.20406,53.801456],[30.204057,53.801401],[30.204061,53.801373],[30.204066,53.80133],[30.204068,53.801313],[30.204072,53.801234],[30.204076,53.801187],[30.204088,53.801111],[30.204149,53.800781],[30.20417,53.800672],[30.204184,53.800568],[30.204039,53.800296],[30.203739,53.79973],[30.2032,53.798883],[30.202751,53.798286],[30.202632,53.798141],[30.201969,53.797413],[30.201662,53.797073],[30.201392,53.796792],[30.201222,53.79665],[30.200483,53.796011],[30.199696,53.795398],[30.199503,53.795237],[30.199084,53.794907],[30.196686,53.793041],[30.195949,53.792455],[30.193254,53.790368],[30.191229,53.788794],[30.189812,53.787693],[30.187075,53.785542],[30.186359,53.784984],[30.186115,53.784794],[30.185754,53.784505],[30.185468,53.784276],[30.185043,53.783937],[30.184573,53.783569],[30.184159,53.783244],[30.183811,53.782972],[30.183522,53.782745],[30.183173,53.782473],[30.182848,53.782218],[30.181704,53.781322],[30.181202,53.780929],[30.180756,53.78058],[30.18016,53.780113],[30.179616,53.779687],[30.179267,53.779414],[30.179162,53.779331],[30.175959,53.776811],[30.175557,53.776496],[30.175284,53.776283],[30.170195,53.772307],[30.169473,53.771725],[30.16725,53.770006],[30.164246,53.767682],[30.163176,53.766839],[30.161453,53.765482],[30.1549,53.760343],[30.153565,53.759327],[30.150534,53.757006],[30.142773,53.750951],[30.13827,53.747493],[30.136092,53.745803],[30.135598,53.74542],[30.135478,53.745327],[30.131452,53.74221],[30.131339,53.742109],[30.125459,53.737537],[30.124898,53.737109],[30.122559,53.735341],[30.117396,53.731368],[30.117148,53.731177],[30.116408,53.730635],[30.115111,53.72962],[30.110214,53.725852],[30.103711,53.720976],[30.101999,53.71961],[30.086286,53.70767],[30.086197,53.707602],[30.086058,53.707503],[30.085576,53.707139],[30.06483,53.691477],[30.055293,53.684327],[30.055219,53.684271],[30.045698,53.677093],[30.045422,53.676891],[30.044198,53.675953],[30.034999,53.669042],[30.030598,53.665699],[30.028058,53.663797],[30.023153,53.660106],[30.021897,53.659154],[30.021791,53.659076],[30.021628,53.658953],[30.021077,53.658554],[30.020807,53.658358],[30.02072,53.658295],[30.014616,53.65384],[30.004826,53.646613],[30.002516,53.644906],[30.000079,53.643131],[29.99734,53.641157],[29.99103,53.636584],[29.984245,53.631646],[29.982881,53.630662],[29.982338,53.630263],[29.981321,53.62953],[29.953688,53.609775],[29.953458,53.60961],[29.936545,53.597542],[29.924352,53.5888],[29.922812,53.587697],[29.919152,53.585161],[29.916211,53.583041],[29.91034,53.578774],[29.863721,53.545521],[29.863101,53.545078],[29.856178,53.54025],[29.851425,53.536845],[29.850122,53.535898],[29.844312,53.53183],[29.841501,53.529831],[29.838883,53.527988],[29.837856,53.527227],[29.837204,53.526723],[29.836799,53.526358],[29.836271,53.525867],[29.835751,53.525408],[29.835091,53.52492],[29.834352,53.524418],[29.832782,53.523393],[29.831477,53.522592],[29.829901,53.52162],[29.829554,53.521398],[29.828157,53.520431],[29.828022,53.520338],[29.827648,53.520081],[29.826315,53.519165],[29.824473,53.517898],[29.823433,53.517171],[29.823137,53.516964],[29.782209,53.488335],[29.766449,53.477156],[29.762357,53.474253],[29.760285,53.472784],[29.741415,53.459396],[29.740525,53.458764],[29.739863,53.45829],[29.736568,53.455929],[29.731406,53.452229],[29.668626,53.407023],[29.660899,53.401488],[29.655906,53.397879],[29.634444,53.382298],[29.629082,53.378384],[29.616095,53.368905],[29.615834,53.368699],[29.614577,53.367807],[29.61259,53.366359],[29.611949,53.365924],[29.611738,53.365769],[29.610804,53.365081],[29.609004,53.36376],[29.608933,53.363709],[29.603151,53.359537],[29.600892,53.357907],[29.600831,53.357863],[29.599048,53.356585],[29.590077,53.35018],[29.583894,53.34571],[29.58214,53.344452],[29.578796,53.342117],[29.578595,53.341964],[29.577612,53.341283],[29.575847,53.339991],[29.575672,53.339867],[29.572707,53.337765],[29.571771,53.337051],[29.571564,53.336904],[29.569115,53.335159],[29.568391,53.334611],[29.567609,53.333989],[29.567496,53.333908],[29.567139,53.333645],[29.566153,53.33292],[29.566013,53.332817],[29.563576,53.331084],[29.562191,53.33008],[29.556135,53.325647],[29.547101,53.319032],[29.546951,53.318916],[29.537146,53.311815],[29.533092,53.308921],[29.5253,53.303357],[29.52394,53.302386],[29.523756,53.302255],[29.523215,53.301866],[29.516468,53.296995],[29.512078,53.293911],[29.503361,53.2878],[29.50292,53.287493],[29.497982,53.284057],[29.491402,53.279529],[29.490532,53.278905],[29.488779,53.27767],[29.487654,53.276892],[29.486994,53.276426],[29.485973,53.275723],[29.485165,53.275154],[29.485047,53.27507],[29.48498,53.275024],[29.484018,53.274368],[29.483653,53.274098],[29.482219,53.273114],[29.482166,53.273077],[29.480317,53.271778],[29.480194,53.271696],[29.479936,53.271515],[29.479435,53.271168],[29.478684,53.270652],[29.47838,53.270436],[29.478307,53.270383],[29.478018,53.270185],[29.476676,53.269243],[29.476585,53.269181],[29.476465,53.269109],[29.476212,53.268937],[29.475073,53.26814],[29.474797,53.267946],[29.473875,53.267302],[29.472844,53.266582],[29.472222,53.266158],[29.471894,53.265931],[29.471834,53.26589],[29.471433,53.265604],[29.47079,53.265153],[29.470287,53.264816],[29.46921,53.264062],[29.468869,53.26382],[29.468211,53.263359],[29.467904,53.263154],[29.46781,53.26309],[29.466805,53.262403],[29.466352,53.262093],[29.465139,53.261268],[29.462793,53.259659],[29.462533,53.25948],[29.462167,53.259228],[29.461643,53.258855],[29.461308,53.258616],[29.459081,53.257061],[29.457915,53.256246],[29.45666,53.25537],[29.455589,53.254609],[29.452933,53.252764],[29.450576,53.251128],[29.449817,53.2506],[29.449488,53.250372],[29.446901,53.24858],[29.435265,53.240491],[29.434799,53.240164],[29.427131,53.234792],[29.417861,53.228279],[29.40954,53.22241],[29.402898,53.217795],[29.398323,53.214558],[29.396201,53.213058],[29.393977,53.211484],[29.39195,53.21005],[29.380885,53.202357],[29.368098,53.193285],[29.367985,53.193205],[29.361881,53.189014],[29.361565,53.188794],[29.361108,53.188478],[29.360317,53.187916],[29.359681,53.187465],[29.35935,53.187229],[29.357304,53.185771],[29.356814,53.185416],[29.356509,53.185202],[29.355623,53.184582],[29.35541,53.184422],[29.354336,53.183659],[29.352218,53.182211],[29.351743,53.181833],[29.350806,53.181182],[29.350292,53.180808],[29.347446,53.178763],[29.346606,53.178157],[29.346393,53.178004],[29.345864,53.17762],[29.344495,53.176625],[29.331749,53.16736],[29.324259,53.161914],[29.3172,53.156836],[29.317022,53.15674],[29.316906,53.156698],[29.3167,53.156659],[29.316495,53.156665],[29.316322,53.156651],[29.316179,53.15662],[29.315991,53.156534],[29.315881,53.156407],[29.315853,53.156336],[29.315841,53.156261],[29.315873,53.156105],[29.315841,53.155945],[29.315761,53.155791],[29.315253,53.155408],[29.311493,53.15267],[29.31102,53.152349],[29.304635,53.147663],[29.302877,53.14638],[29.300898,53.144919],[29.300616,53.144724],[29.299855,53.144163],[29.299798,53.144119],[29.297297,53.142305],[29.295519,53.140999],[29.294391,53.14016],[29.293879,53.139779],[29.293836,53.139746],[29.293706,53.13965],[29.293534,53.139523],[29.293087,53.139157],[29.292965,53.139041],[29.292772,53.139061],[29.291997,53.139142],[29.29182,53.139157],[29.29101,53.139237],[29.290148,53.139321],[29.289658,53.13937],[29.28393,53.139946],[29.283299,53.140008],[29.28158,53.140188],[29.280298,53.140315],[29.280067,53.140338],[29.279845,53.14036],[29.279642,53.14038],[29.279431,53.140401],[29.278694,53.140479],[29.277626,53.140588],[29.275906,53.140752],[29.272251,53.141132],[29.268168,53.141528],[29.264095,53.141938],[29.261321,53.142251],[29.260403,53.142359],[29.259312,53.14256],[29.258335,53.142831],[29.257447,53.143189],[29.25616,53.143899],[29.254924,53.144593],[29.254281,53.144947],[29.253638,53.1453],[29.253423,53.145164],[29.253178,53.145043],[29.252838,53.144895],[29.252601,53.144765],[29.252418,53.144667],[29.252171,53.144531],[29.252077,53.144462],[29.251985,53.144373],[29.251932,53.144302],[29.251436,53.143672],[29.251297,53.143482],[29.251209,53.14336],[29.251159,53.143291],[29.251119,53.143222],[29.251092,53.143161],[29.25107,53.143093],[29.251068,53.14307],[29.251066,53.14302],[29.251079,53.142951],[29.251104,53.142894],[29.25114,53.142818],[29.251169,53.142734],[29.25119,53.142658],[29.251199,53.142601],[29.251192,53.142528],[29.251173,53.142452],[29.251138,53.142383],[29.251091,53.142314],[29.251028,53.14225],[29.250959,53.142189],[29.250604,53.14196],[29.250097,53.141632],[29.249532,53.141296],[29.249386,53.141202],[29.249242,53.141109],[29.249143,53.141044],[29.249052,53.140987],[29.248735,53.140785],[29.248174,53.140461],[29.247937,53.140318],[29.247583,53.140098],[29.246564,53.139489],[29.246484,53.139442],[29.24633,53.13935],[29.245698,53.138969],[29.245176,53.138655],[29.242389,53.140502],[29.242495,53.140563],[29.243589,53.141192],[29.243757,53.141288],[29.243694,53.141334],[29.242321,53.142344],[29.241684,53.14257],[29.241464,53.142649],[29.240286,53.142943],[29.239924,53.14306],[29.239624,53.143158],[29.238366,53.143597],[29.238092,53.143697],[29.237273,53.144228],[29.23695,53.144422],[29.236339,53.144822],[29.235974,53.145067],[29.235811,53.145176],[29.235577,53.145039],[29.235454,53.145116],[29.234822,53.14551],[29.23464,53.145626],[29.233895,53.146101],[29.233376,53.146429],[29.232789,53.146804],[29.232513,53.14698],[29.232351,53.147084],[29.232175,53.147188],[29.231269,53.147757],[29.230933,53.147968],[29.230768,53.148071],[29.23063,53.148159],[29.229671,53.148767],[29.229281,53.149015],[29.229215,53.149057],[29.229103,53.149128],[29.228695,53.14939],[29.227582,53.150102],[29.22608,53.151055],[29.225791,53.151238],[29.225603,53.151358],[29.225462,53.151449],[29.222913,53.153102],[29.222732,53.15322],[29.220812,53.154446],[29.219175,53.155501],[29.218563,53.155896],[29.218457,53.155968],[29.216942,53.156936],[29.216129,53.157454],[29.215762,53.157687],[29.215628,53.15778],[29.21543,53.157915],[29.215261,53.158072],[29.214009,53.159565],[29.213335,53.160351],[29.213267,53.16043],[29.212963,53.160784],[29.21284,53.160928],[29.212759,53.161022],[29.211013,53.163069],[29.210284,53.163925],[29.209747,53.164542],[29.209656,53.164652],[29.209496,53.164846],[29.208245,53.166313],[29.208145,53.16644],[29.207821,53.166834],[29.207582,53.167125],[29.207423,53.16732],[29.207238,53.167547],[29.207021,53.167803],[29.20519,53.169938],[29.204904,53.17027],[29.204832,53.170354],[29.204439,53.170804],[29.203976,53.171332],[29.203845,53.171481],[29.203484,53.171884],[29.201548,53.174142],[29.201197,53.174556],[29.201068,53.174712],[29.200981,53.174808],[29.200764,53.175052],[29.19915,53.176869],[29.198689,53.177365],[29.198615,53.177446],[29.198524,53.177547],[29.198325,53.17777],[29.197791,53.178363],[29.197683,53.178483],[29.197453,53.178742],[29.197048,53.179188],[29.196482,53.179812],[29.196054,53.180284],[29.195175,53.181256],[29.193584,53.182988],[29.192885,53.183765],[29.192666,53.183997],[29.192377,53.184246],[29.19196,53.18455],[29.191591,53.184762],[29.190729,53.185241],[29.190075,53.185532],[29.18944,53.185762],[29.188739,53.185969],[29.188518,53.186027],[29.187384,53.186318],[29.187282,53.186345],[29.186812,53.186473],[29.184829,53.187005],[29.184574,53.187029],[29.184401,53.187076],[29.183584,53.187313],[29.183072,53.18747],[29.182718,53.187578],[29.182121,53.187764],[29.179895,53.188455],[29.178427,53.188909],[29.177841,53.189084],[29.177168,53.189285],[29.175296,53.189845],[29.172186,53.190798],[29.169768,53.19156],[29.16908,53.191771],[29.164819,53.19307],[29.158436,53.195017],[29.155437,53.195935],[29.154063,53.196357],[29.153652,53.196483],[29.152624,53.196799],[29.152159,53.196942],[29.151154,53.197253],[29.149964,53.197622],[29.145906,53.198879],[29.145564,53.198985],[29.141887,53.200119],[29.137522,53.201466],[29.128734,53.204171],[29.128247,53.20432],[29.1275,53.20455],[29.127282,53.204617],[29.126321,53.204912],[29.124551,53.205455],[29.124388,53.205505],[29.124121,53.205592],[29.118669,53.207297],[29.117639,53.207528],[29.11713,53.207597],[29.1166,53.20764],[29.115143,53.207695],[29.114374,53.207703],[29.114159,53.207708],[29.110247,53.207788],[29.10803,53.207825],[29.10727,53.207835],[29.106621,53.207845],[29.106417,53.207848],[29.106141,53.207852],[29.1058,53.207863],[29.10479,53.207875],[29.100595,53.207979],[29.099749,53.207997],[29.093653,53.20813],[29.088275,53.208237],[29.08704,53.208261],[29.086696,53.20827],[29.086446,53.208273],[29.085557,53.208287],[29.083882,53.208312],[29.081143,53.208362],[29.07973,53.208409],[29.078339,53.208482],[29.075949,53.208723],[29.074273,53.208892],[29.073963,53.208985],[29.07383,53.209079],[29.073727,53.209184],[29.073646,53.209348],[29.073503,53.209547],[29.073327,53.209798],[29.073167,53.209972],[29.073068,53.21007],[29.072658,53.210384],[29.07217,53.210681],[29.071745,53.210885],[29.071247,53.21106],[29.070701,53.211195],[29.070291,53.211258],[29.069917,53.21128],[29.069698,53.211307],[29.069416,53.211317],[29.069158,53.211322],[29.068831,53.211319],[29.06847,53.211291],[29.068157,53.211251],[29.067728,53.211173],[29.067257,53.211048],[29.066533,53.210771],[29.065783,53.210439],[29.065205,53.210188],[29.064398,53.20991],[29.064084,53.209848],[29.063682,53.209804],[29.062517,53.209726],[29.06192,53.20972],[29.060895,53.209741],[29.060056,53.209769],[29.05932,53.209818],[29.058666,53.209862],[29.056791,53.210078],[29.055349,53.210333],[29.053593,53.210775],[29.053397,53.210829],[29.052548,53.211064],[29.049471,53.211995],[29.046274,53.212976],[29.045417,53.21324],[29.04229,53.214162],[29.040325,53.214766],[29.037739,53.215561],[29.037043,53.215792],[29.035061,53.216447],[29.034773,53.216543],[29.03339,53.217066],[29.032601,53.217375],[29.030837,53.218042],[29.028719,53.21882],[29.027351,53.219261],[29.026887,53.219416],[29.026053,53.219671],[29.022586,53.22073],[29.021725,53.220993],[29.020041,53.221515],[29.019127,53.221791],[29.018642,53.221941],[29.017972,53.222149],[29.01759,53.222263],[29.016287,53.222658],[29.01597,53.222755],[29.015831,53.222795],[29.015391,53.222921],[29.015362,53.22293],[29.013982,53.223339],[29.011833,53.223978],[29.006785,53.225442],[29.000604,53.227254],[28.987214,53.231278],[28.980564,53.233262],[28.979257,53.23368],[28.977038,53.234389],[28.976917,53.234428],[28.976371,53.234598],[28.976123,53.234673],[28.974596,53.235127],[28.97207,53.235878],[28.969836,53.236542],[28.961836,53.238979],[28.959538,53.239672],[28.9595,53.239683],[28.958745,53.239915],[28.957245,53.240377],[28.956872,53.240491],[28.956422,53.240628],[28.954013,53.241359],[28.951831,53.242021],[28.94855,53.243016],[28.947138,53.243451],[28.945024,53.244102],[28.943854,53.244448],[28.943061,53.244685],[28.941612,53.24512],[28.940886,53.245338],[28.938297,53.246039],[28.935565,53.246771],[28.934052,53.247217],[28.933149,53.24749],[28.932506,53.247702],[28.930414,53.248405],[28.929452,53.248755],[28.927472,53.249531],[28.926178,53.250028],[28.923623,53.251009],[28.92145,53.251824],[28.918156,53.253059],[28.917144,53.253442],[28.91556,53.254041],[28.915371,53.254113],[28.908834,53.256586],[28.907278,53.257174],[28.906008,53.257665],[28.905657,53.257801],[28.904217,53.258357],[28.904048,53.258422],[28.901358,53.259461],[28.891834,53.26314],[28.888438,53.264452],[28.878829,53.26807],[28.873726,53.270007],[28.868826,53.271857],[28.866372,53.272785],[28.857897,53.275984],[28.855786,53.276781],[28.855707,53.276809],[28.8552,53.276989],[28.855076,53.277037],[28.854779,53.277152],[28.85352,53.277638],[28.850764,53.278671],[28.848849,53.279388],[28.848503,53.279518],[28.843916,53.28124],[28.842256,53.281863],[28.84172,53.282065],[28.841287,53.282227],[28.84071,53.282444],[28.837842,53.283521],[28.832797,53.285414],[28.832069,53.285687],[28.827963,53.28695],[28.81456,53.29107],[28.814045,53.291229],[28.806626,53.293434],[28.804762,53.293988],[28.801176,53.295101],[28.801046,53.295141],[28.798574,53.295885],[28.797529,53.296197],[28.796063,53.296641],[28.787778,53.29914],[28.781842,53.300931],[28.774214,53.303237],[28.772728,53.303686],[28.772408,53.303783],[28.770538,53.304353],[28.770511,53.304361],[28.770243,53.304443],[28.770078,53.304493],[28.769854,53.30456],[28.768198,53.305059],[28.767865,53.305161],[28.766363,53.305612],[28.764488,53.306175],[28.761829,53.306974],[28.753765,53.309396],[28.751741,53.310041],[28.748639,53.310977],[28.74597,53.311785],[28.740574,53.313417],[28.739697,53.31368],[28.734984,53.315126],[28.734594,53.315245],[28.73299,53.315731],[28.732255,53.315954],[28.730822,53.316389],[28.730069,53.316618],[28.729973,53.316647],[28.729747,53.316715],[28.727554,53.317371],[28.724115,53.318395],[28.723792,53.318493],[28.721081,53.319315],[28.720234,53.319563],[28.719413,53.31981],[28.7088,53.323003],[28.707877,53.32328],[28.706229,53.323763],[28.703538,53.324552],[28.700434,53.325494],[28.699704,53.32571],[28.696284,53.326726],[28.693556,53.327537],[28.692544,53.327837],[28.69244,53.327868],[28.690097,53.328574],[28.689763,53.328674],[28.689394,53.328779],[28.687973,53.329185],[28.686879,53.329497],[28.686448,53.329618],[28.684174,53.330269],[28.683787,53.330377],[28.683307,53.33051],[28.679251,53.331762],[28.678325,53.332039],[28.676687,53.332527],[28.674718,53.333124],[28.674008,53.33334],[28.672243,53.333868],[28.671245,53.334166],[28.665922,53.335759],[28.665603,53.335855],[28.663088,53.3366],[28.662882,53.336736],[28.662797,53.336834],[28.662775,53.336907],[28.662751,53.336996],[28.662787,53.337097],[28.663,53.337206],[28.663611,53.337548],[28.664004,53.337773],[28.664569,53.338091],[28.664724,53.338182],[28.665363,53.338556],[28.665589,53.338639],[28.665752,53.338668],[28.665984,53.338663],[28.666223,53.338637],[28.666507,53.338598],[28.666562,53.338543],[28.666622,53.338475],[28.666641,53.338436],[28.666653,53.338386],[28.666652,53.338318],[28.666648,53.338143],[28.665357,53.336629],[28.665105,53.336332],[28.664645,53.33577],[28.664611,53.335731],[28.664189,53.335248],[28.663915,53.334931],[28.663752,53.334728],[28.663572,53.334481],[28.663307,53.334102],[28.663199,53.333955],[28.662707,53.333213],[28.662387,53.33271],[28.661945,53.33195],[28.661479,53.331091],[28.660957,53.330054],[28.660621,53.329587],[28.660272,53.32915],[28.659853,53.328688],[28.659217,53.328147],[28.658934,53.327914],[28.658608,53.327648],[28.658068,53.327265],[28.657803,53.327077],[28.656531,53.326154],[28.655246,53.325251],[28.65485,53.324967],[28.654382,53.324641],[28.654257,53.324552],[28.653686,53.324148],[28.65355,53.324052],[28.653127,53.323753],[28.652924,53.323613],[28.652428,53.323271],[28.651636,53.322691],[28.650461,53.321875],[28.649743,53.321368],[28.649483,53.321184],[28.649254,53.321019],[28.648793,53.320688],[28.648592,53.320543],[28.648249,53.320297],[28.64811,53.320197],[28.647857,53.320015],[28.647645,53.319861],[28.64753,53.319778],[28.646931,53.319343],[28.646685,53.31912],[28.646615,53.31905],[28.646116,53.318503],[28.645729,53.318053],[28.645579,53.317872],[28.645269,53.317497],[28.645219,53.317436],[28.644948,53.317111],[28.644682,53.316803],[28.64465,53.316763],[28.644436,53.316496],[28.64428,53.316302],[28.643937,53.315883],[28.642211,53.31388],[28.641885,53.313491],[28.641769,53.313352],[28.641317,53.312807],[28.641162,53.312621],[28.640662,53.312792],[28.640022,53.31301],[28.639204,53.31329],[28.638392,53.313567],[28.638317,53.313474],[28.638257,53.3134],[28.638113,53.313235],[28.637999,53.313103],[28.637304,53.312305],[28.636379,53.311174],[28.635656,53.310289],[28.6356,53.310225],[28.635528,53.310135],[28.635197,53.309718],[28.634823,53.309268],[28.634752,53.309184],[28.634593,53.309232],[28.634434,53.309281],[28.633259,53.309637],[28.63223,53.309949],[28.629866,53.310662],[28.629181,53.310868],[28.628824,53.310976],[28.628714,53.311009],[28.628626,53.311035],[28.628537,53.310923],[28.628511,53.31089],[28.628074,53.310343],[28.627465,53.309603],[28.626719,53.308714],[28.626637,53.308606],[28.626602,53.308476],[28.62649,53.308066],[28.626369,53.307665],[28.626178,53.307106],[28.625976,53.306663],[28.62506,53.304949],[28.624156,53.303287],[28.623373,53.301823],[28.623006,53.30122],[28.622914,53.301078],[28.622791,53.300919],[28.622435,53.300459],[28.622369,53.300374],[28.62228,53.300259],[28.622193,53.300156],[28.620512,53.298172],[28.620457,53.298107],[28.620367,53.298],[28.620155,53.298038],[28.619554,53.298142],[28.618862,53.298273],[28.617048,53.298813],[28.615372,53.299334],[28.615164,53.299398],[28.61417,53.299717],[28.613646,53.299892],[28.612954,53.300124],[28.612113,53.300391],[28.61188,53.300465],[28.611378,53.300613],[28.611198,53.300647],[28.610956,53.300692],[28.610474,53.300769],[28.610033,53.300867],[28.609954,53.300885],[28.609675,53.300938],[28.609337,53.30098],[28.609118,53.300996],[28.608933,53.301003],[28.608589,53.301014],[28.605903,53.300894],[28.603943,53.300797],[28.60358,53.300773],[28.603369,53.300745],[28.603192,53.300716],[28.602972,53.300666],[28.602591,53.300538],[28.601626,53.300131],[28.600688,53.299688],[28.5994,53.299078],[28.599269,53.299015],[28.598946,53.298861],[28.598617,53.298704],[28.598306,53.298556],[28.597592,53.298227],[28.597367,53.298124],[28.59719,53.298044],[28.596918,53.297931],[28.59654,53.297709],[28.595985,53.297313],[28.595436,53.296953],[28.593486,53.295675],[28.58987,53.293235],[28.587745,53.291813],[28.587357,53.291554],[28.587169,53.291428],[28.586878,53.291233],[28.585482,53.2903],[28.583829,53.289198],[28.583434,53.288939],[28.582012,53.287994],[28.578419,53.285566],[28.574479,53.282939],[28.572174,53.281391],[28.571302,53.280806],[28.570899,53.280503],[28.570732,53.28037],[28.570591,53.280214],[28.570426,53.279966],[28.570294,53.279684],[28.570115,53.279096],[28.570007,53.278735],[28.569656,53.27755],[28.569444,53.276835],[28.568751,53.274463],[28.568278,53.272843],[28.567918,53.27167],[28.567854,53.271468],[28.567747,53.271148],[28.567673,53.270989],[28.567588,53.270857],[28.56749,53.270751],[28.56738,53.270662],[28.567244,53.270586],[28.566994,53.270465],[28.566435,53.270237],[28.564645,53.269599],[28.562614,53.268877],[28.562014,53.268663],[28.559109,53.267633],[28.55832,53.26734],[28.557568,53.267087],[28.557116,53.266985],[28.556728,53.266922],[28.556001,53.266855],[28.552798,53.266614],[28.550659,53.266454],[28.549689,53.266381],[28.549464,53.266365],[28.542313,53.265853],[28.537878,53.265512],[28.536885,53.265442],[28.536103,53.265386],[28.533602,53.265208],[28.525002,53.264542],[28.524749,53.264522],[28.524118,53.264482],[28.52355,53.264445],[28.521352,53.264304],[28.519798,53.264193],[28.516912,53.263988],[28.51611,53.263931],[28.513492,53.263739],[28.512205,53.263629],[28.511226,53.263539],[28.510901,53.263467],[28.510668,53.263383],[28.510327,53.263226],[28.50717,53.261205],[28.504997,53.259815],[28.503897,53.259111],[28.50187,53.257824],[28.5006,53.257026],[28.500277,53.256824],[28.499284,53.2562],[28.498151,53.255473],[28.497231,53.254882],[28.493225,53.25231],[28.49194,53.251492],[28.491371,53.251134],[28.49095,53.250898],[28.490632,53.250766],[28.490266,53.250662],[28.488486,53.250155],[28.485636,53.249358],[28.481529,53.248209],[28.481402,53.248174],[28.472361,53.245644],[28.471676,53.245453],[28.470415,53.245116],[28.469995,53.245033],[28.46944,53.24498],[28.46309,53.24455],[28.462575,53.24451],[28.457751,53.244134],[28.457433,53.244109],[28.456891,53.244067],[28.456292,53.244025],[28.442705,53.243078],[28.432818,53.242389],[28.431667,53.242309],[28.43091,53.242255],[28.42782,53.242037],[28.42178,53.241612],[28.416554,53.241265],[28.413867,53.241074],[28.413339,53.241032],[28.413218,53.241024],[28.412836,53.240993],[28.412571,53.240966],[28.412179,53.2409],[28.411665,53.24078],[28.409686,53.240204],[28.406775,53.239322],[28.405991,53.239109],[28.405315,53.238985],[28.404472,53.238895],[28.403385,53.238813],[28.402599,53.238784],[28.400421,53.23874],[28.398921,53.238682],[28.397531,53.238629],[28.392493,53.238402],[28.391069,53.238348],[28.390111,53.238312],[28.389402,53.238283],[28.384206,53.238065],[28.36932,53.237423],[28.367529,53.237343],[28.367128,53.23731],[28.366731,53.237247],[28.366379,53.237137],[28.366096,53.236987],[28.365758,53.236742],[28.364809,53.235989],[28.362716,53.234407],[28.362339,53.234122],[28.361833,53.233727],[28.359239,53.231704],[28.357757,53.230548],[28.356462,53.229594],[28.355609,53.228964],[28.3545,53.228158],[28.353639,53.227578],[28.353318,53.227417],[28.353088,53.227326],[28.35281,53.227258],[28.352583,53.227229],[28.352228,53.227232],[28.350611,53.227412],[28.34847,53.227672],[28.347711,53.227762],[28.3453,53.228028],[28.344817,53.228062],[28.344477,53.228077],[28.344057,53.228066],[28.343661,53.228022],[28.343204,53.227941],[28.338885,53.226794],[28.338458,53.226712],[28.33799,53.226653],[28.335043,53.226381],[28.333898,53.226268],[28.333162,53.22616],[28.332831,53.226096],[28.332505,53.226029],[28.322715,53.223611],[28.321697,53.223328],[28.320166,53.222836],[28.319431,53.2226],[28.319064,53.222482],[28.318104,53.222174],[28.315287,53.221273],[28.31394,53.220826],[28.312283,53.220218],[28.311238,53.21984],[28.307606,53.218351],[28.306647,53.217982],[28.3058,53.217656],[28.303139,53.2166],[28.302796,53.21648],[28.302393,53.21638],[28.302085,53.216343],[28.301884,53.216335],[28.301612,53.216331],[28.301295,53.216363],[28.300878,53.216418],[28.300374,53.216505],[28.300284,53.21652],[28.300187,53.216536],[28.299245,53.216692],[28.29739,53.216997],[28.295903,53.217229],[28.295256,53.217328],[28.294945,53.217355],[28.294483,53.217348],[28.294281,53.217338],[28.293547,53.217283],[28.293092,53.217243],[28.292373,53.217181],[28.290511,53.217041],[28.290175,53.217016],[28.289751,53.216972],[28.289536,53.216936],[28.289378,53.216871],[28.28925,53.216806],[28.289096,53.216681],[28.288521,53.216196],[28.28789,53.215671],[28.286937,53.214858],[28.286676,53.214674],[28.28649,53.214565],[28.286278,53.214454],[28.285883,53.214281],[28.285308,53.214082],[28.284983,53.21397],[28.28471,53.213875],[28.283784,53.213551],[28.282983,53.213266],[28.282684,53.213165],[28.282236,53.213016],[28.282,53.212951],[28.281786,53.212905],[28.28144,53.212871],[28.28108,53.212859],[28.280743,53.212869],[28.280373,53.212893],[28.279071,53.212974],[28.277366,53.21308],[28.268231,53.213647],[28.266726,53.21374],[28.261502,53.214064],[28.257884,53.214288],[28.251639,53.214686],[28.247046,53.214971],[28.241942,53.215305],[28.237128,53.215612],[28.234288,53.215803],[28.231227,53.215982],[28.229942,53.216065],[28.228413,53.216164],[28.228025,53.216187],[28.227333,53.216231],[28.224522,53.21641],[28.222389,53.216543],[28.221438,53.216606],[28.218418,53.216806],[28.218082,53.216828],[28.215431,53.216982],[28.214555,53.217028],[28.213798,53.217056],[28.212767,53.217067],[28.20917,53.21709],[28.208853,53.217091],[28.207671,53.2171],[28.193429,53.217216],[28.19293,53.21722],[28.192663,53.217222],[28.192221,53.217225],[28.185457,53.217277],[28.180885,53.217292],[28.178255,53.217298],[28.178175,53.217298],[28.16371,53.217334],[28.163275,53.217335],[28.162845,53.217335],[28.161615,53.217339],[28.160451,53.217336],[28.158958,53.217332],[28.158441,53.217334],[28.15809,53.217337],[28.155333,53.217349],[28.155103,53.21735],[28.148365,53.217355],[28.139607,53.217361],[28.139006,53.217341],[28.138725,53.217318],[28.138376,53.217276],[28.134333,53.21662],[28.132159,53.216268],[28.121311,53.214484],[28.121049,53.21444],[28.105121,53.211775],[28.102228,53.211311],[28.100705,53.211067],[28.097805,53.210581],[28.087995,53.208939],[28.087822,53.208911],[28.07789,53.207256],[28.076507,53.207038],[28.076147,53.207002],[28.075883,53.206988],[28.07563,53.206983],[28.075381,53.206995],[28.075161,53.207018],[28.074897,53.207054],[28.073906,53.207245],[28.0735,53.207326],[28.069878,53.208051],[28.059625,53.210104],[28.058075,53.210414],[28.051186,53.211817],[28.050633,53.21193],[28.050369,53.211974],[28.050075,53.211998],[28.049787,53.212006],[28.049252,53.211991],[28.048599,53.211972],[28.048402,53.211985],[28.048246,53.212002],[28.04818,53.212032],[28.047843,53.212116],[28.047764,53.212131],[28.047681,53.21213],[28.047603,53.212112],[28.047539,53.212081],[28.047496,53.212038],[28.047479,53.21199],[28.047381,53.211963],[28.047218,53.211933],[28.047177,53.211931],[28.04658,53.211908],[28.045754,53.211876],[28.045103,53.211851],[28.044021,53.211809],[28.040571,53.211676],[28.038219,53.211601],[28.036636,53.211546],[28.034383,53.211468],[28.033415,53.211437],[28.029721,53.211317],[28.029398,53.211306],[28.022765,53.211084],[28.014601,53.21079],[28.014244,53.210779],[28.013421,53.210752],[27.99958,53.210266],[27.999175,53.210253],[27.991166,53.209997],[27.98431,53.209772],[27.981271,53.209673],[27.980678,53.209651],[27.980102,53.209629],[27.979058,53.209594],[27.973763,53.209412],[27.96886,53.209255],[27.954685,53.20881],[27.945675,53.208528],[27.939837,53.208362],[27.93157,53.208128],[27.928204,53.208056],[27.923465,53.2079],[27.917685,53.207744],[27.916577,53.207721],[27.916149,53.207739],[27.915447,53.207791],[27.909878,53.208562],[27.903239,53.209426],[27.901699,53.209625],[27.901426,53.209672],[27.900276,53.209805],[27.895222,53.210412],[27.886311,53.211546],[27.884138,53.211834],[27.869474,53.213774],[27.867049,53.214101],[27.863065,53.214613],[27.857897,53.21529],[27.851614,53.216112],[27.850866,53.216208],[27.848921,53.216459],[27.846638,53.216776],[27.842245,53.217648],[27.841473,53.217792],[27.840964,53.21786],[27.840439,53.217892],[27.839953,53.217878],[27.839439,53.217844],[27.839046,53.217787],[27.83857,53.21768],[27.838145,53.217552],[27.832093,53.21567],[27.824979,53.213439],[27.815003,53.210312],[27.813101,53.209706],[27.810751,53.208969],[27.810478,53.208883],[27.804676,53.207059],[27.801761,53.20615],[27.801169,53.205992],[27.800671,53.205897],[27.80021,53.205848],[27.799773,53.205829],[27.799216,53.205827],[27.796593,53.20594],[27.792925,53.206076],[27.786617,53.206346],[27.781804,53.206545],[27.771957,53.206954],[27.771569,53.20697],[27.770482,53.207013],[27.770168,53.207024],[27.769672,53.207042],[27.768484,53.207086],[27.768069,53.207107],[27.767603,53.207143],[27.767083,53.207222],[27.766417,53.207359],[27.765907,53.2075],[27.765628,53.207618],[27.765023,53.207929],[27.764785,53.208075],[27.763045,53.209258],[27.762763,53.209443],[27.760904,53.210701],[27.759655,53.211551],[27.755773,53.214162],[27.754505,53.215015],[27.754072,53.215305],[27.75206,53.216641],[27.738354,53.225912],[27.738169,53.226037],[27.735456,53.227875],[27.735001,53.228073],[27.734541,53.228237],[27.734148,53.228314],[27.733745,53.228355],[27.729635,53.228531],[27.726858,53.22862],[27.723049,53.228761],[27.717728,53.228979],[27.712622,53.229177],[27.706526,53.229438],[27.706228,53.229452],[27.704902,53.229518],[27.703578,53.229541],[27.699191,53.22972],[27.692565,53.229976],[27.692248,53.229988],[27.673894,53.230735],[27.670736,53.230858],[27.670487,53.230864],[27.664005,53.23116],[27.657823,53.231392],[27.657012,53.231425],[27.653966,53.23155],[27.644578,53.231969],[27.644412,53.231976],[27.644316,53.231981],[27.643688,53.23201],[27.643569,53.232016],[27.640218,53.232178],[27.639246,53.232222],[27.638773,53.232229],[27.638555,53.23223],[27.638341,53.232218],[27.637625,53.232155],[27.63741,53.232115],[27.635505,53.231769],[27.630282,53.230774],[27.629723,53.230666],[27.629661,53.230654],[27.629355,53.230597],[27.628599,53.230453],[27.627423,53.230232],[27.626286,53.230019],[27.625343,53.229848],[27.624361,53.229657],[27.623463,53.229501],[27.621087,53.229035],[27.619814,53.228735],[27.60499,53.223577],[27.604808,53.223513],[27.604155,53.223293],[27.603691,53.223138],[27.603249,53.223002],[27.602796,53.222888],[27.602262,53.222775],[27.601761,53.222686],[27.601219,53.222597],[27.600559,53.222485],[27.599687,53.222344],[27.598568,53.222175],[27.598385,53.222145],[27.596359,53.221815],[27.59242,53.221195],[27.590542,53.220887],[27.588195,53.220513],[27.587118,53.220342],[27.583696,53.219779],[27.577917,53.218878],[27.577026,53.218789],[27.576354,53.218777],[27.575608,53.218807],[27.559363,53.220474],[27.554698,53.220964],[27.553565,53.221066],[27.553261,53.221093],[27.552591,53.221081],[27.55143,53.221005],[27.551347,53.221],[27.551235,53.22101],[27.551106,53.221006],[27.551073,53.221005],[27.551008,53.221003],[27.550801,53.220997],[27.550673,53.220993],[27.550428,53.220977],[27.550157,53.220942],[27.549991,53.22092],[27.549787,53.220886],[27.549599,53.220856],[27.549503,53.220848],[27.547867,53.220713],[27.546824,53.220629],[27.54621,53.220579],[27.545475,53.220524],[27.544894,53.220474],[27.544611,53.220452],[27.542294,53.220268],[27.540317,53.220106],[27.537903,53.219923],[27.536876,53.219837],[27.535894,53.21976],[27.535088,53.219691],[27.534203,53.219619],[27.532908,53.219517],[27.532,53.219445],[27.531663,53.219419],[27.531417,53.2194],[27.530178,53.219299],[27.529487,53.219248],[27.529183,53.219224],[27.528698,53.219213],[27.528264,53.219228],[27.518327,53.22006],[27.517859,53.220099],[27.511642,53.220607],[27.510816,53.220669],[27.510197,53.220721],[27.508781,53.220835],[27.508626,53.220852],[27.507573,53.220944],[27.507281,53.220971],[27.506748,53.221015],[27.505372,53.221141],[27.503917,53.22126],[27.502273,53.221398],[27.501536,53.22146],[27.500665,53.221534],[27.499122,53.221667],[27.49806,53.221755],[27.497201,53.221824],[27.496653,53.221864],[27.496294,53.221882],[27.495943,53.221886],[27.495489,53.221869],[27.494732,53.221834],[27.493783,53.22178],[27.492866,53.221719],[27.491946,53.221665],[27.49,53.221545],[27.488042,53.221412],[27.487671,53.221383],[27.486207,53.221292],[27.483046,53.221095],[27.481023,53.220975],[27.47927,53.220854],[27.475683,53.220634],[27.474594,53.220563],[27.47318,53.22048],[27.470626,53.220311],[27.469117,53.220221],[27.467697,53.22013],[27.466629,53.220076],[27.466502,53.220068],[27.465068,53.219944],[27.457635,53.219486],[27.453208,53.219206],[27.44717,53.218831],[27.446606,53.218797],[27.443093,53.218577],[27.434991,53.218078],[27.428905,53.217686],[27.4223,53.21725],[27.421641,53.217237],[27.42105,53.217261],[27.420016,53.21736],[27.419839,53.217379],[27.419373,53.217433],[27.413425,53.218035],[27.413092,53.218069],[27.398921,53.219503],[27.39284,53.22011],[27.389196,53.220479],[27.388606,53.220535],[27.387689,53.220623],[27.387298,53.220661],[27.385754,53.220808],[27.385017,53.220882],[27.384137,53.220974],[27.381587,53.221232],[27.378876,53.221507],[27.378434,53.221554],[27.37529,53.221873],[27.374989,53.221899],[27.372998,53.222103],[27.36932,53.222465],[27.36184,53.223222],[27.361513,53.22325],[27.354403,53.223955],[27.352651,53.224115],[27.34768,53.224432],[27.34564,53.224568],[27.341307,53.224834],[27.333331,53.225362],[27.333107,53.225378],[27.328099,53.225715],[27.319268,53.22629],[27.316861,53.22641],[27.309596,53.226883],[27.29712,53.227625],[27.294734,53.227748],[27.293813,53.227796],[27.2859,53.22817],[27.285589,53.228187],[27.284589,53.228229],[27.281505,53.228391],[27.280044,53.22848],[27.279778,53.228491],[27.278902,53.228545],[27.276325,53.228677],[27.274718,53.228766],[27.273754,53.228827],[27.270986,53.229004],[27.270504,53.229044],[27.270172,53.229083],[27.269912,53.229116],[27.269184,53.229262],[27.264664,53.230097],[27.264438,53.230141],[27.264174,53.230189],[27.263748,53.23027],[27.263659,53.230172],[27.263505,53.229986],[27.262933,53.229302],[27.262661,53.228997],[27.261818,53.228052],[27.2614,53.227555],[27.261195,53.227324],[27.260967,53.227122],[27.260714,53.22695],[27.260469,53.226821],[27.260319,53.226748],[27.260126,53.226663],[27.260039,53.226625],[27.258706,53.226125],[27.258628,53.226095],[27.258452,53.226036],[27.258074,53.225889],[27.25762,53.225708],[27.257242,53.225572],[27.255866,53.225047],[27.255314,53.224857],[27.254755,53.224553],[27.252878,53.223419],[27.251561,53.222575],[27.25107,53.222353],[27.250615,53.222214],[27.250115,53.222109],[27.249264,53.221958],[27.24876,53.221842],[27.248258,53.221698],[27.247655,53.2215],[27.247284,53.221323],[27.247,53.221122],[27.246672,53.220773],[27.245942,53.219852],[27.245512,53.219378],[27.243928,53.217544],[27.24319,53.216727],[27.240159,53.213251],[27.239786,53.212853],[27.239454,53.212417],[27.239375,53.212272],[27.239283,53.212014],[27.239271,53.211903],[27.239294,53.211647],[27.239311,53.211368],[27.239375,53.210818],[27.239423,53.210535],[27.239423,53.210393],[27.239364,53.210264],[27.239211,53.210116],[27.239056,53.21005],[27.238705,53.209952],[27.238229,53.209845],[27.237863,53.209765],[27.237452,53.209682],[27.237145,53.209624],[27.234099,53.20903],[27.232729,53.208755],[27.229946,53.208193],[27.228388,53.207887],[27.227228,53.207657],[27.226744,53.207523],[27.226334,53.207353],[27.22597,53.207157],[27.225024,53.206512],[27.223502,53.205411],[27.221975,53.204302],[27.221072,53.203696],[27.220568,53.203407],[27.216718,53.201558],[27.216055,53.201232],[27.215576,53.201018],[27.214967,53.200798],[27.214256,53.200626],[27.212521,53.200263],[27.210054,53.199765],[27.205297,53.198723],[27.204569,53.198583],[27.2039,53.198436],[27.203581,53.198348],[27.20329,53.198244],[27.202819,53.198035],[27.201503,53.197406],[27.199115,53.196243],[27.194831,53.19411],[27.190444,53.191933],[27.187407,53.190419],[27.184685,53.189062],[27.183955,53.188692],[27.183537,53.188441],[27.18318,53.18816],[27.182866,53.187862],[27.18052,53.18533],[27.17999,53.184787],[27.179747,53.1846],[27.179456,53.184401],[27.179056,53.184176],[27.177908,53.183604],[27.176149,53.182727],[27.175995,53.182656],[27.175799,53.182557],[27.170966,53.180119],[27.169411,53.179335],[27.168878,53.17904],[27.168336,53.178702],[27.1679,53.178436],[27.166749,53.177649],[27.166529,53.177489],[27.16636,53.177345],[27.164719,53.176033],[27.161016,53.172996],[27.160601,53.172712],[27.160255,53.172497],[27.159813,53.172273],[27.159499,53.172155],[27.159243,53.172077],[27.159021,53.172026],[27.158799,53.171975],[27.158426,53.171928],[27.157942,53.171889],[27.156879,53.171824],[27.153352,53.171611],[27.141309,53.170793],[27.138137,53.170578],[27.13083,53.170071],[27.130256,53.170031],[27.129656,53.169981],[27.129215,53.169907],[27.128866,53.169779],[27.128086,53.169428],[27.127751,53.169273],[27.124741,53.16789],[27.124428,53.167724],[27.124107,53.167537],[27.123764,53.167256],[27.12336,53.16688],[27.121198,53.164764],[27.120875,53.164479],[27.120502,53.164172],[27.120226,53.163991],[27.119702,53.163706],[27.117551,53.162594],[27.11501,53.161258],[27.114505,53.161013],[27.114,53.16078],[27.113908,53.160743],[27.113442,53.160554],[27.112895,53.160359],[27.108203,53.158815],[27.107446,53.158525],[27.106201,53.157998],[27.105203,53.157553],[27.104829,53.157358],[27.104451,53.157188],[27.103883,53.156955],[27.101585,53.155926],[27.101458,53.155868],[27.101338,53.155814],[27.096739,53.153751],[27.096653,53.153713],[27.096517,53.15365],[27.093019,53.152102],[27.092094,53.151693],[27.092019,53.151661],[27.091796,53.151559],[27.091346,53.151353],[27.091233,53.151302],[27.090822,53.151116],[27.091532,53.150562],[27.091651,53.15047],[27.091572,53.150431],[27.091264,53.150278],[27.091212,53.150255],[27.091601,53.149968],[27.091603,53.149966],[27.091212,53.150255],[27.091264,53.150278],[27.091572,53.150431],[27.091651,53.15047],[27.091532,53.150562],[27.090822,53.151116],[27.090548,53.151388],[27.089717,53.152033],[27.089412,53.152081],[27.089289,53.152104],[27.089036,53.152179],[27.08881,53.152298],[27.088528,53.152519],[27.088436,53.152591],[27.088381,53.152637],[27.088048,53.15291],[27.087477,53.15338],[27.086347,53.154308],[27.085262,53.155155],[27.084404,53.155825],[27.084206,53.15598],[27.083007,53.156919],[27.081625,53.158009],[27.080518,53.158792],[27.080056,53.159041],[27.079594,53.159289],[27.078939,53.159625],[27.078741,53.159727],[27.07858,53.159811],[27.077722,53.160265],[27.077355,53.160425],[27.076831,53.160611],[27.075197,53.160986],[27.075055,53.161018],[27.072789,53.161537],[27.072294,53.161649],[27.070098,53.162193],[27.069462,53.162392],[27.068815,53.162635],[27.062939,53.164953],[27.054571,53.16822],[27.053375,53.168564],[27.051859,53.168904],[27.050775,53.16909],[27.046652,53.169605],[27.042162,53.1702],[27.037474,53.170784],[27.036957,53.170835],[27.032481,53.171089],[27.030428,53.171186],[27.028555,53.171274],[27.028236,53.171289],[27.027,53.171347],[27.026404,53.171416],[27.025959,53.171503],[27.023506,53.172465],[27.021682,53.173121],[27.017839,53.174483],[27.017044,53.174701],[27.016475,53.174785],[27.015413,53.174836],[27.014211,53.174926],[27.01331,53.175048],[27.009276,53.175878],[27.008321,53.176039],[27.007409,53.176097],[27.003601,53.176007],[27.000872,53.175825],[26.999169,53.175708],[26.995318,53.175544],[26.985823,53.174991],[26.983752,53.174949],[26.983321,53.17495],[26.974522,53.174976],[26.973123,53.175017],[26.96759,53.17523],[26.963384,53.175399],[26.960702,53.175505],[26.957919,53.175629],[26.956627,53.175682],[26.955796,53.175717],[26.955147,53.175745],[26.954805,53.17576],[26.954646,53.175767],[26.953824,53.175807],[26.95377,53.175809],[26.952543,53.175842],[26.945795,53.176141],[26.944779,53.176177],[26.944284,53.176155],[26.943701,53.175996],[26.936341,53.173006],[26.927346,53.170687],[26.925201,53.17016],[26.921513,53.169154],[26.920975,53.169038],[26.920314,53.168938],[26.91985,53.168942],[26.915012,53.169516],[26.913708,53.169622],[26.912557,53.169654],[26.910926,53.16957],[26.909159,53.16943],[26.908748,53.169403],[26.908063,53.16935],[26.905543,53.169198],[26.901339,53.168938],[26.90075,53.168948],[26.900302,53.168987],[26.888584,53.171561],[26.884812,53.172381],[26.884019,53.172553],[26.876572,53.174026],[26.875543,53.174231],[26.872263,53.174871],[26.872086,53.174906],[26.871338,53.175055],[26.863687,53.176523],[26.850482,53.179057],[26.847105,53.179779],[26.846716,53.179886],[26.845998,53.180251],[26.837875,53.18499],[26.836172,53.185906],[26.832873,53.187798],[26.832683,53.187895],[26.827427,53.190645],[26.825841,53.191473],[26.825272,53.191667],[26.823971,53.192019],[26.82189,53.192617],[26.821703,53.19267],[26.821579,53.192706],[26.816711,53.194086],[26.816186,53.194188],[26.815775,53.194235],[26.814902,53.194264],[26.814357,53.194218],[26.813643,53.194144],[26.812032,53.193909],[26.811746,53.193872],[26.810897,53.193747],[26.810259,53.193661],[26.810052,53.193634],[26.807104,53.19322],[26.806906,53.193184],[26.802988,53.192612],[26.79687,53.191678],[26.796112,53.191532],[26.795624,53.191411],[26.795056,53.191236],[26.793621,53.19067],[26.791151,53.189673],[26.787921,53.188319],[26.786205,53.18715],[26.783119,53.185066],[26.782611,53.184753],[26.782206,53.184547],[26.781744,53.184386],[26.781035,53.184189],[26.780325,53.184039],[26.779683,53.184001],[26.779053,53.184029],[26.770642,53.185048],[26.770426,53.185074],[26.769202,53.185222],[26.757776,53.186591],[26.754624,53.18697],[26.751569,53.187336],[26.749347,53.187594],[26.747385,53.187776],[26.747037,53.187817],[26.746544,53.18785],[26.746374,53.187815],[26.746061,53.188007],[26.745856,53.188139],[26.745317,53.188435],[26.744517,53.18882],[26.744033,53.189028],[26.743534,53.189204],[26.742035,53.189697],[26.737601,53.190823],[26.734524,53.191648],[26.733771,53.191916],[26.733024,53.192297],[26.732482,53.192592],[26.731625,53.193135],[26.728391,53.194997],[26.721075,53.199359],[26.718937,53.200585],[26.711117,53.205176],[26.707666,53.207132],[26.704103,53.209191],[26.703988,53.20926],[26.702447,53.210154],[26.699534,53.211865],[26.699071,53.212133],[26.698111,53.212699],[26.697936,53.2128],[26.698037,53.212983],[26.698398,53.213613],[26.698421,53.213652],[26.698687,53.214117],[26.698796,53.214305],[26.69916,53.21495],[26.699401,53.215387],[26.699478,53.215526],[26.699609,53.215764],[26.699789,53.216068],[26.69995,53.216364],[26.700006,53.21646],[26.700331,53.217021],[26.700607,53.21752],[26.700692,53.217643],[26.70077,53.217727],[26.70118,53.218094],[26.701459,53.21832],[26.701837,53.218592],[26.702483,53.219063],[26.703293,53.219653],[26.704363,53.220428],[26.704155,53.220503],[26.701978,53.221286],[26.701039,53.221589],[26.700308,53.221825],[26.698684,53.222082],[26.697659,53.222288],[26.697574,53.222304],[26.697404,53.222335],[26.697228,53.222362],[26.696855,53.22243],[26.696112,53.222557],[26.695876,53.222594],[26.694717,53.222812],[26.694004,53.222945],[26.693795,53.222983],[26.693655,53.222824],[26.693451,53.222708],[26.693326,53.222635],[26.693033,53.222696],[26.692899,53.222735],[26.692894,53.222737],[26.692894,53.222737],[26.692842,53.222753],[26.692839,53.222791],[26.692614,53.222956],[26.692608,53.222957],[26.692603,53.222957],[26.69255,53.222943],[26.692603,53.222957],[26.692608,53.222957],[26.692614,53.222956],[26.692839,53.222791],[26.692842,53.222753],[26.692894,53.222737],[26.692899,53.222735],[26.693033,53.222696],[26.693326,53.222635],[26.693451,53.222708],[26.693655,53.222824],[26.693795,53.222983],[26.694004,53.222945],[26.694717,53.222812],[26.695876,53.222594],[26.696112,53.222557],[26.696855,53.22243],[26.697228,53.222362],[26.697404,53.222335],[26.697574,53.222304],[26.697659,53.222288],[26.698684,53.222082],[26.700308,53.221825],[26.701039,53.221589],[26.701978,53.221286],[26.704155,53.220503],[26.704363,53.220428],[26.705377,53.221169],[26.706756,53.222177],[26.709425,53.22412],[26.710196,53.224639],[26.710826,53.225024],[26.711479,53.225422],[26.71213,53.225789],[26.712582,53.226029],[26.713294,53.226364],[26.714173,53.226708],[26.714833,53.226946],[26.714982,53.227],[26.715541,53.227203],[26.716082,53.227398],[26.716721,53.227592],[26.717144,53.227694],[26.718321,53.227956],[26.719555,53.22823],[26.719785,53.228285],[26.72032,53.228402],[26.721445,53.22865],[26.723687,53.229133],[26.723607,53.229257],[26.723528,53.229379],[26.723488,53.229441],[26.723423,53.229543],[26.723364,53.229645],[26.723086,53.230112],[26.722955,53.230329],[26.722395,53.231138],[26.721742,53.23199],[26.721096,53.232719],[26.720339,53.23353],[26.719218,53.234517],[26.718941,53.234769],[26.716993,53.236191],[26.715884,53.23685],[26.715043,53.23735],[26.709786,53.240511],[26.708406,53.241328],[26.705585,53.243046],[26.703733,53.244174],[26.701268,53.245663],[26.699472,53.246707],[26.698313,53.247326],[26.696672,53.248201],[26.695678,53.248637],[26.694756,53.24899],[26.694442,53.249111],[26.692883,53.249643],[26.691437,53.250076],[26.690511,53.250315],[26.689013,53.250656],[26.687588,53.250933],[26.687351,53.25098],[26.686973,53.251053],[26.68659,53.251113],[26.686323,53.251155],[26.684982,53.251373],[26.682599,53.251616],[26.681061,53.251714],[26.678965,53.251758],[26.676859,53.251771],[26.676437,53.25179],[26.676216,53.2518],[26.67608,53.251811],[26.675969,53.251825],[26.675901,53.251837],[26.67587,53.251863],[26.675829,53.251885],[26.675784,53.2519],[26.675733,53.251909],[26.675681,53.251911],[26.67563,53.251906],[26.675581,53.251894],[26.675538,53.251877],[26.675504,53.251855],[26.675478,53.25183],[26.675384,53.251806],[26.675227,53.251789],[26.674939,53.251774],[26.674476,53.251746],[26.669394,53.251667],[26.66682,53.251635],[26.665355,53.251574],[26.663861,53.251481],[26.661041,53.251238],[26.657087,53.250671],[26.655241,53.250341],[26.654289,53.250156],[26.653293,53.249933],[26.651944,53.249615],[26.650724,53.249305],[26.648829,53.248786],[26.648246,53.248626],[26.647527,53.248418],[26.646873,53.248198],[26.646337,53.248018],[26.645769,53.247804],[26.64514,53.247544],[26.644542,53.247281],[26.643912,53.246989],[26.643268,53.246666],[26.642427,53.246207],[26.641516,53.24564],[26.640818,53.245158],[26.640086,53.244617],[26.639775,53.244372],[26.639301,53.243953],[26.63849,53.243178],[26.636864,53.241475],[26.635995,53.240581],[26.635969,53.240554],[26.635851,53.240437],[26.634664,53.239222],[26.634468,53.239109],[26.634369,53.239058],[26.634254,53.239019],[26.634093,53.238984],[26.63396,53.238965],[26.633852,53.238959],[26.633747,53.238943],[26.63353,53.238948],[26.633384,53.23896],[26.633129,53.239043],[26.632847,53.239189],[26.632121,53.239886],[26.631611,53.240377],[26.631221,53.240751],[26.630738,53.241226],[26.630473,53.241485],[26.629789,53.242137],[26.626627,53.245147],[26.626335,53.245425],[26.626124,53.245626],[26.625449,53.246268],[26.625236,53.24649],[26.625057,53.246668],[26.624977,53.246761],[26.624746,53.246984],[26.623214,53.248465],[26.620164,53.251414],[26.615576,53.255885],[26.615377,53.256079],[26.615317,53.256137],[26.615136,53.256312],[26.612684,53.258686],[26.608073,53.26315],[26.607098,53.264094],[26.606744,53.264437],[26.605971,53.265188],[26.605175,53.26596],[26.60503,53.2661],[26.603677,53.267437],[26.601056,53.26993],[26.600061,53.270876],[26.599543,53.271378],[26.59885,53.272049],[26.598631,53.272275],[26.598411,53.272498],[26.597266,53.27361],[26.597203,53.273671],[26.596044,53.274787],[26.591581,53.279083],[26.590317,53.280301],[26.586921,53.283571],[26.586041,53.284418],[26.585782,53.284667],[26.58511,53.28532],[26.58465,53.285704],[26.58359,53.286589],[26.582592,53.287421],[26.578703,53.290666],[26.576276,53.292743],[26.576116,53.292989],[26.576034,53.293158],[26.575988,53.293493],[26.575995,53.293658],[26.575967,53.293814],[26.575881,53.293957],[26.575811,53.294028],[26.57568,53.294136],[26.575115,53.294583],[26.575037,53.294835],[26.57498,53.29519],[26.574966,53.295632],[26.574978,53.296108],[26.575321,53.299317],[26.575381,53.299814],[26.575414,53.300132],[26.57543,53.300481],[26.575383,53.300902],[26.575315,53.301285],[26.575165,53.301643],[26.574951,53.302015],[26.574793,53.302253],[26.574266,53.302846],[26.572965,53.304266],[26.570378,53.307082],[26.567068,53.310697],[26.566867,53.310918],[26.564692,53.313322],[26.56141,53.316873],[26.560352,53.318019],[26.559401,53.318951],[26.559314,53.319036],[26.556053,53.32177],[26.555393,53.322418],[26.55464,53.32317],[26.55392,53.323995],[26.553435,53.324552],[26.552042,53.326374],[26.551862,53.32661],[26.551434,53.327189],[26.551008,53.327681],[26.550648,53.328041],[26.550246,53.328379],[26.549757,53.328771],[26.549067,53.329316],[26.548438,53.329767],[26.546682,53.331059],[26.54618,53.33139],[26.545701,53.331681],[26.545246,53.331911],[26.544684,53.332153],[26.544243,53.332321],[26.543732,53.332473],[26.543328,53.332574],[26.543131,53.332615],[26.542899,53.332663],[26.542546,53.332726],[26.54213,53.332787],[26.541678,53.332844],[26.541422,53.33287],[26.541123,53.332891],[26.540756,53.332909],[26.540397,53.332916],[26.540096,53.332922],[26.539762,53.332922],[26.539375,53.332917],[26.539148,53.332914],[26.538317,53.332893],[26.5369,53.332853],[26.536279,53.33284],[26.534018,53.332776],[26.532065,53.332716],[26.530743,53.332686],[26.529954,53.332694],[26.529225,53.332725],[26.528518,53.332785],[26.528106,53.332842],[26.527753,53.332894],[26.527108,53.333026],[26.526485,53.333186],[26.525749,53.333412],[26.525046,53.333688],[26.52448,53.333948],[26.524032,53.334187],[26.523676,53.334395],[26.52337,53.334607],[26.522856,53.33498],[26.522733,53.335255],[26.522697,53.335436],[26.52266,53.335622],[26.522551,53.335772],[26.52238,53.335916],[26.522152,53.336037],[26.521888,53.336155],[26.521713,53.33628],[26.521548,53.336448],[26.521494,53.336641],[26.521125,53.337842],[26.52091,53.338494],[26.520487,53.339851],[26.520442,53.339987],[26.517898,53.348255],[26.517525,53.34948],[26.516134,53.353936],[26.516121,53.353977],[26.515229,53.356848],[26.514932,53.357787],[26.514493,53.359216],[26.5145,53.359282],[26.514499,53.359435],[26.514508,53.359509],[26.514564,53.359617],[26.514642,53.359689],[26.514661,53.359743],[26.514653,53.359788],[26.514592,53.359858],[26.514514,53.359908],[26.514423,53.359935],[26.514327,53.360018],[26.514235,53.360176],[26.514151,53.360329],[26.513847,53.361275],[26.51317,53.363464],[26.512547,53.365398],[26.511115,53.369981],[26.510283,53.37259],[26.509794,53.374132],[26.509484,53.375115],[26.509486,53.375467],[26.509524,53.375799],[26.50958,53.376004],[26.509794,53.376753],[26.509905,53.377137],[26.510207,53.378046],[26.510311,53.378416],[26.510416,53.378767],[26.510457,53.379069],[26.510475,53.379332],[26.510427,53.379659],[26.510324,53.380035],[26.510173,53.380354],[26.509991,53.380645],[26.509691,53.381026],[26.509176,53.38167],[26.508839,53.382087],[26.508375,53.382693],[26.507557,53.383744],[26.507373,53.383696],[26.50722,53.383637],[26.507064,53.383582],[26.506926,53.383519],[26.506815,53.383433],[26.507632,53.380939],[26.507682,53.380711],[26.507718,53.380524],[26.5077,53.380445],[26.507552,53.380243],[26.505445,53.378923],[26.504623,53.37842],[26.501344,53.376408],[26.494009,53.371885],[26.488861,53.36871],[26.48374,53.365552],[26.480115,53.363361],[26.47297,53.359253],[26.470116,53.357629],[26.468498,53.356726],[26.46606,53.355349],[26.463075,53.353648],[26.46197,53.353023],[26.460887,53.352404],[26.454634,53.34886],[26.453358,53.348133],[26.45278,53.347805],[26.451054,53.346818],[26.450569,53.346551],[26.449044,53.345652],[26.445787,53.343801],[26.445324,53.343538],[26.44471,53.343182],[26.442851,53.342147],[26.440966,53.341086],[26.440048,53.340573],[26.439441,53.340234],[26.437048,53.338896],[26.435154,53.337824],[26.43443,53.33741],[26.432587,53.336339],[26.43216,53.336103],[26.429565,53.334635],[26.427742,53.333604],[26.423539,53.33123],[26.419392,53.328874],[26.418319,53.328249],[26.416431,53.327155],[26.412547,53.324727],[26.410251,53.323221],[26.408219,53.321816],[26.407314,53.32119],[26.406089,53.320379],[26.403798,53.31876],[26.401475,53.317177],[26.399116,53.315545],[26.398398,53.315048],[26.398267,53.314959],[26.397181,53.314222],[26.39562,53.313131],[26.39255,53.311025],[26.390557,53.309656],[26.38803,53.307902],[26.387711,53.307689],[26.386609,53.306952],[26.385305,53.306113],[26.383957,53.305312],[26.382201,53.304325],[26.38043,53.303385],[26.379355,53.302814],[26.378131,53.302234],[26.376469,53.301472],[26.375875,53.301199],[26.374366,53.300548],[26.372904,53.299949],[26.371765,53.299509],[26.370663,53.29909],[26.369216,53.298575],[26.368776,53.298426],[26.367955,53.298148],[26.365742,53.29744],[26.363511,53.296776],[26.35964,53.295653],[26.359022,53.295475],[26.357068,53.294915],[26.356121,53.294637],[26.350869,53.293097],[26.35006,53.292865],[26.344248,53.291168],[26.341796,53.290445],[26.339286,53.289666],[26.336128,53.288515],[26.335162,53.288174],[26.333309,53.287443],[26.331448,53.286656],[26.329951,53.285949],[26.328356,53.285179],[26.327385,53.284711],[26.324661,53.283387],[26.323661,53.282902],[26.319955,53.281061],[26.313086,53.277683],[26.313005,53.277643],[26.312405,53.277348],[26.310347,53.276346],[26.308781,53.275564],[26.305913,53.274156],[26.304007,53.273222],[26.302062,53.272302],[26.301561,53.272075],[26.300983,53.271813],[26.298901,53.270935],[26.29724,53.270267],[26.295543,53.269658],[26.292952,53.268763],[26.29197,53.26845],[26.290307,53.267919],[26.288755,53.267461],[26.288607,53.26742],[26.28787,53.267218],[26.286214,53.266796],[26.283965,53.266243],[26.281896,53.265779],[26.279541,53.265253],[26.27619,53.264517],[26.27472,53.264196],[26.270851,53.263353],[26.268802,53.262905],[26.266667,53.26243],[26.262821,53.26157],[26.260683,53.261096],[26.256054,53.260072],[26.253812,53.259581],[26.250591,53.25887],[26.24794,53.258289],[26.246513,53.257973],[26.245193,53.25768],[26.242493,53.257078],[26.240229,53.256544],[26.237782,53.255924],[26.2353,53.25529],[26.232603,53.254529],[26.231371,53.254182],[26.229204,53.253535],[26.226978,53.252851],[26.224884,53.252198],[26.220562,53.25074],[26.219408,53.250341],[26.206336,53.245825],[26.204551,53.24521],[26.201052,53.244003],[26.19357,53.241416],[26.192019,53.24088],[26.19056,53.240376],[26.185309,53.238587],[26.183198,53.23782],[26.181501,53.237193],[26.180657,53.236853],[26.179517,53.236392],[26.178076,53.235788],[26.176765,53.235229],[26.175538,53.234663],[26.174401,53.234115],[26.172986,53.233396],[26.17167,53.232694],[26.170081,53.231813],[26.169068,53.231211],[26.167435,53.230199],[26.164605,53.228445],[26.161924,53.226777],[26.159255,53.225127],[26.158556,53.224704],[26.157589,53.224119],[26.155864,53.223091],[26.154417,53.222272],[26.153095,53.221553],[26.151811,53.220902],[26.150526,53.220275],[26.148935,53.219529],[26.147638,53.219011],[26.146541,53.218555],[26.144881,53.21788],[26.143037,53.217182],[26.142469,53.216965],[26.141541,53.216637],[26.140581,53.216324],[26.139264,53.215894],[26.137177,53.215184],[26.134342,53.21439],[26.132384,53.213881],[26.126292,53.212375],[26.123951,53.211797],[26.122077,53.211344],[26.120809,53.211033],[26.120669,53.210999],[26.118486,53.210463],[26.116175,53.209809],[26.114636,53.209339],[26.113077,53.208824],[26.112849,53.208743],[26.111689,53.208328],[26.110277,53.207792],[26.109468,53.207464],[26.107915,53.206826],[26.107516,53.206649],[26.106011,53.20598],[26.102484,53.204367],[26.099957,53.203169],[26.098879,53.202666],[26.09858,53.202525],[26.0977,53.202133],[26.095625,53.201215],[26.092449,53.199776],[26.087073,53.197338],[26.083674,53.195738],[26.082844,53.195374],[26.081583,53.19477],[26.08006,53.193988],[26.078608,53.193232],[26.077864,53.192835],[26.075951,53.19175],[26.074375,53.190861],[26.073665,53.190464],[26.072131,53.189586],[26.071278,53.189082],[26.068928,53.187793],[26.068089,53.187388],[26.06715,53.18694],[26.066411,53.186608],[26.06603,53.186453],[26.064905,53.186032],[26.063652,53.185538],[26.062072,53.18493],[26.060529,53.184428],[26.060127,53.184297],[26.058476,53.183813],[26.057182,53.183476],[26.05588,53.183157],[26.05435,53.182817],[26.05305,53.182557],[26.051513,53.182297],[26.050349,53.182112],[26.049038,53.18193],[26.047743,53.181778],[26.046342,53.181648],[26.045048,53.181538],[26.04404,53.181486],[26.043344,53.181454],[26.041709,53.181377],[26.041378,53.181373],[26.040585,53.181346],[26.038044,53.181257],[26.035858,53.181142],[26.034668,53.181057],[26.033181,53.180913],[26.031768,53.180769],[26.031523,53.180739],[26.030886,53.180662],[26.029614,53.180486],[26.028275,53.180262],[26.027125,53.180052],[26.02586,53.179799],[26.024627,53.179524],[26.021298,53.178677],[26.020835,53.17855],[26.019349,53.17814],[26.018837,53.177992],[26.018144,53.17779],[26.017605,53.177631],[26.017037,53.177462],[26.01468,53.17677],[26.012601,53.176152],[26.010584,53.1755],[26.008866,53.174897],[26.007114,53.174254],[26.005224,53.173505],[26.004566,53.173231],[26.003909,53.172958],[26.001429,53.171872],[25.999156,53.170885],[25.99591,53.16947],[25.994552,53.168882],[25.993207,53.168312],[25.992383,53.167941],[25.992229,53.167872],[25.991273,53.16742],[25.990338,53.166931],[25.989342,53.166421],[25.988723,53.166062],[25.987744,53.165476],[25.986944,53.164986],[25.985964,53.164348],[25.985401,53.16393],[25.984825,53.163501],[25.984354,53.163135],[25.983984,53.162828],[25.983515,53.16244],[25.983036,53.162052],[25.982294,53.161369],[25.98185,53.160946],[25.981388,53.160508],[25.980383,53.159509],[25.980021,53.159297],[25.979834,53.159219],[25.979573,53.159176],[25.97923,53.15915],[25.978983,53.159182],[25.9788,53.15924],[25.978598,53.15936],[25.978474,53.159516],[25.97845,53.15967],[25.978485,53.15987],[25.978634,53.160034],[25.97884,53.160134],[25.979108,53.160206],[25.979447,53.160224],[25.980207,53.160149],[25.980442,53.160111],[25.981527,53.159929],[25.986303,53.159132],[25.98673,53.159066],[25.987516,53.158934],[25.987976,53.158855],[25.990887,53.158386],[25.991553,53.158268],[25.992099,53.158157],[25.992661,53.157994],[25.992974,53.157877],[25.993262,53.157726],[25.993677,53.157453],[25.994256,53.157065],[25.994719,53.156698],[25.995262,53.156111],[25.995562,53.155791],[25.995977,53.155319],[25.99606,53.155061],[25.996776,53.154291],[25.996988,53.154054],[25.997185,53.153844],[25.997376,53.153645],[25.997551,53.153463],[25.998021,53.152958],[25.998284,53.152646],[25.998381,53.152538],[25.998727,53.152156],[25.999024,53.15188],[25.999125,53.151788],[25.999366,53.151602],[26.000018,53.150883],[26.000415,53.150455],[26.000442,53.150424],[26.000977,53.149826],[26.001128,53.149659],[26.001276,53.1495],[26.001679,53.149069],[26.001765,53.148977],[26.0035,53.147121],[26.0039,53.146693],[26.004114,53.146465],[26.004504,53.146048],[26.004761,53.145771],[26.00482,53.145708],[26.005256,53.145226],[26.005836,53.144585],[26.006486,53.14388],[26.006662,53.143676],[26.006829,53.143476],[26.00706,53.14321],[26.007202,53.14306],[26.007676,53.142551],[26.007813,53.142387],[26.007951,53.142221],[26.008037,53.142126],[26.008424,53.141695],[26.008785,53.141269],[26.009162,53.140843],[26.011501,53.138344],[26.012508,53.137233],[26.01252,53.137095],[26.012523,53.136991],[26.012505,53.136974],[26.012328,53.136914],[26.012218,53.136875],[26.011979,53.136791],[26.011862,53.13675],[26.011422,53.136627],[26.010971,53.1365],[26.01043,53.136348],[26.010201,53.13628],[26.009102,53.135957],[26.008208,53.135693],[26.006781,53.13527],[26.005904,53.13501],[26.005825,53.134986],[26.005733,53.134962],[26.00566,53.134942],[26.004652,53.134647],[26.004186,53.134511],[26.003593,53.134338],[26.002651,53.134067],[26.002563,53.134041],[26.002138,53.133919],[26.001265,53.133668],[26.00115,53.133635],[26.001074,53.133614],[25.999791,53.133249],[25.999252,53.133077],[25.998949,53.132914],[25.998811,53.132805],[25.998704,53.132673],[25.998633,53.132546],[25.998502,53.131981],[25.998429,53.13183],[25.998351,53.131714],[25.998253,53.131617],[25.99813,53.131522],[25.997962,53.131429],[25.997738,53.131342],[25.996136,53.130775],[25.995823,53.130664],[25.995572,53.130575],[25.995474,53.13054],[25.994936,53.13035],[25.994786,53.130296],[25.994707,53.13027],[25.994313,53.130137],[25.993298,53.129794],[25.992568,53.129547],[25.991169,53.129061],[25.990967,53.128991],[25.99056,53.12885],[25.990103,53.128692],[25.989298,53.128415],[25.988957,53.128297],[25.988732,53.128219],[25.988593,53.12817],[25.988312,53.128072],[25.98813,53.12799],[25.988022,53.127932],[25.987918,53.127832],[25.987589,53.127364],[25.987495,53.127233],[25.98743,53.12714],[25.986804,53.126248],[25.985689,53.124658],[25.985541,53.124444],[25.98539,53.124206],[25.985142,53.123814],[25.984972,53.123546],[25.984725,53.123157],[25.984578,53.122919],[25.984399,53.122662],[25.984257,53.122455],[25.983958,53.122021],[25.983639,53.121557],[25.983508,53.121421],[25.98338,53.121317],[25.983181,53.121184],[25.982988,53.121077],[25.981969,53.12065],[25.981886,53.120615],[25.981583,53.120488],[25.981046,53.120262],[25.980951,53.120222],[25.980459,53.120015],[25.979949,53.119801],[25.979647,53.119675],[25.979727,53.119609],[25.979779,53.119567],[25.980612,53.118887],[25.981223,53.118409],[25.981876,53.117898],[25.98021,53.117126],[25.979925,53.117003],[25.980436,53.116626],[25.980941,53.116253],[25.981261,53.116017],[25.981411,53.115892],[25.98163,53.115747]],"type":"LineString"},"properties":{"routeId":"mogilev","source":"https://routing.openstreetmap.de/routed-car","fetchedAt":"2026-10-08T07:16:42.283Z","distanceMeters":395129.9,"durationSeconds":21757.2,"demoOnly":true}}