{"type":"Feature","geometry":{"coordinates":[[30.166312,55.183582],[30.165998,55.183851],[30.165756,55.184064],[30.16662,55.184425],[30.166718,55.184555],[30.166724,55.184654],[30.166673,55.184725],[30.166623,55.184764],[30.166432,55.184934],[30.166123,55.185207],[30.166009,55.185295],[30.167418,55.185829],[30.167635,55.185907],[30.167947,55.186012],[30.168096,55.186063],[30.168312,55.186138],[30.168943,55.186375],[30.169442,55.186562],[30.170825,55.187067],[30.171442,55.187295],[30.172063,55.187529],[30.172207,55.187583],[30.172459,55.18768],[30.172673,55.187762],[30.172833,55.187823],[30.173576,55.188077],[30.174302,55.188341],[30.174451,55.188391],[30.17517,55.188646],[30.175944,55.18893],[30.176651,55.189195],[30.177386,55.189471],[30.177539,55.189531],[30.177829,55.189647],[30.178362,55.189879],[30.178585,55.189976],[30.178758,55.190052],[30.179009,55.190161],[30.179175,55.190234],[30.180231,55.190675],[30.180453,55.190772],[30.180568,55.19082],[30.180703,55.190876],[30.180977,55.191001],[30.181101,55.191065],[30.181179,55.191118],[30.181207,55.191137],[30.181294,55.191289],[30.181301,55.19136],[30.181283,55.191489],[30.181104,55.191927],[30.180958,55.192223],[30.180868,55.192392],[30.18068,55.192819],[30.180633,55.192927],[30.180854,55.192954],[30.18161,55.193056],[30.183315,55.19324],[30.183478,55.193243],[30.183978,55.193202],[30.185435,55.193088],[30.185926,55.193052],[30.186216,55.193023],[30.18642,55.192967],[30.186575,55.192916],[30.18771,55.192401],[30.187954,55.192287],[30.188214,55.192167],[30.188882,55.191859],[30.189119,55.191789],[30.18949,55.19173],[30.189618,55.19171],[30.189981,55.191661],[30.190015,55.19159],[30.190036,55.191499],[30.190035,55.191446],[30.19002,55.191381],[30.189579,55.189467],[30.189569,55.189424],[30.189549,55.189338],[30.189529,55.18926],[30.189429,55.188872],[30.189356,55.188597],[30.189142,55.187905],[30.189074,55.187671],[30.18887,55.187009],[30.188845,55.186944],[30.188798,55.186817],[30.188579,55.186127],[30.18857,55.185879],[30.188567,55.185824],[30.188554,55.185646],[30.188569,55.185504],[30.188671,55.185483],[30.188728,55.18547],[30.188771,55.18546],[30.188894,55.185436],[30.188954,55.185425],[30.189303,55.185358],[30.189444,55.185329],[30.189979,55.185226],[30.190402,55.185144],[30.190798,55.185067],[30.190991,55.18503],[30.191386,55.18495],[30.194432,55.184372],[30.19529,55.184209],[30.195495,55.18417],[30.199081,55.18349],[30.199328,55.183437],[30.200497,55.183206],[30.201807,55.182945],[30.202404,55.182825],[30.20265,55.182777],[30.202884,55.182731],[30.202923,55.182725],[30.203117,55.182692],[30.203179,55.182681],[30.203198,55.182677],[30.203897,55.182523],[30.205604,55.182203],[30.206777,55.181985],[30.207348,55.181878],[30.207669,55.181818],[30.208138,55.18173],[30.209327,55.181515],[30.20997,55.181394],[30.210103,55.181368],[30.211537,55.181098],[30.213503,55.180725],[30.213821,55.180662],[30.214354,55.180556],[30.215239,55.180384],[30.215931,55.18025],[30.216207,55.180197],[30.2165,55.180145],[30.21671,55.180108],[30.217051,55.180046],[30.217336,55.179995],[30.217693,55.179931],[30.218772,55.179739],[30.220001,55.179517],[30.220196,55.179482],[30.221094,55.179308],[30.221525,55.179224],[30.221634,55.179203],[30.222014,55.179132],[30.224182,55.178727],[30.225104,55.178558],[30.225259,55.178532],[30.225697,55.178457],[30.226745,55.178275],[30.227662,55.178117],[30.227947,55.178077],[30.228249,55.178035],[30.228741,55.177965],[30.229072,55.177919],[30.229514,55.177857],[30.229745,55.177827],[30.232755,55.177442],[30.23387,55.177302],[30.234449,55.17723],[30.235421,55.177097],[30.23672,55.176933],[30.23698,55.176901],[30.237408,55.176847],[30.238519,55.176706],[30.241895,55.176269],[30.243085,55.176114],[30.243932,55.176004],[30.24416,55.175909],[30.244301,55.175843],[30.244345,55.175789],[30.244372,55.175722],[30.244363,55.175568],[30.244195,55.175174],[30.244058,55.174833],[30.243697,55.173946],[30.243587,55.173654],[30.243444,55.173274],[30.243354,55.173035],[30.243311,55.172919],[30.24292,55.171923],[30.242512,55.170923],[30.242336,55.170477],[30.242242,55.170223],[30.241995,55.169648],[30.241761,55.169041],[30.241592,55.168613],[30.241471,55.168293],[30.241423,55.168167],[30.241622,55.168141],[30.241675,55.168134],[30.241857,55.168109],[30.242204,55.16806],[30.242801,55.167974],[30.24352,55.167872],[30.246536,55.16744],[30.246911,55.167387],[30.248831,55.167115],[30.248991,55.167092],[30.249862,55.166974],[30.250236,55.166923],[30.250641,55.166868],[30.251308,55.166782],[30.253302,55.166511],[30.253901,55.166433],[30.254801,55.166316],[30.254953,55.166301],[30.255257,55.166257],[30.25517,55.166073],[30.255142,55.166032],[30.254985,55.165845],[30.254961,55.16579],[30.254988,55.165688],[30.255259,55.165462],[30.255355,55.16539],[30.255465,55.165309],[30.256262,55.164716],[30.256628,55.164447],[30.257736,55.163617],[30.257871,55.163514],[30.258154,55.163293],[30.259477,55.162265],[30.259872,55.161965],[30.260396,55.161559],[30.261617,55.16064],[30.261771,55.16053],[30.261935,55.160413],[30.263063,55.159616],[30.263376,55.1594],[30.263537,55.159288],[30.263663,55.159202],[30.264454,55.15863],[30.265398,55.157955],[30.267354,55.156544],[30.269024,55.155423],[30.270543,55.154437],[30.276004,55.150694],[30.277122,55.149952],[30.277382,55.149767],[30.277652,55.149595],[30.277709,55.149559],[30.278911,55.1487],[30.279039,55.148606],[30.279361,55.148372],[30.282392,55.146333],[30.283679,55.145451],[30.285262,55.144367],[30.286051,55.143834],[30.286382,55.143617],[30.286645,55.143457],[30.286802,55.143372],[30.287035,55.143246],[30.287669,55.142963],[30.288175,55.142721],[30.292449,55.140677],[30.2964,55.138761],[30.300072,55.136968],[30.302723,55.135694],[30.305054,55.134573],[30.305329,55.134443],[30.310308,55.132042],[30.312177,55.131149],[30.313639,55.130417],[30.315106,55.129714],[30.316176,55.129203],[30.317328,55.12864],[30.319551,55.127593],[30.320573,55.127102],[30.321279,55.126699],[30.321865,55.126269],[30.323414,55.124925],[30.325085,55.123478],[30.325468,55.123266],[30.32531,55.123044],[30.324803,55.122338],[30.324301,55.121598],[30.323435,55.120326],[30.322588,55.119089],[30.322097,55.118289],[30.321526,55.117466],[30.320941,55.116578],[30.320163,55.115409],[30.319426,55.114313],[30.319267,55.114078],[30.319052,55.113811],[30.318697,55.113388],[30.318402,55.113092],[30.318224,55.112914],[30.318086,55.112784],[30.317433,55.112236],[30.316575,55.11164],[30.316026,55.111302],[30.315477,55.110998],[30.315008,55.110754],[30.314454,55.110489],[30.313691,55.110175],[30.311887,55.109476],[30.310077,55.108788],[30.307161,55.107661],[30.30675,55.107498],[30.306484,55.107393],[30.305896,55.10715],[30.305456,55.106962],[30.305074,55.106766],[30.30447,55.106454],[30.304017,55.106194],[30.303855,55.106096],[30.303693,55.105998],[30.303285,55.105728],[30.302538,55.105187],[30.302298,55.104983],[30.301945,55.104656],[30.301619,55.104273],[30.301297,55.103851],[30.301214,55.103731],[30.301044,55.103485],[30.300787,55.103077],[30.300562,55.102686],[30.300293,55.102107],[30.300103,55.101676],[30.300003,55.101359],[30.299926,55.101058],[30.299883,55.100713],[30.299842,55.100082],[30.299915,55.099225],[30.299982,55.098896],[30.300038,55.098655],[30.300119,55.098397],[30.300215,55.098136],[30.30043,55.097692],[30.300746,55.097187],[30.301285,55.096307],[30.301801,55.095677],[30.302195,55.095218],[30.304736,55.092283],[30.305396,55.09151],[30.306284,55.090471],[30.306483,55.090248],[30.30674,55.089951],[30.307027,55.089592],[30.307316,55.089243],[30.307576,55.088931],[30.3077,55.088756],[30.307724,55.088721],[30.307767,55.088659],[30.307805,55.088604],[30.308026,55.088258],[30.308196,55.088009],[30.308514,55.087421],[30.308641,55.087091],[30.308715,55.086849],[30.308805,55.086529],[30.308866,55.086215],[30.308904,55.08599],[30.308928,55.085619],[30.308904,55.084637],[30.308876,55.084171],[30.308724,55.082948],[30.308696,55.082723],[30.308573,55.081758],[30.308478,55.080907],[30.308358,55.079929],[30.30812,55.077931],[30.30802,55.07695],[30.307975,55.075973],[30.30797,55.075271],[30.308033,55.074433],[30.308087,55.074014],[30.308144,55.07356],[30.3083,55.072653],[30.30859,55.071233],[30.308706,55.070678],[30.308978,55.069341],[30.309157,55.068503],[30.309618,55.066309],[30.310134,55.063888],[30.310432,55.062497],[30.310579,55.061767],[30.310807,55.06066],[30.311226,55.058498],[30.31167,55.056217],[30.311707,55.056026],[30.311998,55.054605],[30.312262,55.053359],[30.312312,55.053137],[30.312379,55.052845],[30.312574,55.051885],[30.312673,55.051389],[30.312779,55.050894],[30.312849,55.050539],[30.312952,55.050048],[30.312993,55.049848],[30.313082,55.04941],[30.313394,55.048049],[30.313562,55.0474],[30.31363,55.047187],[30.313786,55.046694],[30.314081,55.045889],[30.314438,55.045064],[30.314785,55.044359],[30.31516,55.043659],[30.315573,55.042948],[30.316029,55.042238],[30.316572,55.041483],[30.317666,55.039998],[30.318613,55.038652],[30.318875,55.038278],[30.31976,55.036987],[30.32034,55.036176],[30.321128,55.034969],[30.321555,55.034242],[30.321668,55.034005],[30.321933,55.033464],[30.322424,55.032347],[30.322866,55.031057],[30.323095,55.030213],[30.323548,55.028545],[30.323864,55.027506],[30.324122,55.026509],[30.324438,55.025473],[30.324696,55.024735],[30.325106,55.023765],[30.325905,55.021861],[30.326117,55.021417],[30.326605,55.020393],[30.328032,55.0176],[30.329054,55.015704],[30.330339,55.01317],[30.330716,55.012389],[30.330785,55.012246],[30.33102,55.01179],[30.331436,55.010976],[30.333251,55.007455],[30.334163,55.005634],[30.334947,55.004103],[30.335444,55.003131],[30.336454,55.001169],[30.336957,55.00013],[30.337245,54.99955],[30.337367,54.999319],[30.337478,54.999084],[30.337721,54.998587],[30.339087,54.995847],[30.339608,54.994741],[30.341041,54.9917],[30.341366,54.991042],[30.3415,54.990751],[30.342083,54.989505],[30.342561,54.988482],[30.343067,54.987415],[30.343334,54.98686],[30.344253,54.984957],[30.345545,54.982354],[30.346552,54.980325],[30.347662,54.978083],[30.348053,54.977295],[30.348581,54.976259],[30.348804,54.975802],[30.349804,54.973773],[30.35106,54.971214],[30.351937,54.969453],[30.352175,54.968975],[30.353466,54.966363],[30.353613,54.96606],[30.354258,54.964768],[30.354385,54.964491],[30.354564,54.964099],[30.35472,54.963706],[30.355632,54.961404],[30.355814,54.960939],[30.35743,54.956811],[30.358011,54.955446],[30.358673,54.954067],[30.359658,54.952223],[30.3602,54.95121],[30.36145,54.948859],[30.361515,54.948736],[30.364243,54.943564],[30.365105,54.94193],[30.36872,54.935137],[30.368799,54.934989],[30.369861,54.93296],[30.371133,54.930585],[30.371769,54.929333],[30.373071,54.926916],[30.373558,54.925807],[30.374091,54.924326],[30.374329,54.923381],[30.374488,54.922568],[30.374639,54.921663],[30.374958,54.918508],[30.375192,54.916189],[30.375573,54.912662],[30.37575,54.910967],[30.375758,54.91088],[30.375966,54.90901],[30.376028,54.908396],[30.376134,54.907336],[30.376201,54.906664],[30.376449,54.904188],[30.376836,54.900515],[30.376895,54.899978],[30.376925,54.899671],[30.376967,54.899452],[30.377004,54.899333],[30.377133,54.898927],[30.377308,54.898502],[30.377696,54.897798],[30.378072,54.897277],[30.37864,54.896598],[30.379021,54.896222],[30.379912,54.895375],[30.381484,54.893985],[30.382668,54.892951],[30.384083,54.8917],[30.384638,54.89121],[30.385622,54.890238],[30.385958,54.889903],[30.386633,54.889243],[30.387274,54.888455],[30.387519,54.888143],[30.388445,54.88692],[30.388922,54.88625],[30.389309,54.885672],[30.389682,54.884991],[30.389983,54.884435],[30.390183,54.883967],[30.390357,54.883529],[30.390385,54.883421],[30.390476,54.883065],[30.390643,54.882368],[30.390765,54.881432],[30.390769,54.880572],[30.390689,54.879823],[30.39026,54.877869],[30.390152,54.877165],[30.390089,54.876329],[30.390068,54.876049],[30.390097,54.875282],[30.39011,54.874924],[30.390153,54.874399],[30.390168,54.874218],[30.390279,54.873648],[30.39037,54.873183],[30.390605,54.872426],[30.392643,54.865543],[30.393932,54.861187],[30.394782,54.858344],[30.394907,54.857924],[30.395236,54.856823],[30.397617,54.848853],[30.397885,54.847952],[30.399565,54.842307],[30.400538,54.83913],[30.401603,54.835653],[30.403216,54.830278],[30.403569,54.829101],[30.40507,54.824076],[30.405402,54.822916],[30.40581,54.821494],[30.405841,54.821385],[30.405935,54.821058],[30.406056,54.820658],[30.406401,54.819521],[30.406692,54.81856],[30.408465,54.812592],[30.410229,54.806653],[30.410712,54.804956],[30.411061,54.803766],[30.411227,54.803199],[30.411879,54.800938],[30.412398,54.799172],[30.413315,54.795992],[30.413492,54.795392],[30.413656,54.794833],[30.413983,54.793715],[30.414217,54.792925],[30.415849,54.787245],[30.416703,54.784306],[30.417073,54.783006],[30.417132,54.782799],[30.417417,54.781747],[30.417471,54.781557],[30.418769,54.777109],[30.418999,54.776315],[30.420373,54.771579],[30.421206,54.768731],[30.421357,54.768198],[30.421851,54.766463],[30.4222,54.765267],[30.423762,54.759827],[30.423896,54.759367],[30.424981,54.75563],[30.425366,54.754244],[30.425757,54.75257],[30.426204,54.75055],[30.426256,54.750311],[30.426949,54.747154],[30.42801,54.74316],[30.428457,54.74163],[30.429622,54.737644],[30.430787,54.733564],[30.430839,54.733366],[30.431001,54.732758],[30.431361,54.731401],[30.431676,54.73031],[30.433237,54.72469],[30.433468,54.723866],[30.434067,54.721733],[30.434431,54.720456],[30.434865,54.718913],[30.435727,54.715854],[30.435976,54.714981],[30.436246,54.714032],[30.436334,54.713711],[30.436723,54.712481],[30.437279,54.710984],[30.437934,54.709388],[30.438432,54.708146],[30.438587,54.707755],[30.438973,54.706784],[30.4392,54.706224],[30.439699,54.704991],[30.440134,54.703905],[30.441195,54.701301],[30.441543,54.7004],[30.441733,54.699881],[30.441999,54.699153],[30.442142,54.698606],[30.442156,54.697565],[30.442128,54.697296],[30.442099,54.697009],[30.441949,54.696433],[30.439459,54.690121],[30.438916,54.688743],[30.438734,54.68808],[30.438672,54.687628],[30.438678,54.686679],[30.438893,54.685314],[30.43919,54.683573],[30.439221,54.683348],[30.43985,54.680121],[30.439883,54.679582],[30.439964,54.678266],[30.439952,54.677743],[30.439834,54.676349],[30.439615,54.674979],[30.439261,54.672909],[30.438877,54.670724],[30.438822,54.670361],[30.438778,54.670106],[30.438528,54.668674],[30.438182,54.66661],[30.437896,54.665226],[30.437599,54.663795],[30.437317,54.662557],[30.437274,54.662351],[30.437136,54.661701],[30.436811,54.660162],[30.436561,54.65885],[30.436451,54.657682],[30.436414,54.656502],[30.43651,54.655232],[30.436781,54.653606],[30.436928,54.652819],[30.437159,54.651579],[30.437514,54.649679],[30.437648,54.648955],[30.437799,54.648066],[30.438875,54.64234],[30.438913,54.642134],[30.438957,54.641903],[30.439123,54.640819],[30.43915,54.640641],[30.439193,54.640088],[30.439264,54.638889],[30.439278,54.638578],[30.43936,54.636911],[30.439441,54.634851],[30.439671,54.628984],[30.439694,54.628373],[30.4397,54.628277],[30.439785,54.626273],[30.439823,54.625367],[30.43983,54.624872],[30.439817,54.624638],[30.439809,54.624422],[30.439757,54.623903],[30.439723,54.623452],[30.439675,54.623043],[30.43955,54.622168],[30.439374,54.621388],[30.439193,54.620827],[30.439107,54.620552],[30.438853,54.619862],[30.438297,54.618398],[30.43803,54.617689],[30.437838,54.617147],[30.437725,54.616562],[30.437643,54.616195],[30.437632,54.615926],[30.437674,54.615364],[30.437909,54.614516],[30.438171,54.613648],[30.438428,54.612785],[30.43855,54.612377],[30.438748,54.611721],[30.438927,54.61108],[30.439833,54.608027],[30.44052,54.605719],[30.440833,54.604812],[30.441297,54.603669],[30.442085,54.60175],[30.442398,54.600776],[30.442566,54.6002],[30.44293,54.59886],[30.443134,54.597706],[30.443329,54.59639],[30.443614,54.595145],[30.444015,54.593832],[30.444525,54.592131],[30.444701,54.59152],[30.445016,54.590423],[30.445384,54.589238],[30.44603,54.587024],[30.446636,54.584958],[30.447466,54.582138],[30.448241,54.579469],[30.44929,54.575938],[30.44977,54.574199],[30.450124,54.572907],[30.450278,54.572371],[30.450334,54.572179],[30.450382,54.572024],[30.450503,54.571599],[30.45055,54.571436],[30.450759,54.57072],[30.451014,54.569886],[30.451264,54.569033],[30.45158,54.56795],[30.451635,54.56776],[30.451758,54.567337],[30.451823,54.567097],[30.452057,54.566232],[30.453144,54.562641],[30.454088,54.559411],[30.454126,54.559278],[30.454613,54.557732],[30.45466,54.557584],[30.454797,54.557101],[30.45494,54.556596],[30.455278,54.555489],[30.455439,54.554938],[30.455496,54.554758],[30.455673,54.554223],[30.455866,54.553579],[30.455909,54.553302],[30.455907,54.55307],[30.455871,54.55282],[30.455785,54.552515],[30.455571,54.552079],[30.455292,54.551628],[30.454439,54.550294],[30.454262,54.55],[30.454044,54.549679],[30.453581,54.548923],[30.453473,54.54875],[30.453326,54.548542],[30.451103,54.545109],[30.450639,54.5444],[30.449615,54.542798],[30.449578,54.542741],[30.449494,54.542615],[30.449346,54.542387],[30.449164,54.542092],[30.449115,54.542015],[30.448971,54.541797],[30.448402,54.540893],[30.448252,54.540656],[30.448217,54.540605],[30.448182,54.540554],[30.447959,54.540205],[30.447683,54.539777],[30.446554,54.538023],[30.446361,54.537708],[30.446133,54.537375],[30.446052,54.537256],[30.445961,54.53711],[30.44566,54.536647],[30.445379,54.536218],[30.444666,54.535087],[30.444566,54.534937],[30.443885,54.533876],[30.443809,54.533758],[30.443434,54.533177],[30.443106,54.532664],[30.442362,54.531507],[30.442196,54.531226],[30.441684,54.530436],[30.440919,54.529237],[30.440845,54.529119],[30.43962,54.527196],[30.439555,54.527093],[30.439494,54.526997],[30.438533,54.525514],[30.438345,54.525213],[30.438297,54.525138],[30.438219,54.525015],[30.43784,54.524436],[30.437416,54.523775],[30.43723,54.523479],[30.437197,54.523431],[30.436566,54.522441],[30.435693,54.521091],[30.435648,54.521015],[30.435584,54.520921],[30.434886,54.519822],[30.434292,54.51888],[30.434283,54.518865],[30.434248,54.51881],[30.434158,54.51867],[30.433587,54.517782],[30.433392,54.517478],[30.43332,54.517366],[30.433284,54.51731],[30.432943,54.516775],[30.432857,54.516639],[30.432472,54.516058],[30.432212,54.515643],[30.432056,54.515395],[30.432001,54.515303],[30.431678,54.514803],[30.431627,54.514715],[30.431303,54.514209],[30.431241,54.514113],[30.431198,54.51405],[30.430469,54.512886],[30.430136,54.512387],[30.430096,54.512327],[30.429956,54.512179],[30.429825,54.512045],[30.429294,54.511494],[30.429011,54.511205],[30.428952,54.511144],[30.428822,54.511024],[30.428688,54.510912],[30.428065,54.510396],[30.427832,54.510209],[30.427422,54.509879],[30.426993,54.509521],[30.426566,54.509183],[30.426504,54.509129],[30.425966,54.508677],[30.425828,54.508577],[30.425659,54.508457],[30.424595,54.507697],[30.424458,54.507611],[30.423541,54.506974],[30.423338,54.507076],[30.423154,54.507175],[30.423144,54.507199],[30.423159,54.507221],[30.423264,54.5073],[30.423267,54.507333],[30.423178,54.507404],[30.422562,54.507812],[30.422538,54.507828],[30.422562,54.507812],[30.423178,54.507404],[30.423267,54.507333],[30.423264,54.5073],[30.423159,54.507221],[30.423144,54.507199],[30.423144,54.507199],[30.423154,54.507175],[30.423338,54.507076],[30.423541,54.506974],[30.423102,54.506674],[30.422598,54.506328],[30.422486,54.506294],[30.422203,54.50626],[30.421996,54.506221],[30.421858,54.506185],[30.421619,54.506085],[30.421464,54.506038],[30.421292,54.506003],[30.421131,54.505989],[30.420857,54.505978],[30.420751,54.505982],[30.420394,54.506005],[30.420253,54.506022],[30.420114,54.506041],[30.419968,54.506076],[30.419742,54.50615],[30.41951,54.506243],[30.418911,54.506533],[30.418679,54.50664],[30.418114,54.506913],[30.417846,54.506983],[30.417534,54.506771],[30.416515,54.506079],[30.415847,54.505647],[30.415513,54.505357],[30.415177,54.50503],[30.415081,54.50493],[30.414622,54.50448],[30.414543,54.504403],[30.414476,54.504337],[30.413859,54.503874],[30.412982,54.503254],[30.412852,54.50316],[30.412299,54.502759],[30.411103,54.501923],[30.410717,54.501687],[30.41048,54.501558],[30.410166,54.501401],[30.409242,54.500926],[30.408796,54.500683],[30.408492,54.500424],[30.408339,54.500296],[30.408072,54.500066],[30.407589,54.499673],[30.407275,54.499417],[30.407232,54.499382],[30.406155,54.498519],[30.405804,54.498235],[30.405401,54.497909],[30.404675,54.497329],[30.403912,54.496718],[30.403115,54.496109],[30.402884,54.495927],[30.402792,54.495854],[30.401415,54.494755],[30.40094,54.494377],[30.400842,54.494298],[30.4006,54.494392],[30.399913,54.494603],[30.399556,54.494672],[30.399208,54.494684],[30.397167,54.494671],[30.396982,54.494664],[30.396001,54.494648],[30.394445,54.494562],[30.394269,54.494555],[30.393705,54.494525],[30.391622,54.494446],[30.391128,54.494435],[30.389654,54.494375],[30.389364,54.49434],[30.38908,54.494278],[30.388798,54.494208],[30.388427,54.49408],[30.38778,54.493861],[30.387705,54.493836],[30.38749,54.493763],[30.387474,54.493758],[30.387184,54.49366],[30.386542,54.493447],[30.385933,54.493245],[30.385676,54.493159],[30.385382,54.493062],[30.38178,54.491889],[30.381589,54.491808],[30.38065,54.491356],[30.380462,54.491272],[30.380214,54.491166],[30.379711,54.490986],[30.379289,54.490852],[30.378765,54.490699],[30.378154,54.490544],[30.377057,54.490272],[30.376178,54.490034],[30.374311,54.489498],[30.372017,54.48876],[30.370255,54.488206],[30.370007,54.488134],[30.368809,54.487745],[30.368027,54.487499],[30.367047,54.487173],[30.365159,54.486556],[30.364843,54.486457],[30.364732,54.486431],[30.364577,54.486399],[30.364394,54.486381],[30.364258,54.486378],[30.364049,54.486384],[30.363821,54.486418],[30.363636,54.486466],[30.363334,54.486572],[30.363205,54.486607],[30.362979,54.486631],[30.362891,54.486634],[30.362735,54.48664],[30.362355,54.486623],[30.361761,54.486557],[30.36137,54.486498],[30.361083,54.486455],[30.359833,54.486314],[30.359497,54.486267],[30.359227,54.486212],[30.358949,54.48656],[30.358821,54.486832],[30.358738,54.487065],[30.358725,54.48711],[30.358363,54.488422],[30.358266,54.488841],[30.358233,54.48906],[30.358193,54.489677],[30.358139,54.490447],[30.358128,54.490539],[30.358106,54.490656],[30.357894,54.491484],[30.357752,54.492209],[30.357744,54.492412],[30.357762,54.492712],[30.357841,54.49294],[30.358015,54.49325],[30.358238,54.493553],[30.358543,54.494012],[30.358683,54.494269],[30.358787,54.49465],[30.358743,54.494952],[30.35857,54.49532],[30.358355,54.495839],[30.358302,54.496048],[30.358236,54.496286],[30.358172,54.496767],[30.358079,54.497379],[30.358006,54.497902],[30.357907,54.498295],[30.356977,54.500674],[30.356947,54.50075],[30.356643,54.500749],[30.356089,54.500745],[30.355314,54.50063],[30.354758,54.500544],[30.352336,54.500104],[30.352201,54.500082],[30.34944,54.499654],[30.34893,54.499581],[30.34874,54.499545],[30.348554,54.499526],[30.346687,54.49961],[30.346026,54.499661],[30.345343,54.499731],[30.345402,54.500247],[30.345451,54.500687],[30.345492,54.501091],[30.345516,54.501331],[30.345524,54.501409],[30.345565,54.501826],[30.345604,54.502207],[30.345638,54.502514],[30.34573,54.503373],[30.34579,54.504114],[30.345838,54.504717],[30.345859,54.504992],[30.34596,54.505802],[30.346095,54.506685],[30.346186,54.507498],[30.346357,54.508875],[30.346455,54.50992],[30.346481,54.510525],[30.346093,54.510473],[30.344427,54.510292],[30.343674,54.510243],[30.342066,54.510185],[30.338798,54.510096],[30.33712,54.510054],[30.336939,54.510049],[30.333762,54.509965],[30.332973,54.50993],[30.330689,54.509876],[30.330228,54.509863],[30.329757,54.509856],[30.329261,54.50987],[30.329056,54.509885],[30.32873,54.509923],[30.328419,54.50998],[30.328183,54.510049],[30.327896,54.510139],[30.327641,54.51025],[30.327238,54.510468],[30.326616,54.510823],[30.326235,54.511058],[30.324661,54.512012],[30.324377,54.512205],[30.324245,54.512335],[30.324138,54.512476],[30.32409,54.512581],[30.324084,54.512676],[30.324113,54.512762],[30.32416,54.51284],[30.32429,54.512942],[30.324726,54.513218],[30.324823,54.513288],[30.324942,54.513402],[30.325015,54.513507],[30.325098,54.513617],[30.325155,54.513726],[30.325182,54.513826],[30.325261,54.514104],[30.325278,54.514163],[30.325359,54.51441],[30.325367,54.514447],[30.325433,54.514674],[30.325437,54.514771],[30.325428,54.514874],[30.325395,54.514937],[30.32528,54.515027],[30.3252,54.515076],[30.324897,54.51518],[30.324656,54.515232],[30.324311,54.515266],[30.324052,54.515275],[30.323827,54.515283],[30.323601,54.515297],[30.323265,54.515353],[30.322984,54.515393],[30.32259,54.515474],[30.322124,54.515615],[30.321849,54.515714],[30.321516,54.515841],[30.320505,54.516259],[30.319919,54.516523],[30.319473,54.516741],[30.318914,54.517036],[30.318471,54.517303],[30.317993,54.517664],[30.317063,54.518405],[30.316712,54.518714],[30.316522,54.518901],[30.316394,54.519044],[30.316237,54.519256],[30.316066,54.519546],[30.315379,54.520748],[30.315063,54.521227],[30.314596,54.521685],[30.314317,54.521872],[30.31392,54.522065],[30.313764,54.522139],[30.313599,54.522216],[30.313367,54.522307],[30.311098,54.522887],[30.306764,54.523942],[30.300766,54.525387],[30.298512,54.525917],[30.297995,54.526044],[30.297542,54.526156],[30.297242,54.526233],[30.297182,54.526248],[30.296677,54.526374],[30.296114,54.52651],[30.294438,54.526963],[30.29292,54.527392],[30.291303,54.527831],[30.291169,54.527868],[30.28956,54.52832],[30.287181,54.529019],[30.286875,54.529109],[30.286563,54.529201],[30.286396,54.529268],[30.286154,54.529346],[30.285919,54.529423],[30.27849,54.53184],[30.276588,54.532388],[30.27508,54.5327],[30.266014,54.534768],[30.265084,54.534967],[30.264276,54.53509],[30.259038,54.535607],[30.252725,54.536274],[30.252448,54.536302],[30.248129,54.536764],[30.245472,54.537014],[30.244919,54.537079],[30.244768,54.537095],[30.244476,54.537129],[30.244022,54.537182],[30.242518,54.537346],[30.241436,54.537447],[30.240486,54.537548],[30.239289,54.537787],[30.239169,54.537826],[30.239071,54.537882],[30.238956,54.538013],[30.238927,54.538075],[30.238881,54.53814],[30.238795,54.538233],[30.238669,54.538303],[30.238465,54.538383],[30.238202,54.538459],[30.238005,54.538503],[30.237789,54.538545],[30.237582,54.538553],[30.237436,54.538547],[30.237261,54.538512],[30.237082,54.538491],[30.23701,54.538488],[30.236933,54.538489],[30.23686,54.5385],[30.236065,54.53877],[30.235932,54.53883],[30.235207,54.539248],[30.234842,54.539491],[30.234493,54.539749],[30.233919,54.540263],[30.233259,54.540938],[30.232658,54.541548],[30.232296,54.541894],[30.231985,54.542401],[30.231725,54.542957],[30.230954,54.54482],[30.229916,54.54721],[30.229899,54.547248],[30.229833,54.547417],[30.229533,54.548142],[30.229368,54.548547],[30.22948,54.548905],[30.229622,54.549071],[30.229862,54.549262],[30.230102,54.549354],[30.230359,54.549408],[30.230691,54.54941],[30.231013,54.549369],[30.231287,54.549296],[30.231493,54.549198],[30.23162,54.549078],[30.231728,54.54892],[30.231747,54.548625],[30.231666,54.548484],[30.231555,54.548379],[30.231258,54.548206],[30.230641,54.548005],[30.228715,54.547735],[30.226426,54.547417],[30.222638,54.546892],[30.219282,54.546425],[30.217227,54.54614],[30.215397,54.5459],[30.213124,54.545603],[30.209197,54.545068],[30.208295,54.54493],[30.207561,54.544828],[30.202878,54.544141],[30.200488,54.5438],[30.198942,54.543555],[30.19781,54.543323],[30.196184,54.542896],[30.195571,54.542697],[30.195178,54.54257],[30.194215,54.542213],[30.193931,54.542103],[30.193085,54.54174],[30.191862,54.541131],[30.190276,54.540341],[30.188879,54.53964],[30.187518,54.538954],[30.183952,54.53719],[30.183862,54.537145],[30.183102,54.536769],[30.182888,54.536663],[30.181957,54.536195],[30.18083,54.535628],[30.177256,54.533831],[30.175915,54.533157],[30.172142,54.531269],[30.170654,54.530525],[30.168032,54.529205],[30.166618,54.528488],[30.162897,54.526674],[30.162453,54.526452],[30.159109,54.524781],[30.157094,54.523759],[30.155709,54.523056],[30.148798,54.51955],[30.148641,54.51947],[30.14672,54.518496],[30.143042,54.516642],[30.142472,54.516355],[30.13883,54.514473],[30.136408,54.513246],[30.135942,54.51301],[30.1282,54.50909],[30.127225,54.508641],[30.126129,54.508208],[30.12526,54.5079],[30.125046,54.507825],[30.12378,54.507451],[30.121955,54.506973],[30.120596,54.506697],[30.119173,54.506478],[30.118283,54.506349],[30.11743,54.506226],[30.11627,54.506056],[30.114969,54.505881],[30.113916,54.505741],[30.110732,54.505294],[30.108345,54.504957],[30.107647,54.504859],[30.106889,54.504756],[30.105651,54.504577],[30.10489,54.504482],[30.102338,54.504127],[30.09428,54.503004],[30.091959,54.502671],[30.091429,54.502595],[30.089667,54.502404],[30.087888,54.502242],[30.086758,54.502163],[30.082373,54.501898],[30.081647,54.501848],[30.080497,54.501772],[30.075341,54.501432],[30.073382,54.501305],[30.071056,54.501155],[30.068117,54.500968],[30.064288,54.500737],[30.063478,54.500687],[30.061098,54.500538],[30.053814,54.500075],[30.052317,54.499948],[30.051095,54.499818],[30.050441,54.499717],[30.04981,54.499603],[30.048986,54.499441],[30.048385,54.499304],[30.047852,54.499174],[30.046529,54.498818],[30.044049,54.49809],[30.039778,54.496814],[30.035662,54.495555],[30.033176,54.494849],[30.032857,54.49475],[30.031064,54.494241],[30.02958,54.493778],[30.028398,54.493417],[30.027265,54.493098],[30.026414,54.492898],[30.025656,54.492734],[30.024881,54.492585],[30.022206,54.492189],[30.022027,54.492168],[30.021385,54.49206],[30.019726,54.491775],[30.017809,54.491497],[30.015044,54.491097],[30.006653,54.48988],[30.000699,54.489017],[29.991851,54.48774],[29.983323,54.486509],[29.975523,54.485386],[29.972492,54.48495],[29.9696,54.484534],[29.968339,54.484345],[29.962611,54.483523],[29.961735,54.483398],[29.961605,54.483382],[29.958828,54.482983],[29.956664,54.482662],[29.952629,54.482064],[29.946796,54.481212],[29.941007,54.480367],[29.939345,54.480125],[29.938584,54.480004],[29.934466,54.479413],[29.933786,54.479316],[29.931398,54.478974],[29.929483,54.478699],[29.927012,54.478344],[29.926069,54.478208],[29.922078,54.477605],[29.920387,54.47735],[29.916954,54.476863],[29.91483,54.476562],[29.912112,54.476166],[29.911327,54.47605],[29.90182,54.47467],[29.900712,54.474509],[29.898383,54.474216],[29.8962,54.47399],[29.894755,54.473853],[29.89217,54.47365],[29.889765,54.473524],[29.887885,54.473468],[29.887086,54.473444],[29.886802,54.473439],[29.884972,54.473404],[29.882602,54.473391],[29.879611,54.473457],[29.877217,54.473576],[29.874966,54.473714],[29.872864,54.473858],[29.871797,54.473954],[29.871377,54.473992],[29.870597,54.474068],[29.869725,54.474169],[29.867763,54.474389],[29.866376,54.474569],[29.865414,54.474695],[29.863564,54.474984],[29.862368,54.475185],[29.859943,54.475612],[29.859119,54.475769],[29.857369,54.476105],[29.85663,54.476252],[29.856038,54.47637],[29.852116,54.477145],[29.851447,54.477281],[29.849067,54.477759],[29.847742,54.478023],[29.845642,54.478423],[29.844495,54.478603],[29.843292,54.478791],[29.842075,54.478952],[29.84159,54.479016],[29.839634,54.479231],[29.837559,54.479413],[29.835696,54.47952],[29.833375,54.479571],[29.831267,54.47958],[29.828835,54.479492],[29.826785,54.479377],[29.825869,54.479326],[29.823261,54.479078],[29.820342,54.478746],[29.818675,54.478559],[29.816063,54.478247],[29.81297,54.477912],[29.811466,54.477715],[29.810342,54.477567],[29.808891,54.47734],[29.808343,54.477254],[29.806657,54.476955],[29.803954,54.476395],[29.796345,54.474685],[29.78943,54.47313],[29.782286,54.471507],[29.768234,54.468313],[29.754273,54.465141],[29.753811,54.465038],[29.75356,54.464983],[29.751248,54.464465],[29.748842,54.463976],[29.746886,54.463621],[29.745567,54.463405],[29.74385,54.463137],[29.740709,54.46268],[29.739491,54.462539],[29.738386,54.462411],[29.734953,54.462049],[29.729607,54.461571],[29.72637,54.461281],[29.723603,54.461044],[29.721146,54.460834],[29.719481,54.460698],[29.717961,54.460566],[29.71703,54.46048],[29.715832,54.460369],[29.715203,54.460312],[29.714338,54.460246],[29.710902,54.459969],[29.710164,54.459908],[29.708589,54.459772],[29.706357,54.45958],[29.704613,54.459409],[29.703006,54.459239],[29.700168,54.458887],[29.699658,54.458824],[29.696409,54.458304],[29.69484,54.45803],[29.693885,54.457853],[29.693183,54.457724],[29.691546,54.457385],[29.691187,54.457311],[29.686841,54.456316],[29.679244,54.454524],[29.67068,54.452505],[29.665607,54.451306],[29.665308,54.451227],[29.665059,54.451161],[29.661462,54.450211],[29.65987,54.449773],[29.657766,54.449104],[29.656709,54.448774],[29.652949,54.447643],[29.651349,54.447126],[29.649858,54.446644],[29.648928,54.446343],[29.643861,54.44475],[29.639876,54.443501],[29.638051,54.442923],[29.637025,54.442598],[29.633612,54.441508],[29.630101,54.44044],[29.628726,54.440051],[29.627482,54.439726],[29.624945,54.439086],[29.624207,54.438916],[29.622977,54.438632],[29.62129,54.43828],[29.61811,54.43768],[29.614528,54.437112],[29.610004,54.436486],[29.609701,54.436445],[29.60943,54.436408],[29.606853,54.436058],[29.604048,54.435688],[29.600086,54.435141],[29.59674,54.43468],[29.594048,54.434311],[29.590263,54.433793],[29.588041,54.433489],[29.584245,54.43294],[29.583541,54.432842],[29.579225,54.432265],[29.578859,54.432216],[29.5751,54.431684],[29.570306,54.431006],[29.56733,54.430516],[29.564179,54.429936],[29.563839,54.429873],[29.560572,54.429232],[29.558106,54.428703],[29.552988,54.427547],[29.549684,54.426814],[29.54606,54.426009],[29.545371,54.425855],[29.541024,54.424893],[29.539439,54.424533],[29.537793,54.424181],[29.536401,54.423868],[29.535561,54.423688],[29.53548,54.42367],[29.534704,54.42349],[29.533331,54.423179],[29.532261,54.422915],[29.530213,54.422392],[29.528821,54.421985],[29.528135,54.421784],[29.525791,54.421044],[29.524199,54.4205],[29.523434,54.420224],[29.522649,54.419902],[29.521812,54.419565],[29.520899,54.419198],[29.51838,54.418144],[29.515235,54.416762],[29.509467,54.414272],[29.508961,54.414054],[29.507364,54.413326],[29.505504,54.412573],[29.502177,54.411311],[29.499346,54.410269],[29.497221,54.40957],[29.496537,54.409362],[29.495479,54.409039],[29.493422,54.408464],[29.491921,54.408077],[29.490507,54.407725],[29.488948,54.407355],[29.487309,54.407003],[29.484141,54.406362],[29.482747,54.40608],[29.470218,54.403544],[29.467894,54.403059],[29.466453,54.402758],[29.464613,54.402394],[29.463062,54.402103],[29.460001,54.401548],[29.457591,54.401146],[29.456363,54.400953],[29.455131,54.40077],[29.453139,54.400493],[29.452327,54.400381],[29.451894,54.400322],[29.451012,54.400201],[29.449034,54.399963],[29.439463,54.398838],[29.437715,54.398631],[29.434555,54.398257],[29.431354,54.397853],[29.429677,54.397638],[29.42808,54.39743],[29.425782,54.397096],[29.423329,54.396691],[29.422609,54.396572],[29.420185,54.396166],[29.415651,54.395347],[29.413382,54.394883],[29.410777,54.39434],[29.408725,54.3939],[29.405556,54.393221],[29.394117,54.390718],[29.39214,54.390286],[29.391616,54.390171],[29.385073,54.38874],[29.379653,54.387569],[29.375113,54.386589],[29.372875,54.3861],[29.370716,54.385643],[29.369169,54.385339],[29.367518,54.385014],[29.365458,54.384648],[29.36493,54.384554],[29.363079,54.384248],[29.361367,54.383969],[29.359616,54.383721],[29.35458,54.383037],[29.350671,54.382526],[29.349089,54.38232],[29.345239,54.381807],[29.343732,54.381598],[29.34025,54.381157],[29.339696,54.38108],[29.336236,54.380596],[29.335756,54.380518],[29.334824,54.380365],[29.333336,54.380111],[29.330234,54.379539],[29.327629,54.378985],[29.324766,54.378318],[29.323026,54.377894],[29.321515,54.377473],[29.321364,54.377431],[29.319692,54.376986],[29.317322,54.376273],[29.315646,54.375771],[29.314814,54.375496],[29.313117,54.374936],[29.312087,54.374611],[29.311681,54.37449],[29.310289,54.374074],[29.309175,54.373746],[29.308184,54.373488],[29.30739,54.373293],[29.306824,54.37316],[29.306081,54.372998],[29.304027,54.372618],[29.302141,54.372309],[29.29999,54.371999],[29.298829,54.371857],[29.297482,54.37172],[29.296517,54.371631],[29.295473,54.371557],[29.295267,54.371543],[29.293915,54.371466],[29.292973,54.371437],[29.292324,54.371429],[29.291467,54.371428],[29.290306,54.371421],[29.289548,54.371429],[29.288624,54.371451],[29.287624,54.371463],[29.287115,54.371474],[29.282334,54.371582],[29.281061,54.371592],[29.278392,54.371646],[29.276684,54.371682],[29.264822,54.371925],[29.261511,54.37199],[29.248497,54.372246],[29.246115,54.372293],[29.243639,54.372342],[29.238656,54.372444],[29.230561,54.372592],[29.227488,54.372648],[29.22455,54.372686],[29.222228,54.372682],[29.219775,54.372621],[29.217446,54.372505],[29.214957,54.372362],[29.213372,54.372252],[29.211816,54.372111],[29.20956,54.37185],[29.206138,54.371371],[29.205356,54.371256],[29.203097,54.370918],[29.200448,54.370495],[29.200336,54.370477],[29.194088,54.36948],[29.185186,54.368056],[29.182974,54.367702],[29.176358,54.36666],[29.173538,54.3662],[29.17113,54.365827],[29.170442,54.365705],[29.167103,54.365113],[29.165837,54.364861],[29.164087,54.36447],[29.161715,54.363922],[29.161296,54.363819],[29.15958,54.363397],[29.158544,54.363129],[29.157148,54.362736],[29.156147,54.362443],[29.155519,54.362259],[29.153234,54.36154],[29.150603,54.360666],[29.141581,54.357606],[29.13652,54.35589],[29.134573,54.355192],[29.133535,54.354805],[29.132332,54.354325],[29.130638,54.353625],[29.12948,54.353111],[29.128407,54.352633],[29.126386,54.351662],[29.124981,54.35095],[29.124521,54.350712],[29.123406,54.350135],[29.122107,54.349408],[29.121014,54.348732],[29.119987,54.348066],[29.118446,54.347018],[29.116158,54.345385],[29.110445,54.341041],[29.109566,54.340405],[29.10827,54.339467],[29.106335,54.338254],[29.105837,54.337952],[29.10515,54.337544],[29.104507,54.337148],[29.102338,54.335893],[29.100769,54.335013],[29.099514,54.33437],[29.098312,54.333811],[29.097888,54.333612],[29.095491,54.332537],[29.094017,54.331905],[29.092523,54.331317],[29.09191,54.3311],[29.084886,54.32861],[29.071508,54.323866],[29.071301,54.323792],[29.064584,54.32141],[29.062355,54.32062],[29.058914,54.319423],[29.057758,54.31902],[29.05618,54.31847],[29.055059,54.318066],[29.052092,54.317017],[29.05115,54.316684],[29.049206,54.316076],[29.046672,54.315326],[29.045248,54.314942],[29.043336,54.314426],[29.040974,54.313879],[29.038712,54.313374],[29.036632,54.312959],[29.034002,54.312529],[29.026316,54.311255],[29.02391,54.31091],[29.018901,54.310226],[29.016684,54.309924],[29.011518,54.309173],[29.005192,54.308202],[29.00343,54.3079],[29.002777,54.307763],[29.000362,54.307257],[28.997135,54.306635],[28.9916,54.305567],[28.990489,54.305353],[28.989255,54.305122],[28.988688,54.305015],[28.988048,54.304888],[28.986458,54.304568],[28.985012,54.304311],[28.984111,54.304138],[28.981732,54.303683],[28.980503,54.303469],[28.978727,54.303151],[28.977248,54.302942],[28.976439,54.30282],[28.974743,54.302593],[28.973288,54.302435],[28.972666,54.302363],[28.972122,54.302324],[28.972011,54.302316],[28.970279,54.302177],[28.969508,54.302113],[28.965803,54.301808],[28.95625,54.301099],[28.950294,54.300658],[28.950143,54.300646],[28.949436,54.300582],[28.946911,54.30035],[28.946708,54.300332],[28.946022,54.300269],[28.940814,54.299883],[28.934286,54.2994],[28.933885,54.299371],[28.933136,54.299328],[28.932368,54.299295],[28.930166,54.299194],[28.929079,54.299124],[28.926074,54.298873],[28.925275,54.298806],[28.922927,54.298631],[28.921176,54.298489],[28.919545,54.298332],[28.916314,54.297956],[28.910768,54.297133],[28.909711,54.296976],[28.905574,54.296362],[28.90405,54.296125],[28.902617,54.29591],[28.901571,54.295737],[28.897827,54.295097],[28.896225,54.294841],[28.894013,54.294488],[28.88459,54.292982],[28.88109,54.292408],[28.880016,54.292232],[28.878319,54.291953],[28.877534,54.291821],[28.876697,54.291725],[28.87601,54.291645],[28.875227,54.29155],[28.874574,54.291501],[28.873668,54.291469],[28.87226,54.291436],[28.871012,54.291408],[28.867283,54.29131],[28.865982,54.291278],[28.863159,54.291209],[28.857441,54.291084],[28.853132,54.290989],[28.850798,54.290938],[28.849236,54.290867],[28.847661,54.290724],[28.844171,54.290426],[28.841169,54.290169],[28.839407,54.290019],[28.837514,54.289834],[28.833907,54.289525],[28.833248,54.289465],[28.831638,54.289324],[28.830215,54.28921],[28.829008,54.289141],[28.827882,54.289107],[28.827067,54.28911],[28.825934,54.28915],[28.823635,54.28925],[28.819919,54.289422],[28.812053,54.289799],[28.80941,54.28992],[28.808426,54.289961],[28.805994,54.290088],[28.805077,54.290129],[28.804823,54.29014],[28.801614,54.290288],[28.789518,54.290846],[28.78444,54.29108],[28.778154,54.291359],[28.775317,54.291485],[28.774452,54.291519],[28.774068,54.291534],[28.767699,54.291849],[28.766852,54.291892],[28.765163,54.29197],[28.763161,54.292],[28.762047,54.291996],[28.760946,54.291957],[28.76024,54.29191],[28.759491,54.291844],[28.759157,54.291805],[28.758297,54.291687],[28.757399,54.291493],[28.756058,54.291151],[28.754728,54.290769],[28.75411,54.290569],[28.753741,54.290446],[28.752704,54.290063],[28.751858,54.289695],[28.750944,54.28927],[28.749111,54.288326],[28.746173,54.286835],[28.745545,54.286501],[28.742769,54.285106],[28.740857,54.284118],[28.740475,54.283921],[28.740127,54.283741],[28.73844,54.28287],[28.737312,54.28229],[28.734952,54.281077],[28.725289,54.276107],[28.724252,54.275586],[28.721605,54.274257],[28.719184,54.273041],[28.718091,54.272492],[28.717318,54.272138],[28.716708,54.271912],[28.716049,54.271672],[28.715442,54.271471],[28.714752,54.271254],[28.714021,54.271052],[28.713068,54.270824],[28.712934,54.270792],[28.712748,54.270757],[28.71168,54.270557],[28.710978,54.270457],[28.710474,54.270402],[28.710204,54.270372],[28.709564,54.270313],[28.708637,54.27026],[28.707046,54.27021],[28.701755,54.270204],[28.700742,54.270202],[28.698507,54.2702],[28.696705,54.270172],[28.695525,54.270124],[28.694727,54.270057],[28.694254,54.270018],[28.69379,54.269957],[28.692534,54.269791],[28.692183,54.269741],[28.689765,54.269395],[28.688842,54.269261],[28.68796,54.26911],[28.68513,54.26851],[28.681685,54.267734],[28.678883,54.267176],[28.677096,54.266742],[28.675542,54.266394],[28.674115,54.266087],[28.669995,54.265185],[28.665902,54.264302],[28.664018,54.263875],[28.662072,54.263476],[28.661053,54.263252],[28.658203,54.262638],[28.657076,54.262435],[28.656794,54.262395],[28.65597,54.26228],[28.651889,54.261942],[28.650774,54.26187],[28.64841,54.261686],[28.636331,54.260746],[28.636003,54.260709],[28.635606,54.26069],[28.629907,54.260255],[28.62565,54.25993],[28.609019,54.258599],[28.579702,54.256191],[28.576865,54.255958],[28.574086,54.25573],[28.573198,54.255633],[28.572667,54.255544],[28.571306,54.255242],[28.570276,54.254938],[28.569259,54.254612],[28.566102,54.25361],[28.56515,54.253303],[28.562849,54.252593],[28.562424,54.252459],[28.560929,54.251989],[28.54682,54.247499],[28.546238,54.247311],[28.541686,54.245862],[28.541389,54.245769],[28.536805,54.244298],[28.536148,54.244105],[28.534502,54.243571],[28.534082,54.243438],[28.533649,54.243301],[28.529438,54.24196],[28.526202,54.240943],[28.525528,54.240757],[28.525056,54.240631],[28.524622,54.240527],[28.524062,54.240412],[28.521285,54.239871],[28.519766,54.239582],[28.518483,54.239335],[28.516382,54.238911],[28.515802,54.238794],[28.515446,54.23872],[28.515152,54.238622],[28.514874,54.238507],[28.514628,54.238417],[28.514333,54.238335],[28.514132,54.238301],[28.513856,54.238254],[28.513673,54.238241],[28.513483,54.238197],[28.513318,54.238126],[28.513191,54.238031],[28.51313,54.237954],[28.512907,54.237779],[28.512643,54.237631],[28.512297,54.23742],[28.511789,54.237092],[28.511556,54.236899],[28.51126,54.236663],[28.511085,54.23652],[28.509069,54.234314],[28.508771,54.233983],[28.507148,54.232156],[28.506894,54.231834],[28.506399,54.23142],[28.506258,54.231304],[28.505717,54.230935],[28.505404,54.230701],[28.50476,54.230288],[28.50452,54.230157],[28.504327,54.230064],[28.503842,54.229995],[28.503432,54.230079],[28.503387,54.230093],[28.50329,54.230135],[28.503178,54.230169],[28.503061,54.230193],[28.502873,54.230202],[28.502238,54.230247],[28.502019,54.230296],[28.501967,54.23036],[28.501852,54.230506],[28.501134,54.231341],[28.500957,54.231548],[28.500668,54.231882],[28.500479,54.232156],[28.500306,54.23245],[28.500177,54.232706],[28.500067,54.232873],[28.499967,54.232983],[28.499779,54.233137],[28.499573,54.233257],[28.498987,54.233556],[28.497809,54.234129],[28.497628,54.234219],[28.497315,54.234412],[28.496949,54.23472],[28.496852,54.234841],[28.496795,54.234961],[28.496779,54.235082],[28.496741,54.235216],[28.496683,54.235276],[28.496579,54.235328],[28.496413,54.235365],[28.493421,54.235461],[28.493055,54.235476],[28.492068,54.235669],[28.491771,54.235735],[28.48876,54.2364],[28.486903,54.236799],[28.486729,54.236842],[28.484339,54.237366],[28.481982,54.237921],[28.481503,54.238032],[28.478422,54.238714],[28.478143,54.238783],[28.477931,54.238834],[28.477803,54.238864],[28.477657,54.238897],[28.477104,54.239023],[28.476662,54.239125],[28.475319,54.239447],[28.47458,54.239642],[28.474733,54.2399],[28.474907,54.240172],[28.475321,54.240868],[28.475493,54.241226],[28.475565,54.241393],[28.475575,54.241511],[28.47558,54.241591],[28.475553,54.241741],[28.475429,54.242021],[28.475154,54.242612],[28.474908,54.243022],[28.474556,54.243566],[28.474128,54.244145],[28.473738,54.244679],[28.473274,54.245295],[28.472297,54.24648],[28.471959,54.246912],[28.471627,54.247324],[28.471268,54.247764],[28.471036,54.248063],[28.470912,54.248201],[28.470609,54.248521],[28.470429,54.248694],[28.470104,54.248976],[28.469836,54.249192],[28.469494,54.24939],[28.468934,54.249679],[28.468768,54.249749],[28.468095,54.250175],[28.467367,54.250653],[28.465025,54.252308],[28.464405,54.252679],[28.464086,54.252853],[28.463789,54.252981],[28.463357,54.253108],[28.462513,54.253309],[28.462123,54.253448],[28.461644,54.253621],[28.46128,54.253746],[28.461009,54.253812],[28.460751,54.253846],[28.460322,54.253872],[28.459892,54.253869],[28.459212,54.253864],[28.458748,54.253896],[28.458163,54.253976],[28.457646,54.254008],[28.45708,54.254],[28.444297,54.253276],[28.432596,54.252581],[28.42715,54.252276],[28.425188,54.252167],[28.423959,54.252092],[28.422715,54.252013],[28.421645,54.251965],[28.421192,54.251945],[28.420733,54.251947],[28.420309,54.251959],[28.419989,54.252001],[28.419646,54.252073],[28.419061,54.252208],[28.418421,54.252366],[28.417345,54.252634],[28.415164,54.253179],[28.413961,54.253453],[28.413176,54.253632],[28.410359,54.254251],[28.40987,54.254375],[28.409401,54.254507],[28.408975,54.254638],[28.408529,54.254789],[28.40817,54.254924],[28.407762,54.255095],[28.407111,54.255418],[28.40648,54.25574],[28.40607,54.255969],[28.405633,54.256229],[28.405337,54.256372],[28.40501,54.256489],[28.404682,54.25659],[28.404392,54.256658],[28.40405,54.256714],[28.40364,54.256754],[28.403232,54.256782],[28.402696,54.256791],[28.401508,54.256805],[28.401005,54.256813],[28.392111,54.256882],[28.388685,54.256947],[28.388039,54.256986],[28.387728,54.257026],[28.387505,54.25707],[28.387231,54.257142],[28.38668,54.257391],[28.38567,54.25787],[28.382541,54.25941],[28.379154,54.261058],[28.37904,54.261113],[28.369865,54.265901],[28.369532,54.266126],[28.367994,54.267978],[28.36792,54.26806],[28.36373,54.274573],[28.360993,54.278825],[28.357941,54.283418],[28.357578,54.284022],[28.355999,54.28651],[28.35391,54.2898],[28.352458,54.29205],[28.347731,54.299435],[28.343494,54.305829],[28.351859,54.309923],[28.354175,54.311032],[28.354111,54.311323],[28.353372,54.311993],[28.353372,54.311993],[28.351144,54.313634],[28.351127,54.313908],[28.351321,54.313757],[28.351127,54.313908],[28.351144,54.313634],[28.353372,54.311993],[28.354111,54.311323],[28.354175,54.311032],[28.351859,54.309923],[28.343494,54.305829],[28.347731,54.299435],[28.352458,54.29205],[28.35391,54.2898],[28.355999,54.28651],[28.357578,54.284022],[28.357941,54.283418],[28.360993,54.278825],[28.36373,54.274573],[28.36792,54.26806],[28.367994,54.267978],[28.369532,54.266126],[28.369865,54.265901],[28.37904,54.261113],[28.379154,54.261058],[28.382541,54.25941],[28.38567,54.25787],[28.38668,54.257391],[28.387231,54.257142],[28.387505,54.25707],[28.387728,54.257026],[28.388039,54.256986],[28.388685,54.256947],[28.392111,54.256882],[28.401005,54.256813],[28.401508,54.256805],[28.402696,54.256791],[28.403232,54.256782],[28.40364,54.256754],[28.40405,54.256714],[28.404392,54.256658],[28.404682,54.25659],[28.40501,54.256489],[28.405337,54.256372],[28.405633,54.256229],[28.40607,54.255969],[28.40648,54.25574],[28.407111,54.255418],[28.407762,54.255095],[28.40817,54.254924],[28.408529,54.254789],[28.408975,54.254638],[28.409401,54.254507],[28.40987,54.254375],[28.410359,54.254251],[28.413176,54.253632],[28.413961,54.253453],[28.415164,54.253179],[28.417345,54.252634],[28.418421,54.252366],[28.419061,54.252208],[28.419646,54.252073],[28.419989,54.252001],[28.420309,54.251959],[28.420733,54.251947],[28.421192,54.251945],[28.421645,54.251965],[28.422715,54.252013],[28.423959,54.252092],[28.425188,54.252167],[28.42715,54.252276],[28.432596,54.252581],[28.444297,54.253276],[28.45708,54.254],[28.457646,54.254008],[28.458163,54.253976],[28.458748,54.253896],[28.459212,54.253864],[28.459892,54.253869],[28.460322,54.253872],[28.460751,54.253846],[28.461009,54.253812],[28.46128,54.253746],[28.461644,54.253621],[28.462123,54.253448],[28.462513,54.253309],[28.463357,54.253108],[28.463789,54.252981],[28.464086,54.252853],[28.464405,54.252679],[28.465025,54.252308],[28.467367,54.250653],[28.468095,54.250175],[28.468768,54.249749],[28.468934,54.249679],[28.469494,54.24939],[28.469836,54.249192],[28.470104,54.248976],[28.470429,54.248694],[28.470609,54.248521],[28.470912,54.248201],[28.471036,54.248063],[28.471268,54.247764],[28.471627,54.247324],[28.471959,54.246912],[28.472297,54.24648],[28.473274,54.245295],[28.473738,54.244679],[28.474128,54.244145],[28.474556,54.243566],[28.474908,54.243022],[28.475154,54.242612],[28.475429,54.242021],[28.475553,54.241741],[28.47558,54.241591],[28.475575,54.241511],[28.475565,54.241393],[28.475493,54.241226],[28.475321,54.240868],[28.474907,54.240172],[28.474733,54.2399],[28.47458,54.239642],[28.475319,54.239447],[28.476662,54.239125],[28.477104,54.239023],[28.477657,54.238897],[28.477803,54.238864],[28.477931,54.238834],[28.478143,54.238783],[28.478422,54.238714],[28.481503,54.238032],[28.481982,54.237921],[28.484339,54.237366],[28.486729,54.236842],[28.486903,54.236799],[28.48876,54.2364],[28.491771,54.235735],[28.492068,54.235669],[28.493055,54.235476],[28.493421,54.235461],[28.496413,54.235365],[28.496579,54.235328],[28.496683,54.235276],[28.496741,54.235216],[28.496779,54.235082],[28.496795,54.234961],[28.496852,54.234841],[28.496949,54.23472],[28.497315,54.234412],[28.497628,54.234219],[28.497809,54.234129],[28.498987,54.233556],[28.499573,54.233257],[28.499779,54.233137],[28.499967,54.232983],[28.500067,54.232873],[28.500177,54.232706],[28.500306,54.23245],[28.500479,54.232156],[28.500668,54.231882],[28.500957,54.231548],[28.501134,54.231341],[28.501852,54.230506],[28.501967,54.23036],[28.502019,54.230296],[28.502489,54.229739],[28.502583,54.229619],[28.5032,54.228859],[28.503228,54.228824],[28.503356,54.228658],[28.503676,54.228263],[28.503893,54.228023],[28.505092,54.227105],[28.505245,54.226995],[28.506117,54.226376],[28.506754,54.22588],[28.506978,54.225707],[28.507227,54.225549],[28.507406,54.22546],[28.507844,54.225355],[28.50959,54.22495],[28.510213,54.224801],[28.510997,54.224613],[28.511315,54.22454],[28.511445,54.22451],[28.512583,54.22425],[28.512659,54.224232],[28.513011,54.224146],[28.514231,54.223862],[28.514683,54.223757],[28.516976,54.223221],[28.518939,54.222745],[28.520838,54.222288],[28.52092,54.222268],[28.520998,54.22225],[28.522739,54.221828],[28.523814,54.221591],[28.523936,54.221564],[28.526538,54.220928],[28.526635,54.220908],[28.528814,54.220352],[28.529213,54.220246],[28.529194,54.220228],[28.529182,54.220196],[28.529187,54.220164],[28.529208,54.220134],[28.529248,54.220109],[28.529301,54.220092],[28.52936,54.220087],[28.529418,54.220094],[28.529469,54.220111],[28.529507,54.220138],[28.529528,54.220171],[28.529528,54.220206],[28.529508,54.220239],[28.529471,54.220266],[28.529424,54.220283],[28.52967,54.220653],[28.529748,54.220793],[28.529851,54.220967],[28.530005,54.221229],[28.530108,54.221403],[28.530878,54.222677],[28.530996,54.222898],[28.531096,54.22313],[28.531142,54.223445],[28.531144,54.223625],[28.531113,54.22386],[28.531189,54.223992],[28.531288,54.224084],[28.53137,54.22414],[28.531521,54.2242],[28.531672,54.224238],[28.53221,54.224288],[28.532577,54.224313],[28.532697,54.22431],[28.532855,54.224305],[28.533067,54.224278],[28.533243,54.224242],[28.533317,54.224227],[28.533503,54.22416],[28.533572,54.224113],[28.533699,54.224027],[28.53377,54.223929],[28.533781,54.22383],[28.533705,54.223582],[28.533496,54.223106],[28.533425,54.222941],[28.533364,54.22275],[28.53335,54.22256],[28.533351,54.222403],[28.533381,54.222254],[28.533423,54.222124],[28.533497,54.221998],[28.533581,54.221886],[28.533674,54.221785],[28.533785,54.221687],[28.533894,54.221614],[28.534172,54.221448],[28.535575,54.220757],[28.535892,54.220582],[28.536134,54.22039],[28.536507,54.220015],[28.53672,54.219837],[28.536882,54.219729],[28.537365,54.219454],[28.537557,54.219341],[28.537825,54.219146],[28.538054,54.218973],[28.538323,54.218698],[28.53864,54.218357],[28.538719,54.218265],[28.538798,54.218168],[28.539219,54.217641],[28.540223,54.216449],[28.54104,54.215485],[28.541935,54.214376],[28.54208,54.214225],[28.542758,54.21337],[28.543308,54.212704],[28.544078,54.211773],[28.544728,54.210997],[28.544966,54.210713],[28.5455,54.210067],[28.545607,54.209938],[28.546106,54.20933],[28.546673,54.208574],[28.546994,54.208186],[28.547269,54.207852],[28.547333,54.207695],[28.54733,54.207512],[28.54727,54.207354],[28.54716,54.207132],[28.547036,54.206938],[28.54693,54.20682],[28.546805,54.206701],[28.546463,54.206432],[28.545537,54.205772],[28.543869,54.204547],[28.543493,54.204261],[28.543371,54.204141],[28.543311,54.204036],[28.543282,54.203922],[28.543262,54.203241],[28.543286,54.202096],[28.54329,54.202013],[28.543269,54.199773],[28.54329,54.199422],[28.543324,54.19913],[28.543418,54.198837],[28.543567,54.198575],[28.543743,54.198326],[28.544018,54.19804],[28.54449,54.197664],[28.545,54.19734],[28.545809,54.196853],[28.547394,54.195899],[28.547848,54.195625],[28.550111,54.194263],[28.551199,54.193608],[28.551446,54.193468],[28.551801,54.19327],[28.55296,54.192607],[28.554324,54.191747],[28.555053,54.191305],[28.556908,54.190202],[28.557855,54.189638],[28.558077,54.189506],[28.558386,54.189326],[28.559769,54.188481],[28.561379,54.187499],[28.562941,54.186551],[28.56438,54.185637],[28.565798,54.1847],[28.567582,54.18342],[28.568383,54.182639],[28.56937,54.181661],[28.571309,54.17977],[28.571447,54.179627],[28.571688,54.178498],[28.571956,54.176829],[28.572328,54.17481],[28.572509,54.173796],[28.572561,54.173376],[28.572544,54.172943],[28.572424,54.172453],[28.572315,54.172312],[28.569975,54.169305],[28.569381,54.168542],[28.56835,54.167179],[28.567902,54.166592],[28.566107,54.164223],[28.565477,54.163392],[28.564846,54.162569],[28.563033,54.1602],[28.561058,54.157628],[28.559437,54.15565],[28.558766,54.154854],[28.557743,54.153639],[28.555436,54.150954],[28.552914,54.148271],[28.551812,54.147142],[28.550013,54.1453],[28.54826,54.143583],[28.546445,54.14187],[28.54411,54.13977],[28.543664,54.139384],[28.541704,54.137692],[28.540114,54.136361],[28.538524,54.135054],[28.535646,54.132754],[28.534547,54.131919],[28.532881,54.130653],[28.53205,54.130045],[28.531304,54.129478],[28.530422,54.128825],[28.528937,54.127726],[28.528634,54.127495],[28.528286,54.12722],[28.527277,54.126453],[28.526,54.125486],[28.525612,54.125192],[28.525176,54.124861],[28.52488,54.124637],[28.523413,54.123472],[28.521601,54.121984],[28.519852,54.120456],[28.518627,54.119396],[28.516966,54.117825],[28.51564,54.11657],[28.512686,54.113693],[28.508435,54.109666],[28.506613,54.10794],[28.500525,54.102159],[28.499596,54.101277],[28.497636,54.099392],[28.493246,54.095191],[28.492339,54.094322],[28.490731,54.09278],[28.488227,54.090391],[28.484646,54.087011],[28.48459,54.086958],[28.482205,54.084707],[28.481719,54.084248],[28.480684,54.083271],[28.48048,54.083079],[28.480272,54.082882],[28.47871,54.0814],[28.478205,54.08093],[28.477548,54.080318],[28.476706,54.079582],[28.476343,54.079265],[28.473889,54.077222],[28.472659,54.076227],[28.471381,54.075223],[28.46951,54.073825],[28.468192,54.072905],[28.467371,54.072332],[28.466646,54.071826],[28.464849,54.070584],[28.462014,54.068721],[28.46064,54.067885],[28.458869,54.066799],[28.456354,54.065361],[28.454787,54.064468],[28.453016,54.063515],[28.452032,54.063001],[28.449,54.061417],[28.448499,54.061152],[28.447995,54.060911],[28.445505,54.059596],[28.444346,54.058984],[28.444162,54.058887],[28.443018,54.058306],[28.434997,54.054176],[28.43404,54.053661],[28.43142,54.05231],[28.428892,54.051128],[28.427502,54.050533],[28.425299,54.049639],[28.420955,54.048046],[28.420604,54.047917],[28.417924,54.04707],[28.413781,54.045861],[28.409976,54.044801],[28.407955,54.044227],[28.405982,54.043666],[28.398149,54.041453],[28.394518,54.040433],[28.391045,54.039457],[28.384061,54.037636],[28.380665,54.03689],[28.378603,54.036436],[28.374547,54.035625],[28.372552,54.035234],[28.37056,54.03488],[28.367756,54.034405],[28.365888,54.034104],[28.365007,54.033962],[28.361129,54.033409],[28.357257,54.032909],[28.357202,54.032902],[28.351582,54.032166],[28.349807,54.031937],[28.341461,54.030828],[28.336903,54.030233],[28.329826,54.029309],[28.321544,54.02822],[28.31409,54.02724],[28.309414,54.026646],[28.306867,54.026405],[28.301091,54.025857],[28.291542,54.02512],[28.27708,54.024004],[28.276078,54.023927],[28.274672,54.023818],[28.274093,54.023774],[28.271014,54.023536],[28.268959,54.023393],[28.266386,54.023183],[28.265622,54.023124],[28.260837,54.022754],[28.259175,54.022625],[28.245673,54.021567],[28.240954,54.021197],[28.240107,54.02113],[28.230907,54.020409],[28.229995,54.020338],[28.226301,54.020044],[28.223339,54.019808],[28.222653,54.019751],[28.22194,54.019699],[28.219752,54.019488],[28.21798,54.019281],[28.21601,54.019058],[28.215433,54.01898],[28.212244,54.018579],[28.208545,54.018052],[28.204772,54.017475],[28.203147,54.017188],[28.20174,54.016941],[28.200634,54.016745],[28.196037,54.015862],[28.191975,54.015006],[28.188724,54.014272],[28.186753,54.013806],[28.185596,54.013532],[28.182606,54.012772],[28.178279,54.011578],[28.17519,54.010674],[28.173834,54.010277],[28.173593,54.010202],[28.173077,54.010043],[28.171464,54.009543],[28.169218,54.008802],[28.167003,54.008033],[28.162643,54.006477],[28.161421,54.006042],[28.16023,54.005609],[28.160172,54.005588],[28.159483,54.005345],[28.159066,54.005198],[28.158524,54.005004],[28.157468,54.004625],[28.154653,54.003626],[28.152343,54.002809],[28.148525,54.001523],[28.146736,54.000957],[28.144795,54.000344],[28.139399,53.998768],[28.137647,53.998296],[28.133211,53.997154],[28.130388,53.996474],[28.128846,53.996099],[28.127631,53.995811],[28.126506,53.99554],[28.124847,53.995141],[28.123969,53.99493],[28.11985,53.99394],[28.118549,53.993625],[28.11537,53.992857],[28.113351,53.992363],[28.11041,53.99165],[28.110139,53.991573],[28.109552,53.991427],[28.109243,53.991358],[28.106503,53.990697],[28.1047,53.990262],[28.103336,53.989932],[28.102347,53.98969],[28.099584,53.989014],[28.097796,53.988557],[28.095941,53.988064],[28.094703,53.987722],[28.093543,53.987388],[28.092932,53.987216],[28.09164,53.986856],[28.090701,53.986574],[28.090303,53.986455],[28.08853,53.985899],[28.087747,53.985659],[28.085423,53.984923],[28.083525,53.984287],[28.081494,53.983581],[28.077575,53.982153],[28.07676,53.98184],[28.071287,53.979739],[28.064972,53.977281],[28.063357,53.976652],[28.059845,53.975312],[28.056758,53.974192],[28.054677,53.973467],[28.051671,53.972474],[28.051093,53.972284],[28.04721,53.971081],[28.044851,53.970387],[28.044663,53.970333],[28.039452,53.968837],[28.0382,53.968478],[28.037361,53.968237],[28.036266,53.967924],[28.034069,53.967284],[28.028228,53.965585],[28.025709,53.9649],[28.02455,53.964565],[28.023441,53.964245],[28.02078,53.963459],[28.020166,53.963278],[28.01064,53.960547],[27.996791,53.956576],[27.996083,53.956374],[27.994963,53.956051],[27.99239,53.95531],[27.991249,53.954976],[27.990974,53.954887],[27.990066,53.95459],[27.988593,53.954089],[27.988211,53.953965],[27.985968,53.95312],[27.985179,53.952823],[27.983586,53.952156],[27.981441,53.951256],[27.979973,53.950526],[27.978971,53.950009],[27.978294,53.94967],[27.977767,53.949377],[27.976781,53.948808],[27.976509,53.948634],[27.974584,53.94742],[27.973332,53.946624],[27.972645,53.946143],[27.971898,53.945619],[27.97033,53.944374],[27.968738,53.943055],[27.968047,53.942415],[27.966377,53.94079],[27.965596,53.939956],[27.964899,53.939161],[27.96428,53.938388],[27.963444,53.937297],[27.962643,53.936156],[27.962062,53.935235],[27.96192,53.93501],[27.961285,53.933872],[27.960616,53.932534],[27.960268,53.931842],[27.959948,53.931096],[27.959511,53.930162],[27.959301,53.92967],[27.95823,53.927436],[27.957399,53.925625],[27.956625,53.923978],[27.956203,53.923063],[27.955456,53.921478],[27.95308,53.91643],[27.951002,53.911985],[27.949665,53.909125],[27.947386,53.90426],[27.946657,53.90271],[27.94649,53.90235],[27.945906,53.901094],[27.945101,53.899396],[27.943539,53.896052],[27.943272,53.895523],[27.943242,53.895461],[27.942635,53.894208],[27.940645,53.889897],[27.940232,53.889109],[27.939812,53.888373],[27.939087,53.887101],[27.938911,53.886824],[27.937833,53.885117],[27.937124,53.884112],[27.936397,53.883144],[27.935881,53.882519],[27.935068,53.881536],[27.933742,53.880061],[27.933312,53.879599],[27.932601,53.878904],[27.932401,53.878714],[27.930788,53.877197],[27.929835,53.876365],[27.928799,53.875511],[27.927024,53.874092],[27.926759,53.873897],[27.926141,53.873444],[27.925151,53.87274],[27.924116,53.872043],[27.923654,53.871749],[27.923105,53.871399],[27.920916,53.870051],[27.919577,53.869307],[27.918641,53.868817],[27.918236,53.868606],[27.916773,53.867841],[27.915989,53.867428],[27.913906,53.866351],[27.912289,53.865518],[27.911377,53.865042],[27.9097,53.864179],[27.908651,53.863629],[27.906682,53.862641],[27.904509,53.861523],[27.902833,53.860636],[27.900807,53.859569],[27.899547,53.858916],[27.892554,53.855289],[27.890931,53.854447],[27.890618,53.854285],[27.890182,53.854056],[27.889707,53.853806],[27.889461,53.853677],[27.888566,53.853206],[27.886111,53.851917],[27.884827,53.851266],[27.882244,53.849924],[27.879428,53.848466],[27.878151,53.847796],[27.876706,53.847053],[27.87469,53.846002],[27.872635,53.844951],[27.870565,53.843889],[27.868774,53.843003],[27.86703,53.842069],[27.866525,53.841815],[27.865112,53.841104],[27.864696,53.840895],[27.862239,53.839621],[27.855315,53.836032],[27.852187,53.83441],[27.85055,53.833582],[27.849429,53.833002],[27.843856,53.830122],[27.842643,53.829496],[27.84073,53.82852],[27.835096,53.82559],[27.832382,53.824101],[27.829594,53.822571],[27.821949,53.818386],[27.821177,53.817963],[27.82013,53.81739],[27.818654,53.816577],[27.817137,53.815737],[27.816403,53.815328],[27.814477,53.814271],[27.814372,53.814213],[27.813965,53.81398],[27.811816,53.812789],[27.810092,53.81184],[27.809236,53.811369],[27.807755,53.810568],[27.806177,53.809747],[27.8035,53.808468],[27.802369,53.807968],[27.801543,53.807603],[27.799851,53.806898],[27.798038,53.806185],[27.797903,53.806132],[27.795033,53.805125],[27.794461,53.804919],[27.793219,53.804502],[27.792328,53.804226],[27.789434,53.803389],[27.785938,53.802485],[27.78456,53.802171],[27.782019,53.801591],[27.781429,53.801477],[27.780095,53.80122],[27.778953,53.801008],[27.776252,53.800505],[27.773944,53.800077],[27.772654,53.799837],[27.771408,53.799615],[27.770273,53.799411],[27.769198,53.799226],[27.766725,53.798768],[27.765766,53.798594],[27.764509,53.798362],[27.762251,53.797953],[27.761027,53.797737],[27.758453,53.797263],[27.757328,53.797048],[27.756901,53.796966],[27.756022,53.796798],[27.752176,53.796112],[27.745827,53.794945],[27.743007,53.794428],[27.74135,53.794123],[27.741211,53.7941],[27.738805,53.793632],[27.738277,53.793517],[27.737321,53.793314],[27.735504,53.792891],[27.73364,53.792426],[27.732343,53.79208],[27.731385,53.79182],[27.730379,53.791541],[27.729026,53.79111],[27.727714,53.790695],[27.727268,53.79055],[27.726363,53.790253],[27.725161,53.78984],[27.723949,53.789411],[27.722852,53.78899],[27.721791,53.788568],[27.721106,53.78829],[27.720328,53.78798],[27.719029,53.787415],[27.717139,53.786564],[27.71482,53.78546],[27.71276,53.784372],[27.708259,53.781933],[27.703681,53.779465],[27.692199,53.773274],[27.687369,53.77067],[27.681351,53.767444],[27.672948,53.76294],[27.671929,53.762386],[27.670696,53.761746],[27.66974,53.761283],[27.668781,53.760818],[27.66629,53.7597],[27.665367,53.759298],[27.663336,53.758446],[27.661868,53.757891],[27.661212,53.757648],[27.660386,53.757343],[27.65964,53.757067],[27.658519,53.756705],[27.6573,53.75628],[27.65702,53.756183],[27.653629,53.755024],[27.651759,53.754345],[27.650284,53.753766],[27.648676,53.7531],[27.647065,53.752409],[27.645807,53.751825],[27.644699,53.751295],[27.644342,53.751123],[27.643196,53.750553],[27.642401,53.750138],[27.640909,53.749325],[27.6388,53.748174],[27.637585,53.747549],[27.636356,53.746956],[27.635115,53.74639],[27.633836,53.745837],[27.632891,53.745444],[27.630783,53.744632],[27.627883,53.743638],[27.625926,53.743023],[27.623721,53.742409],[27.621589,53.741875],[27.621032,53.741748],[27.619652,53.741427],[27.618913,53.741269],[27.617971,53.741079],[27.617019,53.740878],[27.615144,53.740543],[27.61373,53.74031],[27.612543,53.740127],[27.610883,53.739911],[27.609462,53.739744],[27.607342,53.739534],[27.605766,53.739375],[27.605201,53.739321],[27.603042,53.73909],[27.598771,53.738656],[27.590314,53.737794],[27.580431,53.736789],[27.575238,53.736253],[27.575189,53.736246],[27.567239,53.735428],[27.56042,53.734734],[27.55965,53.734651],[27.557338,53.734422],[27.55642,53.734331],[27.555606,53.73424],[27.552598,53.733914],[27.551105,53.733765],[27.550357,53.733685],[27.545707,53.733215],[27.542819,53.732907],[27.540057,53.732559],[27.538222,53.732291],[27.536419,53.731993],[27.534668,53.731675],[27.532917,53.731341],[27.531244,53.730996],[27.530824,53.730903],[27.52963,53.730625],[27.528038,53.730251],[27.526358,53.729831],[27.523804,53.729131],[27.519114,53.727743],[27.518842,53.727665],[27.516916,53.727085],[27.516666,53.727],[27.513873,53.726156],[27.511653,53.725498],[27.50875,53.724626],[27.507007,53.724096],[27.503514,53.723067],[27.503026,53.722925],[27.499661,53.721903],[27.494797,53.720457],[27.491262,53.719382],[27.490469,53.719154],[27.490191,53.719068],[27.485943,53.717797],[27.482803,53.716842],[27.480823,53.716255],[27.478684,53.71565],[27.476219,53.714902],[27.474338,53.714349],[27.473053,53.71395],[27.470171,53.713091],[27.466042,53.711843],[27.464161,53.711301],[27.462982,53.71095],[27.461849,53.710611],[27.460855,53.7103],[27.460122,53.71008],[27.45729,53.709232],[27.455062,53.708552],[27.450168,53.707098],[27.449236,53.706829],[27.448651,53.706642],[27.444765,53.705483],[27.442632,53.704853],[27.440825,53.704331],[27.437977,53.703499],[27.436261,53.703049],[27.435852,53.702945],[27.434833,53.702685],[27.433799,53.702435],[27.431676,53.701908],[27.429644,53.701413],[27.428645,53.701181],[27.424825,53.700342],[27.423017,53.699964],[27.421712,53.69971],[27.41647,53.69877],[27.414356,53.698406],[27.411667,53.69799],[27.409537,53.697693],[27.407085,53.697367],[27.403461,53.696913],[27.39748,53.69617],[27.392166,53.695553],[27.387214,53.694944],[27.385275,53.694699],[27.382172,53.694315],[27.379483,53.693984],[27.377474,53.693739],[27.368636,53.692625],[27.362637,53.691872],[27.361872,53.691777],[27.35941,53.691459],[27.357457,53.691205],[27.354118,53.690744],[27.347904,53.689902],[27.339877,53.688811],[27.333293,53.687882],[27.32317,53.686424],[27.31848,53.685735],[27.31034,53.684524],[27.303717,53.68352],[27.297782,53.682633],[27.289068,53.681323],[27.283815,53.680533],[27.28119,53.680147],[27.279565,53.679903],[27.276275,53.679402],[27.274376,53.679113],[27.270637,53.67855],[27.267457,53.678087],[27.264927,53.677735],[27.261096,53.677269],[27.25953,53.677105],[27.258933,53.677035],[27.256793,53.676814],[27.253171,53.676485],[27.251719,53.676372],[27.248008,53.676124],[27.245309,53.675973],[27.242894,53.675868],[27.240517,53.675785],[27.238177,53.675716],[27.237328,53.6757],[27.233895,53.675642],[27.2297,53.675673],[27.22662,53.675718],[27.225093,53.675763],[27.222945,53.675836],[27.219595,53.675993],[27.217037,53.676138],[27.214529,53.676304],[27.211159,53.67657],[27.208623,53.676793],[27.205083,53.677148],[27.202655,53.677417],[27.199662,53.677722],[27.196728,53.677965],[27.194611,53.678107],[27.193687,53.678185],[27.192882,53.678262],[27.192085,53.678348],[27.190332,53.678522],[27.189379,53.67859],[27.188795,53.67862],[27.188277,53.678631],[27.187839,53.678624],[27.187285,53.678601],[27.186773,53.678557],[27.186242,53.678489],[27.185696,53.678398],[27.184931,53.678226],[27.184537,53.678119],[27.183905,53.677925],[27.183278,53.677697],[27.182649,53.677417],[27.182111,53.677132],[27.181636,53.676859],[27.180116,53.675833],[27.179497,53.675461],[27.17916,53.675285],[27.178634,53.675053],[27.177909,53.674745],[27.173662,53.673247],[27.173397,53.673153],[27.172554,53.672854],[27.171192,53.672371],[27.17073,53.6722],[27.169189,53.67166],[27.15824,53.667798],[27.156043,53.667002],[27.154741,53.666576],[27.150539,53.665087],[27.149988,53.664892],[27.14627,53.66358],[27.14583,53.663426],[27.145657,53.663365],[27.144596,53.662993],[27.144187,53.662861],[27.14284,53.66246],[27.141989,53.662223],[27.140501,53.661814],[27.13916,53.661515],[27.137838,53.661229],[27.136229,53.660915],[27.135705,53.660827],[27.135233,53.660743],[27.132421,53.660316],[27.131233,53.660177],[27.130127,53.660069],[27.128744,53.659953],[27.127667,53.659884],[27.126339,53.659803],[27.124892,53.659757],[27.12092,53.659691],[27.116311,53.659618],[27.112101,53.659552],[27.10158,53.659374],[27.100511,53.65936],[27.100203,53.659352],[27.098156,53.659297],[27.09676,53.659224],[27.095347,53.659121],[27.094178,53.658998],[27.093934,53.65897],[27.09297,53.65886],[27.091764,53.65867],[27.09043,53.658427],[27.089098,53.658129],[27.087761,53.657809],[27.086794,53.657524],[27.085878,53.657253],[27.084269,53.656725],[27.083761,53.656531],[27.082545,53.656035],[27.081313,53.655503],[27.080708,53.655232],[27.080175,53.654958],[27.079542,53.654611],[27.078644,53.654105],[27.077668,53.653489],[27.077226,53.653199],[27.076481,53.652674],[27.075765,53.652152],[27.075059,53.651538],[27.074692,53.651226],[27.074116,53.650677],[27.073501,53.650063],[27.072802,53.649242],[27.072137,53.64836],[27.071705,53.647786],[27.06952,53.644657],[27.06897,53.643869],[27.068743,53.643544],[27.068111,53.642644],[27.067987,53.642468],[27.067768,53.642163],[27.067037,53.641127],[27.064513,53.637529],[27.06399,53.636807],[27.063164,53.635649],[27.062909,53.635236],[27.062875,53.635188],[27.056786,53.626515],[27.056139,53.625592],[27.052925,53.620998],[27.052197,53.619915],[27.051864,53.619251],[27.051497,53.618361],[27.049957,53.614619],[27.0486,53.61139],[27.048297,53.610678],[27.048043,53.610023],[27.047563,53.608772],[27.047438,53.608462],[27.046559,53.606286],[27.045343,53.603274],[27.04443,53.60109],[27.0443,53.600743],[27.043547,53.598835],[27.043293,53.598192],[27.043241,53.598063],[27.042349,53.595867],[27.042151,53.595381],[27.041619,53.594027],[27.04115,53.592868],[27.041034,53.592582],[27.040778,53.592072],[27.040532,53.591549],[27.040223,53.591054],[27.039883,53.590632],[27.039391,53.590003],[27.03899,53.589576],[27.038674,53.589274],[27.038273,53.588966],[27.037296,53.588245],[27.03672,53.587886],[27.0359,53.587449],[27.03458,53.586803],[27.031526,53.585307],[27.031106,53.585099],[27.029617,53.584379],[27.026128,53.582691],[27.019914,53.579679],[27.013353,53.576498],[27.008282,53.57405],[27.006931,53.573398],[27.002709,53.571356],[27.000473,53.570275],[26.996465,53.568345],[26.990039,53.565255],[26.984911,53.562791],[26.973942,53.557505],[26.973813,53.557442],[26.973512,53.557314],[26.972942,53.55704],[26.972618,53.556884],[26.970134,53.55569],[26.967319,53.554336],[26.966754,53.554064],[26.964966,53.553206],[26.96425,53.552884],[26.963506,53.552579],[26.963171,53.552443],[26.962871,53.55232],[26.961882,53.551976],[26.96088,53.55165],[26.959487,53.551274],[26.95866,53.551074],[26.95697,53.550698],[26.955533,53.550367],[26.955022,53.550258],[26.952151,53.54961],[26.946871,53.548407],[26.937173,53.546246],[26.934882,53.545743],[26.932044,53.545113],[26.931882,53.545082],[26.928439,53.544314],[26.927273,53.544055],[26.926066,53.54379],[26.922293,53.542969],[26.918704,53.542183],[26.909847,53.540211],[26.905155,53.539164],[26.905021,53.539134],[26.904522,53.539027],[26.903731,53.538847],[26.901736,53.538408],[26.90164,53.538386],[26.901423,53.538341],[26.899034,53.537796],[26.897769,53.537529],[26.892847,53.536449],[26.890492,53.535903],[26.876482,53.532829],[26.875079,53.532509],[26.873849,53.532238],[26.872702,53.531985],[26.870232,53.531445],[26.868243,53.531011],[26.866259,53.530597],[26.864725,53.530331],[26.864592,53.530307],[26.863121,53.530078],[26.862213,53.529939],[26.861349,53.529838],[26.859086,53.529581],[26.857489,53.52944],[26.855192,53.529336],[26.853335,53.529274],[26.851333,53.529259],[26.849592,53.529319],[26.848418,53.529372],[26.847128,53.529447],[26.845275,53.529606],[26.843599,53.529784],[26.841869,53.530001],[26.840873,53.530148],[26.839936,53.530301],[26.838144,53.530627],[26.837048,53.530837],[26.834771,53.531296],[26.832867,53.531685],[26.832544,53.531747],[26.822982,53.533672],[26.818278,53.534614],[26.815681,53.535069],[26.812975,53.535481],[26.811103,53.535747],[26.806694,53.536209],[26.805285,53.536327],[26.803546,53.536443],[26.80173,53.536546],[26.799051,53.536649],[26.795971,53.536693],[26.793686,53.536678],[26.791183,53.536624],[26.788429,53.536492],[26.786727,53.536377],[26.783408,53.536102],[26.78119,53.535884],[26.779315,53.535666],[26.777259,53.535346],[26.773667,53.534759],[26.769588,53.534106],[26.767518,53.533786],[26.766117,53.533552],[26.763442,53.533121],[26.762811,53.533027],[26.759575,53.532492],[26.759171,53.532426],[26.758636,53.532338],[26.755771,53.531869],[26.752726,53.53137],[26.749745,53.530889],[26.74686,53.530416],[26.744462,53.529996],[26.743477,53.529817],[26.740788,53.529323],[26.734217,53.528007],[26.731857,53.527522],[26.730487,53.527248],[26.728097,53.52673],[26.724591,53.525964],[26.718551,53.52455],[26.716311,53.523991],[26.710891,53.522638],[26.706942,53.521624],[26.704168,53.520902],[26.701236,53.520139],[26.694087,53.518302],[26.692272,53.517836],[26.691074,53.517496],[26.69033,53.5173],[26.689511,53.517063],[26.688764,53.516834],[26.687794,53.516525],[26.687079,53.516298],[26.685037,53.515625],[26.681151,53.51422],[26.680793,53.514082],[26.679987,53.513771],[26.679632,53.513634],[26.67806,53.512984],[26.676283,53.512203],[26.675924,53.512029],[26.674537,53.511358],[26.672715,53.510406],[26.670924,53.509441],[26.670443,53.509173],[26.670029,53.508943],[26.668386,53.508001],[26.667115,53.507257],[26.665836,53.506508],[26.665028,53.506021],[26.664664,53.50581],[26.663639,53.505217],[26.662863,53.504763],[26.661308,53.503852],[26.660943,53.503639],[26.659813,53.503007],[26.656993,53.501423],[26.653911,53.499618],[26.65268,53.498905],[26.650774,53.497791],[26.647196,53.495705],[26.644663,53.494147],[26.643446,53.493374],[26.640886,53.491624],[26.638998,53.490217],[26.636961,53.488637],[26.634095,53.486212],[26.632034,53.484302],[26.630194,53.482496],[26.626882,53.479254],[26.626217,53.478588],[26.625686,53.478036],[26.625326,53.477693],[26.624091,53.476476],[26.618347,53.470848],[26.612573,53.465142],[26.610534,53.463127],[26.606924,53.459574],[26.602768,53.455436],[26.600641,53.453143],[26.599201,53.451466],[26.597414,53.449282],[26.596199,53.447681],[26.595446,53.446718],[26.594594,53.445488],[26.594333,53.445286],[26.594138,53.445187],[26.593986,53.445148],[26.593656,53.445126],[26.592233,53.445133],[26.591474,53.445122],[26.588949,53.444909],[26.588576,53.44488],[26.588412,53.444917],[26.588306,53.444988],[26.588205,53.445105],[26.588129,53.445216],[26.585038,53.445006],[26.581509,53.444796],[26.574777,53.444383],[26.573284,53.444293],[26.565719,53.443819],[26.556116,53.443216],[26.554036,53.443115],[26.55014,53.442863],[26.545881,53.442596],[26.539199,53.442196],[26.535297,53.441959],[26.531212,53.441699],[26.529276,53.441593],[26.528448,53.441555],[26.527514,53.44152],[26.526764,53.441535],[26.526159,53.441616],[26.525418,53.441747],[26.520654,53.442803],[26.516484,53.443717],[26.511833,53.444727],[26.509013,53.445357],[26.507197,53.44576],[26.506489,53.445917],[26.504616,53.44633],[26.502424,53.446816],[26.496197,53.448176],[26.4924,53.448981],[26.489979,53.449527],[26.489713,53.449594],[26.489281,53.449706],[26.488667,53.449861],[26.486771,53.450445],[26.48527,53.450901],[26.48512,53.450947],[26.484914,53.451006],[26.48454,53.451114],[26.484232,53.451203],[26.483793,53.45133],[26.483391,53.451454],[26.483212,53.45151],[26.482975,53.451581],[26.482561,53.451703],[26.48239,53.451749],[26.482117,53.451831],[26.481454,53.452028],[26.481249,53.452089],[26.479553,53.452578],[26.478966,53.452747],[26.478339,53.452934],[26.477455,53.453189],[26.475921,53.453646],[26.473886,53.454253],[26.473701,53.454148],[26.472603,53.4535],[26.471162,53.452621],[26.470788,53.452377],[26.469934,53.45187],[26.46948,53.451578],[26.469356,53.451495],[26.469267,53.451426],[26.469731,53.451232],[26.469818,53.451198],[26.470148,53.451052],[26.470343,53.450933],[26.470445,53.450857],[26.470596,53.450735],[26.470649,53.450685],[26.470833,53.450514],[26.471001,53.450348],[26.471103,53.450241],[26.47134,53.450002],[26.471592,53.449695],[26.471929,53.449265],[26.47228,53.448794],[26.472481,53.448519],[26.472743,53.44816],[26.47281,53.448067],[26.472911,53.447942],[26.473058,53.447739],[26.473335,53.447358],[26.473642,53.446946],[26.475932,53.443878],[26.47613,53.443603],[26.477478,53.441793],[26.477476,53.441703],[26.477476,53.441627],[26.477431,53.441602],[26.477369,53.441546],[26.477347,53.441506],[26.47734,53.441463],[26.47735,53.441413],[26.477364,53.441386],[26.477411,53.441337],[26.477474,53.441299],[26.477577,53.441266],[26.477691,53.441256],[26.47774,53.441258],[26.477845,53.441201],[26.477954,53.441144],[26.478024,53.441032],[26.478287,53.440642],[26.47848,53.440264],[26.479071,53.439007],[26.480907,53.435191],[26.48143,53.434104],[26.481497,53.433965],[26.482773,53.431315],[26.484898,53.426904],[26.485017,53.426658],[26.485093,53.426501],[26.488725,53.418961],[26.489269,53.417785],[26.489643,53.416975],[26.490129,53.41597],[26.490373,53.415518],[26.490684,53.41506],[26.491883,53.413241],[26.494387,53.409503],[26.494538,53.409277],[26.494984,53.408625],[26.4953,53.408162],[26.496371,53.406595],[26.497806,53.404388],[26.498761,53.403005],[26.499114,53.402442],[26.499923,53.401202],[26.500191,53.400717],[26.500334,53.400495],[26.500688,53.399975],[26.500736,53.3999],[26.501751,53.398361],[26.502073,53.397826],[26.502307,53.397374],[26.502698,53.396391],[26.503145,53.395189],[26.503811,53.393167],[26.50429,53.391594],[26.505294,53.388432],[26.505739,53.38704],[26.505757,53.386979],[26.505971,53.386243],[26.506212,53.385416],[26.506317,53.384995],[26.506815,53.383433],[26.507632,53.380939],[26.507682,53.380711],[26.507718,53.380524],[26.5077,53.380445],[26.507552,53.380243],[26.505445,53.378923],[26.504623,53.37842],[26.501344,53.376408],[26.494009,53.371885],[26.488861,53.36871],[26.48374,53.365552],[26.480115,53.363361],[26.47297,53.359253],[26.470116,53.357629],[26.468498,53.356726],[26.46606,53.355349],[26.463075,53.353648],[26.46197,53.353023],[26.460887,53.352404],[26.454634,53.34886],[26.453358,53.348133],[26.45278,53.347805],[26.451054,53.346818],[26.450569,53.346551],[26.449044,53.345652],[26.445787,53.343801],[26.445324,53.343538],[26.44471,53.343182],[26.442851,53.342147],[26.440966,53.341086],[26.440048,53.340573],[26.439441,53.340234],[26.437048,53.338896],[26.435154,53.337824],[26.43443,53.33741],[26.432587,53.336339],[26.43216,53.336103],[26.429565,53.334635],[26.427742,53.333604],[26.423539,53.33123],[26.419392,53.328874],[26.418319,53.328249],[26.416431,53.327155],[26.412547,53.324727],[26.410251,53.323221],[26.408219,53.321816],[26.407314,53.32119],[26.406089,53.320379],[26.403798,53.31876],[26.401475,53.317177],[26.399116,53.315545],[26.398398,53.315048],[26.398267,53.314959],[26.397181,53.314222],[26.39562,53.313131],[26.39255,53.311025],[26.390557,53.309656],[26.38803,53.307902],[26.387711,53.307689],[26.386609,53.306952],[26.385305,53.306113],[26.383957,53.305312],[26.382201,53.304325],[26.38043,53.303385],[26.379355,53.302814],[26.378131,53.302234],[26.376469,53.301472],[26.375875,53.301199],[26.374366,53.300548],[26.372904,53.299949],[26.371765,53.299509],[26.370663,53.29909],[26.369216,53.298575],[26.368776,53.298426],[26.367955,53.298148],[26.365742,53.29744],[26.363511,53.296776],[26.35964,53.295653],[26.359022,53.295475],[26.357068,53.294915],[26.356121,53.294637],[26.350869,53.293097],[26.35006,53.292865],[26.344248,53.291168],[26.341796,53.290445],[26.339286,53.289666],[26.336128,53.288515],[26.335162,53.288174],[26.333309,53.287443],[26.331448,53.286656],[26.329951,53.285949],[26.328356,53.285179],[26.327385,53.284711],[26.324661,53.283387],[26.323661,53.282902],[26.319955,53.281061],[26.313086,53.277683],[26.313005,53.277643],[26.312405,53.277348],[26.310347,53.276346],[26.308781,53.275564],[26.305913,53.274156],[26.304007,53.273222],[26.302062,53.272302],[26.301561,53.272075],[26.300983,53.271813],[26.298901,53.270935],[26.29724,53.270267],[26.295543,53.269658],[26.292952,53.268763],[26.29197,53.26845],[26.290307,53.267919],[26.288755,53.267461],[26.288607,53.26742],[26.28787,53.267218],[26.286214,53.266796],[26.283965,53.266243],[26.281896,53.265779],[26.279541,53.265253],[26.27619,53.264517],[26.27472,53.264196],[26.270851,53.263353],[26.268802,53.262905],[26.266667,53.26243],[26.262821,53.26157],[26.260683,53.261096],[26.256054,53.260072],[26.253812,53.259581],[26.250591,53.25887],[26.24794,53.258289],[26.246513,53.257973],[26.245193,53.25768],[26.242493,53.257078],[26.240229,53.256544],[26.237782,53.255924],[26.2353,53.25529],[26.232603,53.254529],[26.231371,53.254182],[26.229204,53.253535],[26.226978,53.252851],[26.224884,53.252198],[26.220562,53.25074],[26.219408,53.250341],[26.206336,53.245825],[26.204551,53.24521],[26.201052,53.244003],[26.19357,53.241416],[26.192019,53.24088],[26.19056,53.240376],[26.185309,53.238587],[26.183198,53.23782],[26.181501,53.237193],[26.180657,53.236853],[26.179517,53.236392],[26.178076,53.235788],[26.176765,53.235229],[26.175538,53.234663],[26.174401,53.234115],[26.172986,53.233396],[26.17167,53.232694],[26.170081,53.231813],[26.169068,53.231211],[26.167435,53.230199],[26.164605,53.228445],[26.161924,53.226777],[26.159255,53.225127],[26.158556,53.224704],[26.157589,53.224119],[26.155864,53.223091],[26.154417,53.222272],[26.153095,53.221553],[26.151811,53.220902],[26.150526,53.220275],[26.148935,53.219529],[26.147638,53.219011],[26.146541,53.218555],[26.144881,53.21788],[26.143037,53.217182],[26.142469,53.216965],[26.141541,53.216637],[26.140581,53.216324],[26.139264,53.215894],[26.137177,53.215184],[26.134342,53.21439],[26.132384,53.213881],[26.126292,53.212375],[26.123951,53.211797],[26.122077,53.211344],[26.120809,53.211033],[26.120669,53.210999],[26.118486,53.210463],[26.116175,53.209809],[26.114636,53.209339],[26.113077,53.208824],[26.112849,53.208743],[26.111689,53.208328],[26.110277,53.207792],[26.109468,53.207464],[26.107915,53.206826],[26.107516,53.206649],[26.106011,53.20598],[26.102484,53.204367],[26.099957,53.203169],[26.098879,53.202666],[26.09858,53.202525],[26.0977,53.202133],[26.095625,53.201215],[26.092449,53.199776],[26.087073,53.197338],[26.083674,53.195738],[26.082844,53.195374],[26.081583,53.19477],[26.08006,53.193988],[26.078608,53.193232],[26.077864,53.192835],[26.075951,53.19175],[26.074375,53.190861],[26.073665,53.190464],[26.072131,53.189586],[26.071278,53.189082],[26.068928,53.187793],[26.068089,53.187388],[26.06715,53.18694],[26.066411,53.186608],[26.06603,53.186453],[26.064905,53.186032],[26.063652,53.185538],[26.062072,53.18493],[26.060529,53.184428],[26.060127,53.184297],[26.058476,53.183813],[26.057182,53.183476],[26.05588,53.183157],[26.05435,53.182817],[26.05305,53.182557],[26.051513,53.182297],[26.050349,53.182112],[26.049038,53.18193],[26.047743,53.181778],[26.046342,53.181648],[26.045048,53.181538],[26.04404,53.181486],[26.043344,53.181454],[26.041709,53.181377],[26.041378,53.181373],[26.040585,53.181346],[26.038044,53.181257],[26.035858,53.181142],[26.034668,53.181057],[26.033181,53.180913],[26.031768,53.180769],[26.031523,53.180739],[26.030886,53.180662],[26.029614,53.180486],[26.028275,53.180262],[26.027125,53.180052],[26.02586,53.179799],[26.024627,53.179524],[26.021298,53.178677],[26.020835,53.17855],[26.019349,53.17814],[26.018837,53.177992],[26.018144,53.17779],[26.017605,53.177631],[26.017037,53.177462],[26.01468,53.17677],[26.012601,53.176152],[26.010584,53.1755],[26.008866,53.174897],[26.007114,53.174254],[26.005224,53.173505],[26.004566,53.173231],[26.003909,53.172958],[26.001429,53.171872],[25.999156,53.170885],[25.99591,53.16947],[25.994552,53.168882],[25.993207,53.168312],[25.992383,53.167941],[25.992229,53.167872],[25.991273,53.16742],[25.990338,53.166931],[25.989342,53.166421],[25.988723,53.166062],[25.987744,53.165476],[25.986944,53.164986],[25.985964,53.164348],[25.985401,53.16393],[25.984825,53.163501],[25.984354,53.163135],[25.983984,53.162828],[25.983515,53.16244],[25.983036,53.162052],[25.982294,53.161369],[25.98185,53.160946],[25.981388,53.160508],[25.980383,53.159509],[25.980021,53.159297],[25.979834,53.159219],[25.979573,53.159176],[25.97923,53.15915],[25.978983,53.159182],[25.9788,53.15924],[25.978598,53.15936],[25.978474,53.159516],[25.97845,53.15967],[25.978485,53.15987],[25.978634,53.160034],[25.97884,53.160134],[25.979108,53.160206],[25.979447,53.160224],[25.980207,53.160149],[25.980442,53.160111],[25.981527,53.159929],[25.986303,53.159132],[25.98673,53.159066],[25.987516,53.158934],[25.987976,53.158855],[25.990887,53.158386],[25.991553,53.158268],[25.992099,53.158157],[25.992661,53.157994],[25.992974,53.157877],[25.993262,53.157726],[25.993677,53.157453],[25.994256,53.157065],[25.994719,53.156698],[25.995262,53.156111],[25.995562,53.155791],[25.995977,53.155319],[25.99606,53.155061],[25.996776,53.154291],[25.996988,53.154054],[25.997185,53.153844],[25.997376,53.153645],[25.997551,53.153463],[25.998021,53.152958],[25.998284,53.152646],[25.998381,53.152538],[25.998727,53.152156],[25.999024,53.15188],[25.999125,53.151788],[25.999366,53.151602],[26.000018,53.150883],[26.000415,53.150455],[26.000442,53.150424],[26.000977,53.149826],[26.001128,53.149659],[26.001276,53.1495],[26.001679,53.149069],[26.001765,53.148977],[26.0035,53.147121],[26.0039,53.146693],[26.004114,53.146465],[26.004504,53.146048],[26.004761,53.145771],[26.00482,53.145708],[26.005256,53.145226],[26.005836,53.144585],[26.006486,53.14388],[26.006662,53.143676],[26.006829,53.143476],[26.00706,53.14321],[26.007202,53.14306],[26.007676,53.142551],[26.007813,53.142387],[26.007951,53.142221],[26.008037,53.142126],[26.008424,53.141695],[26.008785,53.141269],[26.009162,53.140843],[26.011501,53.138344],[26.012508,53.137233],[26.01252,53.137095],[26.012523,53.136991],[26.012505,53.136974],[26.012328,53.136914],[26.012218,53.136875],[26.011979,53.136791],[26.011862,53.13675],[26.011422,53.136627],[26.010971,53.1365],[26.01043,53.136348],[26.010201,53.13628],[26.009102,53.135957],[26.008208,53.135693],[26.006781,53.13527],[26.005904,53.13501],[26.005825,53.134986],[26.005733,53.134962],[26.00566,53.134942],[26.004652,53.134647],[26.004186,53.134511],[26.003593,53.134338],[26.002651,53.134067],[26.002563,53.134041],[26.002138,53.133919],[26.001265,53.133668],[26.00115,53.133635],[26.001074,53.133614],[25.999791,53.133249],[25.999252,53.133077],[25.998949,53.132914],[25.998811,53.132805],[25.998704,53.132673],[25.998633,53.132546],[25.998502,53.131981],[25.998429,53.13183],[25.998351,53.131714],[25.998253,53.131617],[25.99813,53.131522],[25.997962,53.131429],[25.997738,53.131342],[25.996136,53.130775],[25.995823,53.130664],[25.995572,53.130575],[25.995474,53.13054],[25.994936,53.13035],[25.994786,53.130296],[25.994707,53.13027],[25.994313,53.130137],[25.993298,53.129794],[25.992568,53.129547],[25.991169,53.129061],[25.990967,53.128991],[25.99056,53.12885],[25.990103,53.128692],[25.989298,53.128415],[25.988957,53.128297],[25.988732,53.128219],[25.988593,53.12817],[25.988312,53.128072],[25.98813,53.12799],[25.988022,53.127932],[25.987918,53.127832],[25.987589,53.127364],[25.987495,53.127233],[25.98743,53.12714],[25.986804,53.126248],[25.985689,53.124658],[25.985541,53.124444],[25.98539,53.124206],[25.985142,53.123814],[25.984972,53.123546],[25.984725,53.123157],[25.984578,53.122919],[25.984399,53.122662],[25.984257,53.122455],[25.983958,53.122021],[25.983639,53.121557],[25.983508,53.121421],[25.98338,53.121317],[25.983181,53.121184],[25.982988,53.121077],[25.981969,53.12065],[25.981886,53.120615],[25.981583,53.120488],[25.981046,53.120262],[25.980951,53.120222],[25.980459,53.120015],[25.979949,53.119801],[25.979647,53.119675],[25.979727,53.119609],[25.979779,53.119567],[25.980612,53.118887],[25.981223,53.118409],[25.981876,53.117898],[25.98021,53.117126],[25.979925,53.117003],[25.980436,53.116626],[25.980941,53.116253],[25.981261,53.116017],[25.981411,53.115892],[25.98163,53.115747]],"type":"LineString"},"properties":{"routeId":"vitebsk","source":"https://routing.openstreetmap.de/routed-car","fetchedAt":"2026-10-08T07:16:45.080Z","distanceMeters":502099.2,"durationSeconds":24729.1,"demoOnly":true}}